trilat,trilong,ssid,qos,transid,firsttime,lasttime,lastupdt,netid,name,type,comment,wep,bcninterval,freenet,dhcp,paynet,userfound,channel,rcois,encryption,country,region,road,city,housenumber,postalcode
37.38183594,-121.98490906,Random1,0,20240129-00000,2024-01-29T14:00:00.000Z,2024-01-29T10:00:00.000Z,2024-01-29T10:00:00.000Z,00:03:7F:08:A5:68,,infra,,2,0,?,?,?,False,1,506f9a 1bc504bd,wpa2,US,CA,Garrett Drive,Santa Clara,,94089-2701
-22.89505768,-43.18717575,OPENROAMING,1,20240717-00000,2024-05-21T01:00:00.000Z,2024-07-17T20:00:00.000Z,2024-07-17T21:00:00.000Z,00:04:56:99:D1:C2,,infra,,2,0,?,?,?,False,6,5a03ba0000,wpa2,BR,Rio de Janeiro,Avenida Barão de Tefé,Rio de Janeiro,34,20081-312
32.75365448,-97.69207001,Nextlink Mobile,0,20240526-00000,2024-05-27T01:00:00.000Z,2024-05-26T19:00:00.000Z,2024-05-26T21:00:00.000Z,00:04:56:A2:D5:F2,,infra,,2,0,?,?,?,False,11,f4f5e8f5f4,wpa2,US,TX,I 20,,,
32.75029755,-97.68047333,Nextlink Mobile,0,20240628-00000,2024-06-28T20:00:00.000Z,2024-06-28T15:00:00.000Z,2024-06-28T16:00:00.000Z,00:04:56:A2:D5:F3,,infra,,2,0,?,?,?,False,11,f4f5e8f5f4,wpa2,US,TX,I 20,,,
28.63162994,77.22753906,HFCL_WBA_Openroaming,0,20240129-00000,2024-01-30T03:00:00.000Z,2024-01-30T03:00:00.000Z,2024-01-30T03:00:00.000Z,00:06:AE:FF:F4:25,,infra,,2,0,?,?,?,False,11,5a03ba0000,wpa2,IN,Delhi,Babar Road,New Delhi,,110 001
28.63162613,77.22756958,HFCL_WBA_Openroaming,0,20240129-00000,2024-01-30T03:00:00.000Z,2024-01-30T03:00:00.000Z,2024-01-30T03:00:00.000Z,00:06:AE:FF:F4:35,,infra,,2,0,?,?,?,False,136,5a03ba0000,wpa2,IN,Delhi,Babar Road,New Delhi,,110 001
48.85497665,2.36977196,FlymingoWifi #3,0,20240229-00000,2024-01-26T21:00:00.000Z,2024-02-29T11:00:00.000Z,2024-02-29T22:00:00.000Z,00:19:70:BF:B0:85,,infra,,?,0,?,?,?,False,40,2233445566,unknown,FR,Île-de-France,Esplanade Roger Joseph Boscovich,Paris,,75011
40.65671158,-74.00675964,OpenRoaming,0,20240425-00000,2024-04-25T15:00:00.000Z,2024-04-25T08:00:00.000Z,2024-04-25T09:00:00.000Z,00:1B:D5:55:68:28,,infra,,2,0,?,?,?,False,36,5a03ba0100 5a03ba0000,wpa2,US,NY,35th Street,City of New York,33,11211
36.10260391,-115.16963196,BoldynPasspoint,0,20240518-00000,2024-05-18T19:00:00.000Z,2024-05-18T15:00:00.000Z,2024-05-18T16:00:00.000Z,00:27:90:45:3E:61,,infra,,2,0,?,?,?,False,40,cae505 f4f5e8f5f4,wpa2,US,NV,Audrie Street,,,89158
36.10260391,-115.16963196,BoldynPasspoint,0,20240207-00000,2024-01-24T02:00:00.000Z,2024-05-18T15:00:00.000Z,2024-05-18T16:00:00.000Z,00:27:90:45:3E:6E,,infra,,2,0,?,?,?,False,1,cae505 f4f5e8f5f4,wpa2,US,NV,Audrie Street,,,89158
36.09749222,-115.17685699,BoldynPasspoint,0,20240323-00000,2024-03-24T00:00:00.000Z,2024-03-23T20:00:00.000Z,2024-03-23T21:00:00.000Z,00:27:90:45:40:6F,,infra,,2,0,?,?,?,False,36,cae505 f4f5e8f5f4,wpa2,US,NV,West Reno Avenue,,,89119-1001
36.09786987,-115.17575836,BoldynPasspoint,1,20240408-00000,2024-04-09T04:00:00.000Z,2024-04-12T23:00:00.000Z,2024-04-13T03:00:00.000Z,00:27:90:45:FA:8F,,infra,,2,0,?,?,?,False,100,cae505 f4f5e8f5f4,wpa2,US,NV,Luxor - Excalibur,,,89119-1001
36.09744644,-115.1758194,BoldynPasspoint,2,20240109-00000,2024-01-10T01:00:00.000Z,2024-04-08T22:00:00.000Z,2024-04-09T09:00:00.000Z,00:27:90:4C:C5:AF,,infra,,2,0,?,?,?,False,36,cae505 f4f5e8f5f4,wpa2,US,NV,Luxor - Excalibur,,,89119-1001
36.10027695,-115.16782379,BoldynPasspoint,0,20240603-00000,2024-06-04T02:00:00.000Z,2024-06-03T20:00:00.000Z,2024-06-03T21:00:00.000Z,00:27:90:4D:44:C0,,infra,,2,0,?,?,?,False,11,cae505 f4f5e8f5f4,wpa2,US,NV,Duke Ellington Way,,,89119-1001
36.10027695,-115.16782379,BoldynPasspoint,0,20240603-00000,2024-06-04T02:00:00.000Z,2024-06-03T20:00:00.000Z,2024-06-03T21:00:00.000Z,00:27:90:4D:44:CF,,infra,,2,0,?,?,?,False,36,cae505 f4f5e8f5f4,wpa2,US,NV,Duke Ellington Way,,,89119-1001
36.09687042,-115.17571259,BoldynPasspoint,0,20240412-00000,2024-04-13T01:00:00.000Z,2024-04-12T23:00:00.000Z,2024-04-13T03:00:00.000Z,00:27:90:4D:7F:6F,,infra,,2,0,?,?,?,False,100,cae505 f4f5e8f5f4,wpa2,US,NV,Luxor - Excalibur,,,89119-1001
36.09740829,-115.17776489,BoldynPasspoint,0,20240211-00000,2024-02-11T23:00:00.000Z,2024-02-11T16:00:00.000Z,2024-02-11T16:00:00.000Z,00:27:90:4D:94:AF,,infra,,2,0,?,?,?,False,52,cae505 f4f5e8f5f4,wpa2,US,NV,Luxor Drive,,,89158
34.05765533,-118.41867828,_Westfield CO,0,20240413-00000,2024-04-13T21:00:00.000Z,2024-04-13T20:00:00.000Z,2024-04-14T01:00:00.000Z,00:2A:10:D6:2B:57,,infra,,2,0,?,?,?,False,6,f4f5e8f5f4,wpa2,US,CA,Santa Monica Boulevard,Los Angeles,10250,90067
34.05765533,-118.41867828,_Westfield CO,0,20240413-00000,2024-04-13T21:00:00.000Z,2024-04-13T20:00:00.000Z,2024-04-14T01:00:00.000Z,00:2A:10:D6:2B:58,,infra,,2,0,?,?,?,False,128,f4f5e8f5f4,wpa2,US,CA,Santa Monica Boulevard,Los Angeles,10250,90067
0.0,0.0,_Westfield CO,0,20240413-00000,2001-01-01T00:00:00.000Z,2001-01-01T00:00:00.000Z,2024-06-20T20:00:00.000Z,00:2A:10:E2:83:88,,infra,,2,0,?,?,?,False,140,f4f5e8f5f4,wpa2,,,,,,
34.0578804,-118.4189682,_Westfield CO,0,20240413-00000,2024-04-13T21:00:00.000Z,2024-04-13T20:00:00.000Z,2024-04-14T01:00:00.000Z,00:2A:10:FF:D6:08,,infra,,2,0,?,?,?,False,128,f4f5e8f5f4,wpa2,US,CA,Santa Monica Boulevard,Los Angeles,10250,90067
34.06042862,-118.41849518,_Westfield CO,0,20240428-00000,2024-04-29T01:00:00.000Z,2024-04-28T19:00:00.000Z,2024-04-28T21:00:00.000Z,00:2A:10:FF:D8:07,,infra,,2,0,?,?,?,False,1,f4f5e8f5f4,wpa2,US,CA,Santa Monica Boulevard,Los Angeles,10250,90067
34.06043243,-118.41844177,_Westfield CO,0,20240428-00000,2024-04-29T01:00:00.000Z,2024-04-28T19:00:00.000Z,2024-04-28T21:00:00.000Z,00:2A:10:FF:D8:08,,infra,,2,0,?,?,?,False,140,f4f5e8f5f4,wpa2,US,CA,Santa Monica Boulevard,Los Angeles,10250,90067
33.41106033,-112.06469727,XNET Passpoint,0,20240702-00000,2024-07-01T05:00:00.000Z,2024-07-02T11:00:00.000Z,2024-07-02T12:00:00.000Z,00:33:58:5E:F2:E0,,infra,,2,0,?,?,?,False,6,baa2d00100 baa2d00000 f4f5e8f5f4,wpa2,US,AZ,South 7th Street,Phoenix,,85034-5120
25.79158211,-80.13184357,XNET Passpoint,0,20240713-00000,2024-07-13T22:00:00.000Z,2024-07-13T17:00:00.000Z,2024-07-13T20:00:00.000Z,00:33:58:66:32:D0,,infra,,2,0,?,?,?,False,11,baa2d00100 baa2d00000 f4f5e8f5f4,wpa2,US,FL,Washington Avenue,Miami Beach,,33139
25.79416084,-80.13192749,XNET Passpoint,0,20240713-00000,2024-07-13T22:00:00.000Z,2024-07-13T17:00:00.000Z,2024-07-13T20:00:00.000Z,00:33:58:A6:32:D0,,infra,,2,0,?,?,?,False,48,baa2d00100 baa2d00000 f4f5e8f5f4,wpa2,US,FL,Washington Avenue,Miami Beach,1809,33139
51.98714066,5.66672087,openroaming,0,20240515-00000,2024-05-12T11:00:00.000Z,2024-05-15T16:00:00.000Z,2024-05-15T17:00:00.000Z,00:35:1A:4E:68:4B,,infra,,2,0,?,?,?,False,116,4096 1bc50460 5a03ba0000,wpa2,NL,Gelderland,Tarthorst,,,6708HS
51.98711395,5.66674089,openroaming,0,20240515-00000,2024-05-12T11:00:00.000Z,2024-05-15T16:00:00.000Z,2024-05-15T17:00:00.000Z,00:35:1A:4E:69:74,,infra,,2,0,?,?,?,False,1,4096 1bc50460 5a03ba0000,wpa2,NL,Gelderland,Tarthorst,,,6708HS
51.98697281,5.66692829,OpenRoaming,1,20240515-00000,2024-05-12T11:00:00.000Z,2024-06-28T03:00:00.000Z,2024-06-28T04:00:00.000Z,00:35:1A:4E:69:7B,,infra,,2,0,?,?,?,False,140,4096 1bc50460 5a03ba0000,wpa2,NL,Gelderland,Tarthorst,,,6708HS
51.98693848,5.66740274,OpenRoaming,1,20240515-00000,2024-05-12T11:00:00.000Z,2024-06-28T03:00:00.000Z,2024-06-28T04:00:00.000Z,00:35:1A:5B:16:74,,infra,,2,0,?,?,?,False,1,4096 1bc50460 5a03ba0000,wpa2,NL,Gelderland,Tarthorst,,,6708HS
51.98667908,5.66799784,OpenRoaming,2,20240515-00000,2024-05-12T11:00:00.000Z,2024-07-09T03:00:00.000Z,2024-07-09T03:00:00.000Z,00:35:1A:5B:16:7B,,infra,,2,0,?,?,?,False,116,4096 1bc50460 5a03ba0000,wpa2,NL,Gelderland,Tarthorst,,,6708HS
51.98466492,5.65967894,openroaming,0,20240515-00000,2024-05-12T12:00:00.000Z,2024-05-15T16:00:00.000Z,2024-05-15T17:00:00.000Z,00:35:1A:5B:35:E5,,infra,,2,0,?,?,?,False,1,4096 1bc50460 5a03ba0000,wpa2,NL,Gelderland,Tarthorst,,,6708HS
51.98488235,5.65975809,openroaming,0,20240515-00000,2024-05-12T12:00:00.000Z,2024-05-15T16:00:00.000Z,2024-05-15T17:00:00.000Z,00:35:1A:5B:35:EA,,infra,,2,0,?,?,?,False,56,4096 1bc50460 5a03ba0000,wpa2,NL,Gelderland,Tarthorst,,,6708HS
51.98656845,5.66534472,OpenRoaming,1,20240515-00000,2024-05-12T11:00:00.000Z,2024-06-28T03:00:00.000Z,2024-06-28T04:00:00.000Z,00:35:1A:5B:40:B4,,infra,,2,0,?,?,?,False,1,4096 1bc50460 5a03ba0000,wpa2,NL,Gelderland,Tarthorst,,,6708HS
51.98653793,5.66540813,OpenRoaming,1,20240515-00000,2024-05-12T11:00:00.000Z,2024-06-28T03:00:00.000Z,2024-06-28T04:00:00.000Z,00:35:1A:5B:40:BB,,infra,,2,0,?,?,?,False,140,4096 1bc50460 5a03ba0000,wpa2,NL,Gelderland,Tarthorst,,,6708HS
51.98691559,5.66776514,openroaming,0,20240515-00000,2024-05-12T11:00:00.000Z,2024-05-15T16:00:00.000Z,2024-05-15T17:00:00.000Z,00:35:1A:5B:43:2B,,infra,,2,0,?,?,?,False,140,4096 1bc50460 5a03ba0000,wpa2,NL,Gelderland,Tarthorst,,,6708HS
51.98685837,5.66708136,OpenRoaming,1,20240515-00000,2024-05-12T11:00:00.000Z,2024-06-28T03:00:00.000Z,2024-06-28T04:00:00.000Z,00:35:1A:5B:43:64,,infra,,2,0,?,?,?,False,1,4096 1bc50460 5a03ba0000,wpa2,NL,Gelderland,Tarthorst,,,6708HS
51.98680496,5.6670475,OpenRoaming,1,20240515-00000,2024-05-12T11:00:00.000Z,2024-06-28T03:00:00.000Z,2024-06-28T04:00:00.000Z,00:35:1A:5B:43:6B,,infra,,2,0,?,?,?,False,140,4096 1bc50460 5a03ba0000,wpa2,NL,Gelderland,Tarthorst,,,6708HS
51.98681641,5.66810608,OpenRoaming,2,20240515-00000,2024-05-12T11:00:00.000Z,2024-07-09T03:00:00.000Z,2024-07-09T03:00:00.000Z,00:35:1A:5B:44:CB,,infra,,2,0,?,?,?,False,104,4096 1bc50460 5a03ba0000,wpa2,NL,Gelderland,Tarthorst,,,6708HS
51.98635101,5.66701698,openroaming,0,20240515-00000,2024-05-12T11:00:00.000Z,2024-05-15T16:00:00.000Z,2024-05-15T17:00:00.000Z,00:35:1A:5B:45:D4,,infra,,2,0,?,?,?,False,11,4096 1bc50460 5a03ba0000,wpa2,NL,Gelderland,Tarthorst,,,6708HS
51.98666,5.66661072,openroaming,0,20240515-00000,2024-05-12T11:00:00.000Z,2024-05-15T16:00:00.000Z,2024-05-15T17:00:00.000Z,00:35:1A:5B:45:DB,,infra,,2,0,?,?,?,False,64,4096 1bc50460 5a03ba0000,wpa2,NL,Gelderland,Tarthorst,,,6708HS
51.98692703,5.66784763,openroaming,0,20240515-00000,2024-05-12T11:00:00.000Z,2024-05-15T16:00:00.000Z,2024-05-15T17:00:00.000Z,00:35:1A:5B:46:24,,infra,,2,0,?,?,?,False,11,4096 1bc50460 5a03ba0000,wpa2,NL,Gelderland,Tarthorst,,,6708HS
51.98685074,5.66709042,OpenRoaming,1,20240515-00000,2024-05-12T11:00:00.000Z,2024-06-28T03:00:00.000Z,2024-06-28T04:00:00.000Z,00:35:1A:5B:46:2B,,infra,,2,0,?,?,?,False,140,4096 1bc50460 5a03ba0000,wpa2,NL,Gelderland,Tarthorst,,,6708HS
51.98464584,5.65968275,openroaming,0,20240515-00000,2024-05-12T12:00:00.000Z,2024-05-15T16:00:00.000Z,2024-05-15T17:00:00.000Z,00:35:1A:5E:BB:FA,,infra,,2,0,?,?,?,False,132,4096 1bc50460 5a03ba0000,wpa2,NL,Gelderland,Tarthorst,,,6708HS
51.98487473,5.6597724,openroaming,0,20240515-00000,2024-05-12T12:00:00.000Z,2024-05-15T16:00:00.000Z,2024-05-15T17:00:00.000Z,00:35:1A:5E:BC:35,,infra,,2,0,?,?,?,False,1,4096 1bc50460 5a03ba0000,wpa2,NL,Gelderland,Tarthorst,,,6708HS
51.98487473,5.6597724,openroaming,0,20240515-00000,2024-05-12T12:00:00.000Z,2024-05-15T16:00:00.000Z,2024-05-15T17:00:00.000Z,00:35:1A:5E:BE:15,,infra,,2,0,?,?,?,False,1,4096 1bc50460 5a03ba0000,wpa2,NL,Gelderland,Tarthorst,,,6708HS
51.98478317,5.65973854,openroaming,0,20240515-00000,2024-05-12T12:00:00.000Z,2024-05-15T16:00:00.000Z,2024-05-15T17:00:00.000Z,00:35:1A:5E:BE:1A,,infra,,2,0,?,?,?,False,48,4096 1bc50460 5a03ba0000,wpa2,NL,Gelderland,Tarthorst,,,6708HS
51.98463821,5.65966463,openroaming,0,20240515-00000,2024-05-12T12:00:00.000Z,2024-05-15T16:00:00.000Z,2024-05-15T17:00:00.000Z,00:35:1A:5E:C0:25,,infra,,2,0,?,?,?,False,6,4096 1bc50460 5a03ba0000,wpa2,NL,Gelderland,Tarthorst,,,6708HS
51.98439026,5.65975904,openroaming,1,20240414-00000,2024-04-10T17:00:00.000Z,2024-05-15T16:00:00.000Z,2024-05-15T17:00:00.000Z,00:35:1A:5E:C0:2A,,infra,,2,0,?,?,?,False,100,4096 1bc50460 5a03ba0000,wpa2,NL,Gelderland,Tarthorst,,,6708HS
51.98494339,5.65967178,openroaming,0,20240515-00000,2024-05-12T12:00:00.000Z,2024-05-15T16:00:00.000Z,2024-05-15T17:00:00.000Z,00:35:1A:5E:C0:65,,infra,,2,0,?,?,?,False,1,4096 1bc50460 5a03ba0000,wpa2,NL,Gelderland,Tarthorst,,,6708HS
51.98492432,5.65969467,openroaming,0,20240515-00000,2024-05-12T12:00:00.000Z,2024-05-15T16:00:00.000Z,2024-05-15T17:00:00.000Z,00:35:1A:5E:C0:6A,,infra,,2,0,?,?,?,False,64,4096 1bc50460 5a03ba0000,wpa2,NL,Gelderland,Tarthorst,,,6708HS
51.98505402,5.65930748,openroaming,0,20240515-00000,2024-05-12T12:00:00.000Z,2024-05-15T16:00:00.000Z,2024-05-15T17:00:00.000Z,00:35:1A:5E:C1:A5,,infra,,2,0,?,?,?,False,1,4096 1bc50460 5a03ba0000,wpa2,NL,Gelderland,Tarthorst,,,6708HS
51.98508453,5.65953875,openroaming,0,20240515-00000,2024-05-12T12:00:00.000Z,2024-05-15T16:00:00.000Z,2024-05-15T17:00:00.000Z,00:35:1A:5E:C1:AA,,infra,,2,0,?,?,?,False,100,4096 1bc50460 5a03ba0000,wpa2,NL,Gelderland,Tarthorst,,,6708HS
51.98468399,5.6596899,openroaming,0,20240515-00000,2024-05-12T12:00:00.000Z,2024-05-15T16:00:00.000Z,2024-05-15T17:00:00.000Z,00:35:1A:5E:C6:A5,,infra,,2,0,?,?,?,False,6,4096 1bc50460 5a03ba0000,wpa2,NL,Gelderland,Tarthorst,,,6708HS
51.98490524,5.65968418,openroaming,0,20240515-00000,2024-05-12T12:00:00.000Z,2024-05-15T16:00:00.000Z,2024-05-15T17:00:00.000Z,00:35:1A:5E:C6:AA,,infra,,2,0,?,?,?,False,140,4096 1bc50460 5a03ba0000,wpa2,NL,Gelderland,Tarthorst,,,6708HS
51.98478317,5.65965796,openroaming,0,20240515-00000,2024-05-12T12:00:00.000Z,2024-05-15T16:00:00.000Z,2024-05-15T17:00:00.000Z,00:35:1A:5E:C6:E5,,infra,,2,0,?,?,?,False,1,4096 1bc50460 5a03ba0000,wpa2,NL,Gelderland,Tarthorst,,,6708HS
51.98489761,5.65971375,openroaming,0,20240515-00000,2024-05-12T12:00:00.000Z,2024-05-15T16:00:00.000Z,2024-05-15T17:00:00.000Z,00:35:1A:5E:C6:EA,,infra,,2,0,?,?,?,False,64,4096 1bc50460 5a03ba0000,wpa2,NL,Gelderland,Tarthorst,,,6708HS
51.98720169,5.66800642,openroaming,0,20240515-00000,2024-05-12T11:00:00.000Z,2024-05-15T16:00:00.000Z,2024-05-15T17:00:00.000Z,00:35:1A:5E:D4:E4,,infra,,2,0,?,?,?,False,11,4096 1bc50460 5a03ba0000,wpa2,NL,Gelderland,Tarthorst,,,6708HS
51.98709869,5.6680994,openroaming,0,20240515-00000,2024-05-12T11:00:00.000Z,2024-05-15T16:00:00.000Z,2024-05-15T17:00:00.000Z,00:35:1A:5E:D4:EB,,infra,,2,0,?,?,?,False,140,4096 1bc50460 5a03ba0000,wpa2,NL,Gelderland,Tarthorst,,,6708HS
51.98508835,5.65947866,openroaming,0,20240515-00000,2024-05-12T12:00:00.000Z,2024-05-15T16:00:00.000Z,2024-05-15T17:00:00.000Z,00:35:1A:6B:A8:C5,,infra,,2,0,?,?,?,False,1,4096 1bc50460 5a03ba0000,wpa2,NL,Gelderland,Tarthorst,,,6708HS
51.98510361,5.65939617,openroaming,0,20240515-00000,2024-05-12T12:00:00.000Z,2024-05-15T16:00:00.000Z,2024-05-15T17:00:00.000Z,00:35:1A:6B:A8:CA,,infra,,2,0,?,?,?,False,64,4096 1bc50460 5a03ba0000,wpa2,NL,Gelderland,Tarthorst,,,6708HS
51.98683548,5.66617966,OpenRoaming,1,20240515-00000,2024-05-12T11:00:00.000Z,2024-06-28T03:00:00.000Z,2024-06-28T04:00:00.000Z,00:35:1A:6B:B2:E4,,infra,,2,0,?,?,?,False,11,4096 1bc50460 5a03ba0000,wpa2,NL,Gelderland,Tarthorst,,,6708HS
51.98688889,5.66639614,OpenRoaming,1,20240515-00000,2024-05-12T11:00:00.000Z,2024-06-28T03:00:00.000Z,2024-06-28T04:00:00.000Z,00:35:1A:6B:B2:EB,,infra,,2,0,?,?,?,False,140,4096 1bc50460 5a03ba0000,wpa2,NL,Gelderland,Tarthorst,,,6708HS
51.98839951,5.66876459,openroaming,0,20240326-00000,2024-03-25T20:00:00.000Z,2024-03-26T17:00:00.000Z,2024-03-26T20:00:00.000Z,00:35:1A:6B:B6:74,,infra,,2,0,?,?,?,False,1,4096 1bc50460 5a03ba0000,wpa2,NL,Gelderland,Mansholtlaan,,,6708PC
51.98841476,5.66872978,openroaming,0,20240326-00000,2024-03-25T20:00:00.000Z,2024-03-26T17:00:00.000Z,2024-03-26T20:00:00.000Z,00:35:1A:6B:B6:7B,,infra,,2,0,?,?,?,False,140,4096 1bc50460 5a03ba0000,wpa2,NL,Gelderland,Mansholtlaan,,,6708PC
51.98701859,5.66641378,openroaming,0,20240515-00000,2024-05-12T11:00:00.000Z,2024-05-15T16:00:00.000Z,2024-05-15T17:00:00.000Z,00:35:1A:6B:B7:CB,,infra,,2,0,?,?,?,False,140,4096 1bc50460 5a03ba0000,wpa2,NL,Gelderland,Tarthorst,,,6708HS
51.98698044,5.66624594,openroaming,0,20240515-00000,2024-05-12T11:00:00.000Z,2024-05-15T16:00:00.000Z,2024-05-15T17:00:00.000Z,00:35:1A:6B:BB:CB,,infra,,2,0,?,?,?,False,140,4096 1bc50460 5a03ba0000,wpa2,NL,Gelderland,Tarthorst,,,6708HS
51.98853302,5.66868162,openroaming,2,20240326-00000,2024-03-24T15:00:00.000Z,2024-04-21T04:00:00.000Z,2024-04-21T05:00:00.000Z,00:35:1A:6F:06:14,,infra,,2,0,?,?,?,False,1,4096 1bc50460 5a03ba0000,wpa2,NL,Gelderland,Mansholtlaan,,,6708PC
51.9884491,5.66872454,openroaming,6,20240307-00000,2024-03-07T22:00:00.000Z,2024-05-23T08:00:00.000Z,2024-05-23T08:00:00.000Z,00:35:1A:6F:06:1B,,infra,,2,0,?,?,?,False,140,4096 1bc50460 5a03ba0000,wpa2,NL,Gelderland,Mansholtlaan,,,6708PC
51.98681641,5.66539574,openroaming,0,20240515-00000,2024-05-12T11:00:00.000Z,2024-05-15T16:00:00.000Z,2024-05-15T17:00:00.000Z,00:35:1A:6F:06:84,,infra,,2,0,?,?,?,False,11,4096 1bc50460 5a03ba0000,wpa2,NL,Gelderland,Tarthorst,,,6708HS
51.98686218,5.66580725,openroaming,0,20240515-00000,2024-05-12T11:00:00.000Z,2024-05-15T16:00:00.000Z,2024-05-15T17:00:00.000Z,00:35:1A:6F:06:8B,,infra,,2,0,?,?,?,False,140,4096 1bc50460 5a03ba0000,wpa2,NL,Gelderland,Tarthorst,,,6708HS
51.98706818,5.66679716,openroaming,0,20240515-00000,2024-05-12T11:00:00.000Z,2024-05-15T16:00:00.000Z,2024-05-15T17:00:00.000Z,00:35:1A:6F:07:7B,,infra,,2,0,?,?,?,False,36,4096 1bc50460 5a03ba0000,wpa2,NL,Gelderland,Tarthorst,,,6708HS
51.98683929,5.66570807,openroaming,0,20240515-00000,2024-05-12T11:00:00.000Z,2024-05-15T16:00:00.000Z,2024-05-15T17:00:00.000Z,00:35:1A:6F:09:F4,,infra,,2,0,?,?,?,False,11,4096 1bc50460 5a03ba0000,wpa2,NL,Gelderland,Tarthorst,,,6708HS
51.98649597,5.66645145,openroaming,0,20240515-00000,2024-05-12T11:00:00.000Z,2024-05-15T16:00:00.000Z,2024-05-15T17:00:00.000Z,00:35:1A:6F:09:FB,,infra,,2,0,?,?,?,False,140,4096 1bc50460 5a03ba0000,wpa2,NL,Gelderland,Tarthorst,,,6708HS
51.98529053,5.66064692,openroaming,0,20240515-00000,2024-05-12T12:00:00.000Z,2024-05-15T16:00:00.000Z,2024-05-15T17:00:00.000Z,00:35:1A:6F:5F:AA,,infra,,2,0,?,?,?,False,140,4096 1bc50460 5a03ba0000,wpa2,NL,Gelderland,Tarthorst,,,6708HS
51.98727036,5.66767406,wur_iot,1,20240215-00000,2024-02-12T14:00:00.000Z,2024-05-15T16:00:00.000Z,2024-05-15T17:00:00.000Z,00:35:1A:77:1E:E3,,infra,,2,0,?,?,?,False,6,5a03ba0000 4096,wpa2,NL,Gelderland,Tarthorst,,,6708HS
51.98700714,5.66680384,OpenRoaming,1,20240515-00000,2024-05-12T11:00:00.000Z,2024-06-28T03:00:00.000Z,2024-06-28T04:00:00.000Z,00:35:1A:77:1E:E4,,infra,,2,0,?,?,?,False,6,4096 1bc50460 5a03ba0000,wpa2,NL,Gelderland,Tarthorst,,,6708HS
51.98708344,5.66748285,OpenRoaming,2,20240326-00000,2024-03-25T20:00:00.000Z,2024-06-28T03:00:00.000Z,2024-06-28T04:00:00.000Z,00:35:1A:77:1E:EB,,infra,,2,0,?,?,?,False,140,4096 1bc50460 5a03ba0000,wpa2,NL,Gelderland,Tarthorst,,,6708HS
51.98720169,5.66800642,openroaming,0,20240515-00000,2024-05-12T11:00:00.000Z,2024-05-15T16:00:00.000Z,2024-05-15T17:00:00.000Z,00:35:1A:77:1F:4B,,infra,,2,0,?,?,?,False,140,4096 1bc50460 5a03ba0000,wpa2,NL,Gelderland,Tarthorst,,,6708HS
51.98710251,5.66787481,OpenRoaming,1,20240515-00000,2024-05-12T11:00:00.000Z,2024-06-28T03:00:00.000Z,2024-06-28T04:00:00.000Z,00:35:1A:77:1F:94,,infra,,2,0,?,?,?,False,1,4096 1bc50460 5a03ba0000,wpa2,NL,Gelderland,Tarthorst,,,6708HS
51.98702621,5.66791534,OpenRoaming,1,20240515-00000,2024-05-12T11:00:00.000Z,2024-06-28T03:00:00.000Z,2024-06-28T04:00:00.000Z,00:35:1A:77:1F:9B,,infra,,2,0,?,?,?,False,140,4096 1bc50460 5a03ba0000,wpa2,NL,Gelderland,Tarthorst,,,6708HS
51.98713684,5.66718245,OpenRoaming,1,20240515-00000,2024-05-12T11:00:00.000Z,2024-06-28T03:00:00.000Z,2024-06-28T04:00:00.000Z,00:35:1A:77:20:B4,,infra,,2,0,?,?,?,False,6,4096 1bc50460 5a03ba0000,wpa2,NL,Gelderland,Tarthorst,,,6708HS
51.98715591,5.66670704,openroaming,0,20240515-00000,2024-05-12T11:00:00.000Z,2024-05-15T16:00:00.000Z,2024-05-15T17:00:00.000Z,00:35:1A:77:24:34,,infra,,2,0,?,?,?,False,1,4096 1bc50460 5a03ba0000,wpa2,NL,Gelderland,Tarthorst,,,6708HS
51.98707199,5.66699505,OpenRoaming,1,20240515-00000,2024-05-12T11:00:00.000Z,2024-06-28T03:00:00.000Z,2024-06-28T04:00:00.000Z,00:35:1A:77:24:3B,,infra,,2,0,?,?,?,False,140,4096 1bc50460 5a03ba0000,wpa2,NL,Gelderland,Tarthorst,,,6708HS
51.98666763,5.66557837,OpenRoaming,1,20240515-00000,2024-05-12T11:00:00.000Z,2024-06-28T03:00:00.000Z,2024-06-28T04:00:00.000Z,00:35:1A:7B:6D:A4,,infra,,2,0,?,?,?,False,6,4096 1bc50460 5a03ba0000,wpa2,NL,Gelderland,Tarthorst,,,6708HS
51.9866066,5.66649246,OpenRoaming,1,20240515-00000,2024-05-12T11:00:00.000Z,2024-06-28T03:00:00.000Z,2024-06-28T04:00:00.000Z,00:35:1A:7B:6D:AB,,infra,,2,0,?,?,?,False,64,4096 1bc50460 5a03ba0000,wpa2,NL,Gelderland,Tarthorst,,,6708HS
51.98687363,5.66615152,OpenRoaming,1,20240515-00000,2024-05-12T11:00:00.000Z,2024-06-28T03:00:00.000Z,2024-06-28T04:00:00.000Z,00:35:1A:7B:6E:54,,infra,,2,0,?,?,?,False,11,4096 1bc50460 5a03ba0000,wpa2,NL,Gelderland,Tarthorst,,,6708HS
51.98677826,5.66595793,OpenRoaming,1,20240515-00000,2024-05-12T11:00:00.000Z,2024-06-28T03:00:00.000Z,2024-06-28T04:00:00.000Z,00:35:1A:7B:6E:5B,,infra,,2,0,?,?,?,False,104,4096 1bc50460 5a03ba0000,wpa2,NL,Gelderland,Tarthorst,,,6708HS
51.98683929,5.66567755,openroaming,0,20240515-00000,2024-05-12T11:00:00.000Z,2024-05-15T16:00:00.000Z,2024-05-15T17:00:00.000Z,00:35:1A:7B:6E:FB,,infra,,2,0,?,?,?,False,140,4096 1bc50460 5a03ba0000,wpa2,NL,Gelderland,Tarthorst,,,6708HS
51.98654175,5.66548681,openroaming,0,20240515-00000,2024-05-12T11:00:00.000Z,2024-05-15T16:00:00.000Z,2024-05-15T17:00:00.000Z,00:35:1A:7B:6F:8B,,infra,,2,0,?,?,?,False,140,4096 1bc50460 5a03ba0000,wpa2,NL,Gelderland,Tarthorst,,,6708HS
51.98635101,5.66701698,openroaming,0,20240515-00000,2024-05-12T11:00:00.000Z,2024-05-15T16:00:00.000Z,2024-05-15T17:00:00.000Z,00:35:1A:7B:70:1B,,infra,,2,0,?,?,?,False,140,4096 1bc50460 5a03ba0000,wpa2,NL,Gelderland,Tarthorst,,,6708HS
51.98691177,5.66599512,openroaming,0,20240515-00000,2024-05-12T11:00:00.000Z,2024-05-15T16:00:00.000Z,2024-05-15T17:00:00.000Z,00:35:1A:7B:7D:44,,infra,,2,0,?,?,?,False,11,4096 1bc50460 5a03ba0000,wpa2,NL,Gelderland,Tarthorst,,,6708HS
51.98682785,5.66615105,OpenRoaming,1,20240515-00000,2024-05-12T11:00:00.000Z,2024-06-28T03:00:00.000Z,2024-06-28T04:00:00.000Z,00:35:1A:7B:7D:4B,,infra,,2,0,?,?,?,False,56,4096 1bc50460 5a03ba0000,wpa2,NL,Gelderland,Tarthorst,,,6708HS
51.98686218,5.66580725,openroaming,0,20240515-00000,2024-05-12T11:00:00.000Z,2024-05-15T16:00:00.000Z,2024-05-15T17:00:00.000Z,00:35:1A:7B:7D:84,,infra,,2,0,?,?,?,False,6,4096 1bc50460 5a03ba0000,wpa2,NL,Gelderland,Tarthorst,,,6708HS
51.98686218,5.66580725,openroaming,0,20240515-00000,2024-05-12T11:00:00.000Z,2024-05-15T16:00:00.000Z,2024-05-15T17:00:00.000Z,00:35:1A:7B:7D:8B,,infra,,2,0,?,?,?,False,36,4096 1bc50460 5a03ba0000,wpa2,NL,Gelderland,Tarthorst,,,6708HS
51.98511887,5.6590929,openroaming,0,20240515-00000,2024-05-12T12:00:00.000Z,2024-05-15T16:00:00.000Z,2024-05-15T17:00:00.000Z,00:35:1A:90:4D:25,,infra,,2,0,?,?,?,False,1,4096 1bc50460 5a03ba0000,wpa2,NL,Gelderland,Tarthorst,,,6708HS
51.98508835,5.65897799,openroaming,0,20240515-00000,2024-05-12T12:00:00.000Z,2024-05-15T16:00:00.000Z,2024-05-15T17:00:00.000Z,00:35:1A:90:4D:2A,,infra,,2,0,?,?,?,False,48,4096 1bc50460 5a03ba0000,wpa2,NL,Gelderland,Tarthorst,,,6708HS
51.98839951,5.66876554,openroaming,0,20240326-00000,2024-03-25T20:00:00.000Z,2024-03-26T17:00:00.000Z,2024-03-26T20:00:00.000Z,00:35:1A:90:58:D4,,infra,,2,0,?,?,?,False,1,4096 1bc50460 5a03ba0000,wpa2,NL,Gelderland,Mansholtlaan,,,6708PC
51.98841858,5.66872787,openroaming,0,20240326-00000,2024-03-25T20:00:00.000Z,2024-03-26T17:00:00.000Z,2024-03-26T20:00:00.000Z,00:35:1A:90:58:DB,,infra,,2,0,?,?,?,False,36,4096 1bc50460 5a03ba0000,wpa2,NL,Gelderland,Mansholtlaan,,,6708PC
51.98509216,5.65900421,openroaming,0,20240515-00000,2024-05-12T12:00:00.000Z,2024-05-15T16:00:00.000Z,2024-05-15T16:00:00.000Z,00:35:1A:90:BE:05,,infra,,2,0,?,?,?,False,6,4096 1bc50460 5a03ba0000,wpa2,NL,Gelderland,Tarthorst,,,6708HS
51.98511887,5.65919924,openroaming,0,20240515-00000,2024-05-12T12:00:00.000Z,2024-05-15T16:00:00.000Z,2024-05-15T16:00:00.000Z,00:35:1A:90:BE:0A,,infra,,2,0,?,?,?,False,116,4096 1bc50460 5a03ba0000,wpa2,NL,Gelderland,Tarthorst,,,6708HS
51.98635101,5.66668272,OpenRoaming,1,20240515-00000,2024-05-12T11:00:00.000Z,2024-06-28T03:00:00.000Z,2024-06-28T04:00:00.000Z,00:35:1A:90:CE:9B,,infra,,2,0,?,?,?,False,140,4096 1bc50460 5a03ba0000,wpa2,NL,Gelderland,Tarthorst,,,6708HS
51.98477936,5.65965748,openroaming,0,20240515-00000,2024-05-12T12:00:00.000Z,2024-05-15T16:00:00.000Z,2024-05-15T17:00:00.000Z,00:35:1A:90:D8:85,,infra,,2,0,?,?,?,False,1,4096 1bc50460 5a03ba0000,wpa2,NL,Gelderland,Tarthorst,,,6708HS
51.98490143,5.65964699,openroaming,0,20240515-00000,2024-05-12T12:00:00.000Z,2024-05-15T16:00:00.000Z,2024-05-15T17:00:00.000Z,00:35:1A:90:D8:8A,,infra,,2,0,?,?,?,False,44,4096 1bc50460 5a03ba0000,wpa2,NL,Gelderland,Tarthorst,,,6708HS
51.98464203,5.65967607,openroaming,0,20240515-00000,2024-05-12T12:00:00.000Z,2024-05-15T16:00:00.000Z,2024-05-15T17:00:00.000Z,00:35:1A:90:D9:B5,,infra,,2,0,?,?,?,False,6,4096 1bc50460 5a03ba0000,wpa2,NL,Gelderland,Tarthorst,,,6708HS
51.98474503,5.65962982,openroaming,0,20240515-00000,2024-05-12T12:00:00.000Z,2024-05-15T16:00:00.000Z,2024-05-15T17:00:00.000Z,00:35:1A:90:D9:BA,,infra,,2,0,?,?,?,False,132,4096 1bc50460 5a03ba0000,wpa2,NL,Gelderland,Tarthorst,,,6708HS
51.98681641,5.66539574,openroaming,0,20240515-00000,2024-05-12T11:00:00.000Z,2024-05-15T16:00:00.000Z,2024-05-15T17:00:00.000Z,00:35:1A:A3:13:24,,infra,,2,0,?,?,?,False,1,4096 1bc50460 5a03ba0000,wpa2,NL,Gelderland,Tarthorst,,,6708HS
51.98636627,5.66466808,OpenRoaming,1,20240515-00000,2024-05-12T11:00:00.000Z,2024-06-28T03:00:00.000Z,2024-06-28T04:00:00.000Z,00:35:1A:A3:13:2B,,infra,,2,0,?,?,?,False,140,4096 1bc50460 5a03ba0000,wpa2,NL,Gelderland,Tarthorst,,,6708HS
51.98675156,5.66589022,OpenRoaming,1,20240515-00000,2024-05-12T11:00:00.000Z,2024-06-28T03:00:00.000Z,2024-06-28T04:00:00.000Z,00:35:1A:A3:13:8B,,infra,,2,0,?,?,?,False,36,4096 1bc50460 5a03ba0000,wpa2,NL,Gelderland,Tarthorst,,,6708HS
51.98729706,5.66829014,OpenRoaming,0,20240628-00000,2024-06-27T23:00:00.000Z,2024-06-28T03:00:00.000Z,2024-06-28T04:00:00.000Z,00:35:1A:A3:14:04,,infra,,2,0,?,?,?,False,1,4096 1bc50460 5a03ba0000,wpa2,NL,Gelderland,Tarthorst,,,6708HS
51.98535156,5.66182041,openroaming,0,20240515-00000,2024-05-12T12:00:00.000Z,2024-05-15T16:00:00.000Z,2024-05-15T17:00:00.000Z,00:35:1A:A3:42:75,,infra,,2,0,?,?,?,False,6,4096 1bc50460 5a03ba0000,wpa2,NL,Gelderland,Tarthorst,,,6708HS
51.98540878,5.66178894,openroaming,0,20240515-00000,2024-05-12T12:00:00.000Z,2024-05-15T16:00:00.000Z,2024-05-15T17:00:00.000Z,00:35:1A:A3:42:7A,,infra,,2,0,?,?,?,False,100,4096 1bc50460 5a03ba0000,wpa2,NL,Gelderland,Tarthorst,,,6708HS
51.98485947,5.66033888,openroaming,0,20240515-00000,2024-05-12T12:00:00.000Z,2024-05-15T16:00:00.000Z,2024-05-15T17:00:00.000Z,00:35:1A:A3:5C:45,,infra,,2,0,?,?,?,False,11,4096 1bc50460 5a03ba0000,wpa2,NL,Gelderland,Tarthorst,,,6708HS
51.98513031,5.65939999,openroaming,0,20240515-00000,2024-05-12T12:00:00.000Z,2024-05-15T16:00:00.000Z,2024-05-15T17:00:00.000Z,00:35:1A:A3:6A:B5,,infra,,2,0,?,?,?,False,1,4096 1bc50460 5a03ba0000,wpa2,NL,Gelderland,Tarthorst,,,6708HS
51.98502731,5.65931082,openroaming,0,20240515-00000,2024-05-12T12:00:00.000Z,2024-05-15T16:00:00.000Z,2024-05-15T17:00:00.000Z,00:35:1A:A3:6A:BA,,infra,,2,0,?,?,?,False,132,4096 1bc50460 5a03ba0000,wpa2,NL,Gelderland,Tarthorst,,,6708HS
51.98513794,5.65956736,openroaming,0,20240515-00000,2024-05-12T12:00:00.000Z,2024-05-15T16:00:00.000Z,2024-05-15T17:00:00.000Z,00:35:1A:A3:6D:B5,,infra,,2,0,?,?,?,False,1,4096 1bc50460 5a03ba0000,wpa2,NL,Gelderland,Tarthorst,,,6708HS
51.98495483,5.65973949,openroaming,0,20240515-00000,2024-05-12T12:00:00.000Z,2024-05-15T16:00:00.000Z,2024-05-15T17:00:00.000Z,00:35:1A:A3:6D:BA,,infra,,2,0,?,?,?,False,64,4096 1bc50460 5a03ba0000,wpa2,NL,Gelderland,Tarthorst,,,6708HS
51.98681641,5.66539574,openroaming,0,20240515-00000,2024-05-12T11:00:00.000Z,2024-05-15T16:00:00.000Z,2024-05-15T17:00:00.000Z,00:35:1A:A3:7A:AB,,infra,,2,0,?,?,?,False,64,4096 1bc50460 5a03ba0000,wpa2,NL,Gelderland,Tarthorst,,,6708HS
51.98670959,5.66572523,OpenRoaming,1,20240515-00000,2024-05-12T11:00:00.000Z,2024-06-28T03:00:00.000Z,2024-06-28T04:00:00.000Z,00:35:1A:A3:7D:7B,,infra,,2,0,?,?,?,False,112,4096 1bc50460 5a03ba0000,wpa2,NL,Gelderland,Tarthorst,,,6708HS
51.98678589,5.66555262,openroaming,0,20240515-00000,2024-05-12T11:00:00.000Z,2024-05-15T16:00:00.000Z,2024-05-15T16:00:00.000Z,00:35:1A:AF:F5:9B,,infra,,2,0,?,?,?,False,36,4096 1bc50460 5a03ba0000,wpa2,NL,Gelderland,Tarthorst,,,6708HS
51.98714066,5.66672087,openroaming,0,20240515-00000,2024-05-12T11:00:00.000Z,2024-05-15T16:00:00.000Z,2024-05-15T17:00:00.000Z,00:35:1A:AF:FB:54,,infra,,2,0,?,?,?,False,6,4096 1bc50460 5a03ba0000,wpa2,NL,Gelderland,Tarthorst,,,6708HS
51.9866066,5.66702509,openroaming,0,20240515-00000,2024-05-12T11:00:00.000Z,2024-05-15T16:00:00.000Z,2024-05-15T17:00:00.000Z,00:35:1A:AF:FB:5B,,infra,,2,0,?,?,?,False,36,4096 1bc50460 5a03ba0000,wpa2,NL,Gelderland,Tarthorst,,,6708HS
51.9869957,5.66685486,openroaming,0,20240515-00000,2024-05-12T11:00:00.000Z,2024-05-15T16:00:00.000Z,2024-05-15T17:00:00.000Z,00:35:1A:AF:FC:9B,,infra,,2,0,?,?,?,False,64,4096 1bc50460 5a03ba0000,wpa2,NL,Gelderland,Tarthorst,,,6708HS
48.7293663,2.35802197,HubOneSecure,0,20240610-00000,2024-06-10T15:00:00.000Z,2024-06-11T00:00:00.000Z,2024-06-11T00:00:00.000Z,00:35:1A:B0:02:FC,,infra,,2,0,?,?,?,False,64,6a1f6c,wpa2,FR,Île-de-France,Rue de Genève,,,91550
51.98508835,5.65917683,openroaming,0,20240515-00000,2024-05-12T12:00:00.000Z,2024-05-15T16:00:00.000Z,2024-05-15T17:00:00.000Z,00:35:1A:B1:79:95,,infra,,2,0,?,?,?,False,1,4096 1bc50460 5a03ba0000,wpa2,NL,Gelderland,Tarthorst,,,6708HS
51.98511887,5.65930557,openroaming,0,20240515-00000,2024-05-12T12:00:00.000Z,2024-05-15T16:00:00.000Z,2024-05-15T17:00:00.000Z,00:35:1A:B1:79:9A,,infra,,2,0,?,?,?,False,100,4096 1bc50460 5a03ba0000,wpa2,NL,Gelderland,Tarthorst,,,6708HS
51.98511124,5.65907288,openroaming,0,20240515-00000,2024-05-12T12:00:00.000Z,2024-05-15T16:00:00.000Z,2024-05-15T17:00:00.000Z,00:35:1A:B1:7D:F5,,infra,,2,0,?,?,?,False,1,4096 1bc50460 5a03ba0000,wpa2,NL,Gelderland,Tarthorst,,,6708HS
51.98501968,5.65930367,openroaming,0,20240515-00000,2024-05-12T12:00:00.000Z,2024-05-15T16:00:00.000Z,2024-05-15T17:00:00.000Z,00:35:1A:B1:7D:FA,,infra,,2,0,?,?,?,False,56,4096 1bc50460 5a03ba0000,wpa2,NL,Gelderland,Tarthorst,,,6708HS
51.98679352,5.66524792,openroaming,0,20240515-00000,2024-05-12T11:00:00.000Z,2024-05-15T16:00:00.000Z,2024-05-15T17:00:00.000Z,00:35:1A:B1:8A:3B,,infra,,2,0,?,?,?,False,36,4096 1bc50460 5a03ba0000,wpa2,NL,Gelderland,Tarthorst,,,6708HS
51.9852562,5.66077375,openroaming,0,20240515-00000,2024-05-12T12:00:00.000Z,2024-05-15T16:00:00.000Z,2024-05-15T16:00:00.000Z,00:35:1A:BC:2E:65,,infra,,2,0,?,?,?,False,6,4096 1bc50460 5a03ba0000,wpa2,NL,Gelderland,Tarthorst,,,6708HS
51.9853096,5.66126108,openroaming,0,20240515-00000,2024-05-12T12:00:00.000Z,2024-05-15T16:00:00.000Z,2024-05-15T16:00:00.000Z,00:35:1A:BC:2E:6A,,infra,,2,0,?,?,?,False,140,4096 1bc50460 5a03ba0000,wpa2,NL,Gelderland,Tarthorst,,,6708HS
51.98482513,5.65964603,openroaming,0,20240515-00000,2024-05-12T12:00:00.000Z,2024-05-15T16:00:00.000Z,2024-05-15T16:00:00.000Z,00:35:1A:BC:2F:55,,infra,,2,0,?,?,?,False,1,4096 1bc50460 5a03ba0000,wpa2,NL,Gelderland,Tarthorst,,,6708HS
51.98444748,5.65968847,openroaming,0,20240515-00000,2024-05-12T12:00:00.000Z,2024-05-15T16:00:00.000Z,2024-05-15T16:00:00.000Z,00:35:1A:BC:2F:5A,,infra,,2,0,?,?,?,False,116,4096 1bc50460 5a03ba0000,wpa2,NL,Gelderland,Tarthorst,,,6708HS
51.9849205,5.65978193,openroaming,0,20240515-00000,2024-05-12T12:00:00.000Z,2024-05-15T16:00:00.000Z,2024-05-15T17:00:00.000Z,00:35:1A:BC:30:55,,infra,,2,0,?,?,?,False,1,4096 1bc50460 5a03ba0000,wpa2,NL,Gelderland,Tarthorst,,,6708HS
51.98510742,5.65922403,openroaming,0,20240515-00000,2024-05-12T12:00:00.000Z,2024-05-15T16:00:00.000Z,2024-05-15T17:00:00.000Z,00:35:1A:BC:30:95,,infra,,2,0,?,?,?,False,6,4096 1bc50460 5a03ba0000,wpa2,NL,Gelderland,Tarthorst,,,6708HS
51.9851532,5.65925074,openroaming,0,20240515-00000,2024-05-12T12:00:00.000Z,2024-05-15T16:00:00.000Z,2024-05-15T17:00:00.000Z,00:35:1A:BC:30:9A,,infra,,2,0,?,?,?,False,48,4096 1bc50460 5a03ba0000,wpa2,NL,Gelderland,Tarthorst,,,6708HS
51.98511505,5.65914106,openroaming,0,20240515-00000,2024-05-12T12:00:00.000Z,2024-05-15T16:00:00.000Z,2024-05-15T16:00:00.000Z,00:35:1A:BC:4E:65,,infra,,2,0,?,?,?,False,1,4096 1bc50460 5a03ba0000,wpa2,NL,Gelderland,Tarthorst,,,6708HS
51.9851265,5.65923071,openroaming,0,20240515-00000,2024-05-12T12:00:00.000Z,2024-05-15T16:00:00.000Z,2024-05-15T16:00:00.000Z,00:35:1A:BC:4E:6A,,infra,,2,0,?,?,?,False,108,4096 1bc50460 5a03ba0000,wpa2,NL,Gelderland,Tarthorst,,,6708HS
51.98469543,5.65969992,openroaming,0,20240515-00000,2024-05-12T12:00:00.000Z,2024-05-15T16:00:00.000Z,2024-05-15T17:00:00.000Z,00:35:1A:BC:50:B5,,infra,,2,0,?,?,?,False,1,4096 1bc50460 5a03ba0000,wpa2,NL,Gelderland,Tarthorst,,,6708HS
51.9846077,5.65993643,openroaming,0,20240515-00000,2024-05-12T12:00:00.000Z,2024-05-15T16:00:00.000Z,2024-05-15T17:00:00.000Z,00:35:1A:BC:50:BA,,infra,,2,0,?,?,?,False,100,4096 1bc50460 5a03ba0000,wpa2,NL,Gelderland,Tarthorst,,,6708HS
51.98506546,5.65873861,openroaming,0,20240515-00000,2024-05-12T12:00:00.000Z,2024-05-15T16:00:00.000Z,2024-05-15T16:00:00.000Z,00:35:1A:CB:06:65,,infra,,2,0,?,?,?,False,6,4096 1bc50460 5a03ba0000,wpa2,NL,Gelderland,Tarthorst,,,6708HS
51.98505783,5.65956068,openroaming,0,20240515-00000,2024-05-12T12:00:00.000Z,2024-05-15T16:00:00.000Z,2024-05-15T16:00:00.000Z,00:35:1A:CB:06:B5,,infra,,2,0,?,?,?,False,6,4096 1bc50460 5a03ba0000,wpa2,NL,Gelderland,Tarthorst,,,6708HS
51.9851265,5.65952015,openroaming,0,20240515-00000,2024-05-12T12:00:00.000Z,2024-05-15T16:00:00.000Z,2024-05-15T16:00:00.000Z,00:35:1A:CB:06:BA,,infra,,2,0,?,?,?,False,48,4096 1bc50460 5a03ba0000,wpa2,NL,Gelderland,Tarthorst,,,6708HS
51.98505783,5.65966034,openroaming,0,20240515-00000,2024-05-12T12:00:00.000Z,2024-05-15T16:00:00.000Z,2024-05-15T17:00:00.000Z,00:35:1A:CB:0D:15,,infra,,2,0,?,?,?,False,1,4096 1bc50460 5a03ba0000,wpa2,NL,Gelderland,Tarthorst,,,6708HS
51.98502731,5.6595664,openroaming,0,20240515-00000,2024-05-12T12:00:00.000Z,2024-05-15T16:00:00.000Z,2024-05-15T17:00:00.000Z,00:35:1A:CB:0D:1A,,infra,,2,0,?,?,?,False,116,4096 1bc50460 5a03ba0000,wpa2,NL,Gelderland,Tarthorst,,,6708HS
51.98453903,5.66084242,openroaming,0,20240515-00000,2024-05-12T12:00:00.000Z,2024-05-15T16:00:00.000Z,2024-05-15T17:00:00.000Z,00:35:1A:CB:24:35,,infra,,2,0,?,?,?,False,6,4096 1bc50460 5a03ba0000,wpa2,NL,Gelderland,Tarthorst,,,6708HS
51.9854126,5.66178036,openroaming,0,20240515-00000,2024-05-12T12:00:00.000Z,2024-05-15T16:00:00.000Z,2024-05-15T17:00:00.000Z,00:35:1A:CB:24:3A,,infra,,2,0,?,?,?,False,140,4096 1bc50460 5a03ba0000,wpa2,NL,Gelderland,Tarthorst,,,6708HS
51.98679352,5.66728163,openroaming,0,20240515-00000,2024-05-12T11:00:00.000Z,2024-05-15T16:00:00.000Z,2024-05-15T17:00:00.000Z,00:35:1A:CB:34:5B,,infra,,2,0,?,?,?,False,140,4096 1bc50460 5a03ba0000,wpa2,NL,Gelderland,Tarthorst,,,6708HS
51.98715591,5.66670704,openroaming,0,20240515-00000,2024-05-12T11:00:00.000Z,2024-05-15T16:00:00.000Z,2024-05-15T17:00:00.000Z,00:35:1A:CB:D1:44,,infra,,2,0,?,?,?,False,1,4096 1bc50460 5a03ba0000,wpa2,NL,Gelderland,Tarthorst,,,6708HS
51.98709869,5.66744232,openroaming,0,20240515-00000,2024-05-12T11:00:00.000Z,2024-05-15T16:00:00.000Z,2024-05-15T17:00:00.000Z,00:35:1A:CB:D1:4B,,infra,,2,0,?,?,?,False,140,4096 1bc50460 5a03ba0000,wpa2,NL,Gelderland,Tarthorst,,,6708HS
51.98512268,5.65907288,openroaming,0,20240515-00000,2024-05-12T12:00:00.000Z,2024-05-15T16:00:00.000Z,2024-05-15T16:00:00.000Z,00:35:1A:CB:D2:25,,infra,,2,0,?,?,?,False,1,4096 1bc50460 5a03ba0000,wpa2,NL,Gelderland,Tarthorst,,,6708HS
51.98510742,5.65915346,openroaming,0,20240515-00000,2024-05-12T12:00:00.000Z,2024-05-15T16:00:00.000Z,2024-05-15T16:00:00.000Z,00:35:1A:CB:D2:2A,,infra,,2,0,?,?,?,False,132,4096 1bc50460 5a03ba0000,wpa2,NL,Gelderland,Tarthorst,,,6708HS
51.98513031,5.65914154,openroaming,0,20240515-00000,2024-05-12T12:00:00.000Z,2024-05-15T16:00:00.000Z,2024-05-15T16:00:00.000Z,00:35:1A:CB:D2:DA,,infra,,2,0,?,?,?,False,36,4096 1bc50460 5a03ba0000,wpa2,NL,Gelderland,Tarthorst,,,6708HS
51.98503876,5.65955591,openroaming,0,20240515-00000,2024-05-12T12:00:00.000Z,2024-05-15T16:00:00.000Z,2024-05-15T17:00:00.000Z,00:35:1A:CB:EB:B5,,infra,,2,0,?,?,?,False,1,4096 1bc50460 5a03ba0000,wpa2,NL,Gelderland,Tarthorst,,,6708HS
51.98513412,5.65939236,openroaming,0,20240515-00000,2024-05-12T12:00:00.000Z,2024-05-15T16:00:00.000Z,2024-05-15T17:00:00.000Z,00:35:1A:CB:EB:BA,,infra,,2,0,?,?,?,False,36,4096 1bc50460 5a03ba0000,wpa2,NL,Gelderland,Tarthorst,,,6708HS
51.98506927,5.66018105,openroaming,0,20240515-00000,2024-05-12T12:00:00.000Z,2024-05-15T16:00:00.000Z,2024-05-15T17:00:00.000Z,00:35:1A:D2:C9:D5,,infra,,2,0,?,?,?,False,11,4096 1bc50460 5a03ba0000,wpa2,NL,Gelderland,Tarthorst,,,6708HS
51.98510742,5.66030169,openroaming,0,20240515-00000,2024-05-12T12:00:00.000Z,2024-05-15T16:00:00.000Z,2024-05-15T17:00:00.000Z,00:35:1A:D2:C9:DA,,infra,,2,0,?,?,?,False,116,4096 1bc50460 5a03ba0000,wpa2,NL,Gelderland,Tarthorst,,,6708HS
51.98529816,5.66060019,openroaming,0,20240515-00000,2024-05-12T12:00:00.000Z,2024-05-15T16:00:00.000Z,2024-05-15T16:00:00.000Z,00:35:1A:D2:D8:F5,,infra,,2,0,?,?,?,False,1,4096 1bc50460 5a03ba0000,wpa2,NL,Gelderland,Tarthorst,,,6708HS
51.98529053,5.66064692,openroaming,0,20240515-00000,2024-05-12T12:00:00.000Z,2024-05-15T16:00:00.000Z,2024-05-15T16:00:00.000Z,00:35:1A:D2:D8:FA,,infra,,2,0,?,?,?,False,140,4096 1bc50460 5a03ba0000,wpa2,NL,Gelderland,Tarthorst,,,6708HS
51.98511505,5.65912676,openroaming,0,20240515-00000,2024-05-12T12:00:00.000Z,2024-05-15T16:00:00.000Z,2024-05-15T16:00:00.000Z,00:35:1A:D2:DA:55,,infra,,2,0,?,?,?,False,6,4096 1bc50460 5a03ba0000,wpa2,NL,Gelderland,Tarthorst,,,6708HS
51.98510742,5.65920973,openroaming,0,20240515-00000,2024-05-12T12:00:00.000Z,2024-05-15T16:00:00.000Z,2024-05-15T16:00:00.000Z,00:35:1A:D2:DA:5A,,infra,,2,0,?,?,?,False,100,4096 1bc50460 5a03ba0000,wpa2,NL,Gelderland,Tarthorst,,,6708HS
51.98519135,5.66018963,openroaming,0,20240515-00000,2024-05-12T12:00:00.000Z,2024-05-15T16:00:00.000Z,2024-05-15T17:00:00.000Z,00:35:1A:D2:DB:F5,,infra,,2,0,?,?,?,False,11,4096 1bc50460 5a03ba0000,wpa2,NL,Gelderland,Tarthorst,,,6708HS
51.98464966,5.65969849,openroaming,0,20240515-00000,2024-05-12T12:00:00.000Z,2024-05-15T16:00:00.000Z,2024-05-15T17:00:00.000Z,00:35:1A:D2:DB:FA,,infra,,2,0,?,?,?,False,112,4096 1bc50460 5a03ba0000,wpa2,NL,Gelderland,Tarthorst,,,6708HS
51.98509979,5.65899706,openroaming,0,20240515-00000,2024-05-12T12:00:00.000Z,2024-05-15T16:00:00.000Z,2024-05-15T17:00:00.000Z,00:35:1A:D2:DD:D5,,infra,,2,0,?,?,?,False,11,4096 1bc50460 5a03ba0000,wpa2,NL,Gelderland,Tarthorst,,,6708HS
51.98512268,5.65917492,openroaming,0,20240515-00000,2024-05-12T12:00:00.000Z,2024-05-15T16:00:00.000Z,2024-05-15T17:00:00.000Z,00:35:1A:D2:DD:DA,,infra,,2,0,?,?,?,False,64,4096 1bc50460 5a03ba0000,wpa2,NL,Gelderland,Tarthorst,,,6708HS
51.98527145,5.66102982,openroaming,0,20240515-00000,2024-05-12T12:00:00.000Z,2024-05-15T16:00:00.000Z,2024-05-15T17:00:00.000Z,00:35:1A:D2:DE:65,,infra,,2,0,?,?,?,False,1,4096 1bc50460 5a03ba0000,wpa2,NL,Gelderland,Tarthorst,,,6708HS
51.98487473,5.66040087,openroaming,0,20240515-00000,2024-05-12T12:00:00.000Z,2024-05-15T16:00:00.000Z,2024-05-15T17:00:00.000Z,00:35:1A:D2:DE:6A,,infra,,2,0,?,?,?,False,100,4096 1bc50460 5a03ba0000,wpa2,NL,Gelderland,Tarthorst,,,6708HS
51.98508072,5.65894699,openroaming,0,20240515-00000,2024-05-12T12:00:00.000Z,2024-05-15T16:00:00.000Z,2024-05-15T16:00:00.000Z,00:35:1A:D2:E3:55,,infra,,2,0,?,?,?,False,1,4096 1bc50460 5a03ba0000,wpa2,NL,Gelderland,Tarthorst,,,6708HS
51.98509216,5.65893507,openroaming,0,20240515-00000,2024-05-12T12:00:00.000Z,2024-05-15T16:00:00.000Z,2024-05-15T16:00:00.000Z,00:35:1A:D2:E3:5A,,infra,,2,0,?,?,?,False,36,4096 1bc50460 5a03ba0000,wpa2,NL,Gelderland,Tarthorst,,,6708HS
51.98512268,5.65930986,openroaming,0,20240515-00000,2024-05-12T12:00:00.000Z,2024-05-15T16:00:00.000Z,2024-05-15T17:00:00.000Z,00:35:1A:D2:E4:95,,infra,,2,0,?,?,?,False,1,4096 1bc50460 5a03ba0000,wpa2,NL,Gelderland,Tarthorst,,,6708HS
51.98513031,5.65921307,openroaming,0,20240515-00000,2024-05-12T12:00:00.000Z,2024-05-15T16:00:00.000Z,2024-05-15T17:00:00.000Z,00:35:1A:D2:E4:9A,,infra,,2,0,?,?,?,False,116,4096 1bc50460 5a03ba0000,wpa2,NL,Gelderland,Tarthorst,,,6708HS
51.98490524,5.65945959,openroaming,0,20240515-00000,2024-05-12T12:00:00.000Z,2024-05-15T16:00:00.000Z,2024-05-15T17:00:00.000Z,00:35:1A:D2:E4:F5,,infra,,2,0,?,?,?,False,6,4096 1bc50460 5a03ba0000,wpa2,NL,Gelderland,Tarthorst,,,6708HS
51.98510361,5.65949059,openroaming,0,20240515-00000,2024-05-12T12:00:00.000Z,2024-05-15T16:00:00.000Z,2024-05-15T17:00:00.000Z,00:35:1A:D2:E4:FA,,infra,,2,0,?,?,?,False,108,4096 1bc50460 5a03ba0000,wpa2,NL,Gelderland,Tarthorst,,,6708HS
51.98495483,5.65971565,openroaming,0,20240515-00000,2024-05-12T12:00:00.000Z,2024-05-15T16:00:00.000Z,2024-05-15T17:00:00.000Z,00:35:1A:D2:E5:65,,infra,,2,0,?,?,?,False,11,4096 1bc50460 5a03ba0000,wpa2,NL,Gelderland,Tarthorst,,,6708HS
51.9848175,5.65967846,openroaming,0,20240515-00000,2024-05-12T12:00:00.000Z,2024-05-15T16:00:00.000Z,2024-05-15T17:00:00.000Z,00:35:1A:D2:E5:6A,,infra,,2,0,?,?,?,False,100,4096 1bc50460 5a03ba0000,wpa2,NL,Gelderland,Tarthorst,,,6708HS
51.98490906,5.66001987,openroaming,0,20240515-00000,2024-05-12T12:00:00.000Z,2024-05-15T16:00:00.000Z,2024-05-15T17:00:00.000Z,00:35:1A:D2:EB:85,,infra,,2,0,?,?,?,False,6,4096 1bc50460 5a03ba0000,wpa2,NL,Gelderland,Tarthorst,,,6708HS
51.98490143,5.65998936,openroaming,0,20240515-00000,2024-05-12T12:00:00.000Z,2024-05-15T16:00:00.000Z,2024-05-15T17:00:00.000Z,00:35:1A:D2:EB:8A,,infra,,2,0,?,?,?,False,108,4096 1bc50460 5a03ba0000,wpa2,NL,Gelderland,Tarthorst,,,6708HS
29.59156418,-95.63088989,HM_OPENROAMING,0,20240502-00000,2024-05-02T17:00:00.000Z,2024-05-02T10:00:00.000Z,2024-05-02T11:00:00.000Z,00:3A:7D:73:4D:F5,,infra,,2,0,?,?,?,False,48,4096 5a03ba1000,wpa2,US,TX,Southwest Freeway,Sugar Land,,77479
41.35263824,2.13114142,Fira_Openroaming,0,20240216-00000,2024-02-16T18:00:00.000Z,2024-02-16T10:00:00.000Z,2024-02-16T10:00:00.000Z,00:3A:7D:B3:AE:EB,,infra,,2,0,?,?,?,False,36,4096 5a03ba0000 5a03ba,wpa2,ES,Catalunya,Accés nord Fira2,Barcelona,,08001
41.35476303,2.12731671,MWC_Openroaming,0,20240228-00000,2024-02-28T07:00:00.000Z,2024-02-28T04:00:00.000Z,2024-02-28T18:00:00.000Z,00:3A:7D:CD:71:BC,,infra,,2,0,?,?,?,False,36,4096 5a03ba0000 5a03ba,wpa2,ES,Catalunya,Accés nord Fira2,Barcelona,,08001
41.46102905,-81.99100494,.p,0,20240213-00000,2024-02-13T22:00:00.000Z,2024-02-13T15:00:00.000Z,2024-02-13T15:00:00.000Z,00:3E:73:1A:2F:37,,infra,,2,0,?,?,?,False,36,310410 313100 310280,wpa2,US,OH,Nagel Road,,1810,44011
41.46108246,-81.99125671,.p,0,20240213-00000,2024-02-13T22:00:00.000Z,2024-02-13T15:00:00.000Z,2024-02-13T15:00:00.000Z,00:3E:73:1A:32:C7,,infra,,2,0,?,?,?,False,48,310410 313100 310280,wpa2,US,OH,Nagel Road,,1810,44011
41.15906525,-81.40520477,.p,6,20240112-00000,2024-01-12T21:00:00.000Z,2024-02-16T14:00:00.000Z,2024-02-16T14:00:00.000Z,00:3E:73:1A:3B:C9,,infra,,2,0,?,?,?,False,64,310410 313100 310280,wpa2,US,OH,Kent Road,,4303,44224
41.46105576,-81.99119568,.p,0,20240213-00000,2024-02-13T22:00:00.000Z,2024-02-13T15:00:00.000Z,2024-02-13T15:00:00.000Z,00:3E:73:1A:3C:57,,infra,,2,0,?,?,?,False,48,310410 313100 310280,wpa2,US,OH,Nagel Road,,1810,44011
41.46108246,-81.99125671,.p,0,20240213-00000,2024-02-13T22:00:00.000Z,2024-02-13T15:00:00.000Z,2024-02-13T15:00:00.000Z,00:3E:73:1A:3F:27,,infra,,2,0,?,?,?,False,157,310410 313100 310280,wpa2,US,OH,Nagel Road,,1810,44011
41.30950928,-84.35729218,.p,0,20240626-00000,2024-06-18T16:00:00.000Z,2024-06-26T09:00:00.000Z,2024-06-26T09:00:00.000Z,00:3E:73:1A:3F:58,,infra,,2,0,?,?,?,False,64,310410 313100 310280,wpa2,US,OH,North Clinton Street,,1961,43512
41.30932999,-84.35729218,.p,1,20240626-00000,2024-05-24T16:00:00.000Z,2024-06-26T09:00:00.000Z,2024-06-26T09:00:00.000Z,00:3E:73:1A:40:78,,infra,,2,0,?,?,?,False,161,310410 313100 310280,wpa2,US,OH,North Clinton Street,,1961,43512
39.84942245,-82.77776337,.p,2,20240210-00000,2024-02-10T18:00:00.000Z,2024-06-09T00:00:00.000Z,2024-06-09T00:00:00.000Z,00:3E:73:1A:40:A7,,infra,,2,0,?,?,?,False,48,310410 313100 310280,wpa2,US,OH,Meijer Drive,,8300,43110
39.44245911,-87.33079529,.p,0,20240504-00000,2024-05-05T01:00:00.000Z,2024-05-04T19:00:00.000Z,2024-05-04T20:00:00.000Z,00:3E:73:1A:41:38,,infra,,2,0,?,?,?,False,36,310410 313100 310280,wpa2,US,IN,New Margaret Drive,Terre Haute,5600,47803
41.30944061,-84.35730743,.p,1,20240626-00000,2024-05-24T16:00:00.000Z,2024-06-26T09:00:00.000Z,2024-06-26T10:00:00.000Z,00:3E:73:1A:43:78,,infra,,2,0,?,?,?,False,161,310410 313100 310280,wpa2,US,OH,North Clinton Street,,1961,43512
41.30939865,-84.35732269,.p,0,20240626-00000,2024-05-24T16:00:00.000Z,2024-06-26T09:00:00.000Z,2024-06-26T10:00:00.000Z,00:3E:73:1A:43:D8,,infra,,2,0,?,?,?,False,36,310410 313100 310280,wpa2,US,OH,North Clinton Street,,1961,43512
41.15908051,-81.40513611,.p,6,20240112-00000,2024-01-12T21:00:00.000Z,2024-02-16T14:00:00.000Z,2024-02-16T14:00:00.000Z,00:3E:73:1A:49:79,,infra,,2,0,?,?,?,False,36,310410 313100 310280,wpa2,US,OH,Kent Road,,4303,44224
41.15914154,-81.40504456,.p,4,20240112-00000,2024-01-12T22:00:00.000Z,2024-02-16T14:00:00.000Z,2024-02-16T14:00:00.000Z,00:3E:73:1A:4C:79,,infra,,2,0,?,?,?,False,149,310410 313100 310280,wpa2,US,OH,Kent Road,,4303,44224
41.15925217,-81.40531921,.p,5,20240112-00000,2024-01-12T22:00:00.000Z,2024-02-16T14:00:00.000Z,2024-02-16T14:00:00.000Z,00:3E:73:1A:4F:79,,infra,,2,0,?,?,?,False,153,310410 313100 310280,wpa2,US,OH,Kent Road,,4303,44224
39.8466835,-82.7792511,.p,1,20240418-00000,2024-04-18T20:00:00.000Z,2024-05-11T21:00:00.000Z,2024-05-11T21:00:00.000Z,00:3E:73:1A:50:97,,infra,,2,0,?,?,?,False,36,310410 313100 310280,wpa2,US,OH,Kings Crossing,,,43110
39.84658813,-82.77941132,.p,1,20240418-00000,2024-04-18T20:00:00.000Z,2024-05-11T21:00:00.000Z,2024-05-11T21:00:00.000Z,00:3E:73:1A:50:F7,,infra,,2,0,?,?,?,False,161,310410 313100 310280,wpa2,US,OH,Kings Crossing,,,43110
41.46108246,-81.99125671,.p,0,20240213-00000,2024-02-13T22:00:00.000Z,2024-02-13T15:00:00.000Z,2024-02-13T15:00:00.000Z,00:3E:73:1A:52:47,,infra,,2,0,?,?,?,False,36,310410 313100 310280,wpa2,US,OH,Nagel Road,,1810,44011
39.84930801,-82.77776337,.p,1,20240210-00000,2024-02-10T18:00:00.000Z,2024-05-11T21:00:00.000Z,2024-05-11T21:00:00.000Z,00:3E:73:1A:52:77,,infra,,2,0,?,?,?,False,153,310410 313100 310280,wpa2,US,OH,Meijer Drive,,8300,43110
39.84951782,-82.777771,.p,1,20240210-00000,2024-02-10T18:00:00.000Z,2024-06-09T00:00:00.000Z,2024-06-09T00:00:00.000Z,00:3E:73:1A:52:D7,,infra,,2,0,?,?,?,False,44,310410 313100 310280,wpa2,US,OH,Meijer Drive,,8300,43110
39.84944916,-82.77779388,.p,2,20240210-00000,2024-02-10T18:00:00.000Z,2024-06-09T00:00:00.000Z,2024-06-09T00:00:00.000Z,00:3E:73:1A:53:07,,infra,,2,0,?,?,?,False,149,310410 313100 310280,wpa2,US,OH,Meijer Drive,,8300,43110
39.44223785,-87.33068848,.p,0,20240504-00000,2024-05-05T01:00:00.000Z,2024-05-04T19:00:00.000Z,2024-05-04T20:00:00.000Z,00:3E:73:1A:56:98,,infra,,2,0,?,?,?,False,153,310410 313100 310280,wpa2,US,IN,New Margaret Drive,Terre Haute,5600,47803
39.84942245,-82.77779388,.p,2,20240210-00000,2024-02-10T18:00:00.000Z,2024-06-09T00:00:00.000Z,2024-06-09T00:00:00.000Z,00:3E:73:1A:58:D7,,infra,,2,0,?,?,?,False,157,310410 313100 310280,wpa2,US,OH,Meijer Drive,,8300,43110
39.44163513,-87.33068085,.p,0,20240504-00000,2024-05-05T01:00:00.000Z,2024-05-04T19:00:00.000Z,2024-05-04T20:00:00.000Z,00:3E:73:1A:59:98,,infra,,2,0,?,?,?,False,40,310410 313100 310280,wpa2,US,IN,New Margaret Drive,Terre Haute,5600,47803
39.44182587,-87.33068085,.p,0,20240504-00000,2024-05-05T01:00:00.000Z,2024-05-04T19:00:00.000Z,2024-05-04T20:00:00.000Z,00:3E:73:1A:59:F8,,infra,,2,0,?,?,?,False,149,310410 313100 310280,wpa2,US,IN,New Margaret Drive,Terre Haute,5600,47803
39.44196701,-87.33068848,.p,0,20240504-00000,2024-05-05T01:00:00.000Z,2024-05-04T19:00:00.000Z,2024-05-04T20:00:00.000Z,00:3E:73:1A:5A:28,,infra,,2,0,?,?,?,False,40,310410 313100 310280,wpa2,US,IN,New Margaret Drive,Terre Haute,5600,47803
41.46108246,-81.99125671,.p,0,20240213-00000,2024-02-13T22:00:00.000Z,2024-02-13T15:00:00.000Z,2024-02-13T15:00:00.000Z,00:3E:73:1A:5A:87,,infra,,2,0,?,?,?,False,52,310410 313100 310280,wpa2,US,OH,Nagel Road,,1810,44011
41.15911102,-81.40524292,.p,5,20240112-00000,2024-01-12T22:00:00.000Z,2024-02-16T14:00:00.000Z,2024-02-16T14:00:00.000Z,00:3E:73:1A:5B:49,,infra,,2,0,?,?,?,False,52,310410 313100 310280,wpa2,US,OH,Kent Road,,4303,44224
41.15906143,-81.40537262,.p,4,20240112-00000,2024-01-12T22:00:00.000Z,2024-02-16T14:00:00.000Z,2024-02-16T14:00:00.000Z,00:3E:73:1A:5B:D9,,infra,,2,0,?,?,?,False,36,310410 313100 310280,wpa2,US,OH,Kent Road,,4303,44224
41.1590004,-81.40529633,.p,5,20240112-00000,2024-01-12T22:00:00.000Z,2024-02-16T14:00:00.000Z,2024-02-16T14:00:00.000Z,00:3E:73:1A:5C:09,,infra,,2,0,?,?,?,False,161,310410 313100 310280,wpa2,US,OH,Kent Road,,4303,44224
41.15926743,-81.40518188,.p,6,20240112-00000,2024-01-12T22:00:00.000Z,2024-02-16T14:00:00.000Z,2024-02-16T14:00:00.000Z,00:3E:73:1A:5C:39,,infra,,2,0,?,?,?,False,36,310410 313100 310280,wpa2,US,OH,Kent Road,,4303,44224
41.15923691,-81.40536499,.p,5,20240112-00000,2024-01-12T22:00:00.000Z,2024-02-16T14:00:00.000Z,2024-02-16T14:00:00.000Z,00:3E:73:1A:5C:C9,,infra,,2,0,?,?,?,False,44,310410 313100 310280,wpa2,US,OH,Kent Road,,4303,44224
41.15926743,-81.40520477,.p,6,20240112-00000,2024-01-12T22:00:00.000Z,2024-02-16T14:00:00.000Z,2024-02-16T14:00:00.000Z,00:3E:73:1A:5D:29,,infra,,2,0,?,?,?,False,149,310410 313100 310280,wpa2,US,OH,Kent Road,,4303,44224
41.15924454,-81.40559387,.p,5,20240112-00000,2024-01-12T22:00:00.000Z,2024-02-16T14:00:00.000Z,2024-02-16T14:00:00.000Z,00:3E:73:1A:5E:A9,,infra,,2,0,?,?,?,False,36,310410 313100 310280,wpa2,US,OH,Kent Road,,4303,44224
41.15899658,-81.40524292,.p,5,20240112-00000,2024-01-12T22:00:00.000Z,2024-02-16T14:00:00.000Z,2024-02-16T14:00:00.000Z,00:3E:73:1A:60:29,,infra,,2,0,?,?,?,False,149,310410 313100 310280,wpa2,US,OH,Kent Road,,4303,44224
41.15927887,-81.40525818,.p,5,20240112-00000,2024-01-12T22:00:00.000Z,2024-02-16T14:00:00.000Z,2024-02-16T14:00:00.000Z,00:3E:73:1A:60:B9,,infra,,2,0,?,?,?,False,161,310410 313100 310280,wpa2,US,OH,Kent Road,,4303,44224
41.15912628,-81.40530396,.p,5,20240112-00000,2024-01-12T22:00:00.000Z,2024-02-16T14:00:00.000Z,2024-02-16T14:00:00.000Z,00:3E:73:1A:60:E9,,infra,,2,0,?,?,?,False,64,310410 313100 310280,wpa2,US,OH,Kent Road,,4303,44224
41.15903091,-81.40507507,.p,6,20240112-00000,2024-01-12T22:00:00.000Z,2024-02-16T14:00:00.000Z,2024-02-16T14:00:00.000Z,00:3E:73:1A:63:E9,,infra,,2,0,?,?,?,False,149,310410 313100 310280,wpa2,US,OH,Kent Road,,4303,44224
41.15896988,-81.40516663,.p,5,20240112-00000,2024-01-12T22:00:00.000Z,2024-02-16T14:00:00.000Z,2024-02-16T14:00:00.000Z,00:3E:73:1A:64:19,,infra,,2,0,?,?,?,False,149,310410 313100 310280,wpa2,US,OH,Kent Road,,4303,44224
41.15917969,-81.40496063,.p,6,20240112-00000,2024-01-12T22:00:00.000Z,2024-02-16T14:00:00.000Z,2024-02-16T14:00:00.000Z,00:3E:73:1A:64:79,,infra,,2,0,?,?,?,False,40,310410 313100 310280,wpa2,US,OH,Kent Road,,4303,44224
41.15936279,-81.4054184,.p,4,20240112-00000,2024-01-12T22:00:00.000Z,2024-02-16T14:00:00.000Z,2024-02-16T14:00:00.000Z,00:3E:73:1A:64:D9,,infra,,2,0,?,?,?,False,161,310410 313100 310280,wpa2,US,OH,Kent Road,,4303,44224
41.15924454,-81.40544891,.p,4,20240112-00000,2024-01-12T22:00:00.000Z,2024-02-16T14:00:00.000Z,2024-02-16T14:00:00.000Z,00:3E:73:1A:65:39,,infra,,2,0,?,?,?,False,157,310410 313100 310280,wpa2,US,OH,Kent Road,,4303,44224
41.1593399,-81.40552521,.p,4,20240112-00000,2024-01-12T22:00:00.000Z,2024-02-16T14:00:00.000Z,2024-02-16T14:00:00.000Z,00:3E:73:1A:67:A9,,infra,,2,0,?,?,?,False,60,310410 313100 310280,wpa2,US,OH,Kent Road,,4303,44224
41.15897751,-81.40528107,.p,5,20240112-00000,2024-01-12T22:00:00.000Z,2024-02-16T14:00:00.000Z,2024-02-16T14:00:00.000Z,00:3E:73:1A:67:D9,,infra,,2,0,?,?,?,False,161,310410 313100 310280,wpa2,US,OH,Kent Road,,4303,44224
41.46108246,-81.99125671,.p,0,20240213-00000,2024-02-13T22:00:00.000Z,2024-02-13T15:00:00.000Z,2024-02-13T15:00:00.000Z,00:3E:73:1A:68:37,,infra,,2,0,?,?,?,False,44,310410 313100 310280,wpa2,US,OH,Nagel Road,,1810,44011
41.15895462,-81.40534973,.p,4,20240112-00000,2024-01-12T22:00:00.000Z,2024-02-16T14:00:00.000Z,2024-02-16T14:00:00.000Z,00:3E:73:1A:68:69,,infra,,2,0,?,?,?,False,48,310410 313100 310280,wpa2,US,OH,Kent Road,,4303,44224
41.46108246,-81.99125671,.p,0,20240213-00000,2024-02-13T22:00:00.000Z,2024-02-13T15:00:00.000Z,2024-02-13T15:00:00.000Z,00:3E:73:1A:68:C7,,infra,,2,0,?,?,?,False,64,310410 313100 310280,wpa2,US,OH,Nagel Road,,1810,44011
41.15937042,-81.40542603,.p,5,20240112-00000,2024-01-12T22:00:00.000Z,2024-02-16T14:00:00.000Z,2024-02-16T14:00:00.000Z,00:3E:73:1A:6A:19,,infra,,2,0,?,?,?,False,157,310410 313100 310280,wpa2,US,OH,Kent Road,,4303,44224
41.15897369,-81.40519714,.p,5,20240112-00000,2024-01-12T22:00:00.000Z,2024-02-16T14:00:00.000Z,2024-02-16T14:00:00.000Z,00:3E:73:1A:6A:49,,infra,,2,0,?,?,?,False,149,310410 313100 310280,wpa2,US,OH,Kent Road,,4303,44224
41.15896225,-81.40535736,.p,4,20240112-00000,2024-01-12T22:00:00.000Z,2024-02-16T14:00:00.000Z,2024-02-16T14:00:00.000Z,00:3E:73:1A:6A:79,,infra,,2,0,?,?,?,False,36,310410 313100 310280,wpa2,US,OH,Kent Road,,4303,44224
41.15931702,-81.40555573,.p,6,20240112-00000,2024-01-12T22:00:00.000Z,2024-02-16T14:00:00.000Z,2024-02-16T14:00:00.000Z,00:3E:73:1A:6A:A9,,infra,,2,0,?,?,?,False,36,310410 313100 310280,wpa2,US,OH,Kent Road,,4303,44224
41.15934372,-81.4057312,.p,4,20240112-00000,2024-01-12T22:00:00.000Z,2024-02-16T14:00:00.000Z,2024-02-16T14:00:00.000Z,00:3E:73:1A:6A:D9,,infra,,2,0,?,?,?,False,36,310410 313100 310280,wpa2,US,OH,Kent Road,,4303,44224
41.15884781,-81.4052887,.p,5,20240112-00000,2024-01-12T22:00:00.000Z,2024-02-16T14:00:00.000Z,2024-02-16T14:00:00.000Z,00:3E:73:1A:6B:39,,infra,,2,0,?,?,?,False,52,310410 313100 310280,wpa2,US,OH,Kent Road,,4303,44224
41.1590004,-81.4052124,.p,5,20240112-00000,2024-01-12T22:00:00.000Z,2024-02-16T14:00:00.000Z,2024-02-16T14:00:00.000Z,00:3E:73:1A:6B:69,,infra,,2,0,?,?,?,False,161,310410 313100 310280,wpa2,US,OH,Kent Road,,4303,44224
41.15903473,-81.40522766,.p,6,20240112-00000,2024-01-12T22:00:00.000Z,2024-02-16T14:00:00.000Z,2024-02-16T14:00:00.000Z,00:3E:73:1A:6B:C9,,infra,,2,0,?,?,?,False,36,310410 313100 310280,wpa2,US,OH,Kent Road,,4303,44224
41.15883636,-81.40531158,.p,4,20240112-00000,2024-01-12T22:00:00.000Z,2024-02-16T14:00:00.000Z,2024-02-16T14:00:00.000Z,00:3E:73:1A:6C:E9,,infra,,2,0,?,?,?,False,161,310410 313100 310280,wpa2,US,OH,Kent Road,,4303,44224
41.15882111,-81.40531921,.p,4,20240112-00000,2024-01-12T22:00:00.000Z,2024-02-16T14:00:00.000Z,2024-02-16T14:00:00.000Z,00:3E:73:1A:6E:39,,infra,,2,0,?,?,?,False,64,310410 313100 310280,wpa2,US,OH,Kent Road,,4303,44224
41.15926361,-81.405159,.p,5,20240112-00000,2024-01-12T22:00:00.000Z,2024-02-16T14:00:00.000Z,2024-02-16T14:00:00.000Z,00:3E:73:1A:6E:69,,infra,,2,0,?,?,?,False,48,310410 313100 310280,wpa2,US,OH,Kent Road,,4303,44224
41.15891647,-81.40534973,.p,4,20240112-00000,2024-01-12T22:00:00.000Z,2024-02-16T14:00:00.000Z,2024-02-16T14:00:00.000Z,00:3E:73:1A:6E:C9,,infra,,2,0,?,?,?,False,48,310410 313100 310280,wpa2,US,OH,Kent Road,,4303,44224
39.83716965,-83.08125305,.p,0,20240129-00000,2024-01-29T19:00:00.000Z,2024-01-29T11:00:00.000Z,2024-01-29T11:00:00.000Z,00:3E:73:1A:6F:E7,,infra,,2,0,?,?,?,False,149,310410 313100 310280,wpa2,US,OH,London - Groveport Road,,2811,43123
41.15936661,-81.40543365,.p,5,20240112-00000,2024-01-12T22:00:00.000Z,2024-02-16T14:00:00.000Z,2024-02-16T14:00:00.000Z,00:3E:73:1A:70:19,,infra,,2,0,?,?,?,False,153,310410 313100 310280,wpa2,US,OH,Kent Road,,4303,44224
41.1591835,-81.40509033,.p,5,20240112-00000,2024-01-12T22:00:00.000Z,2024-02-16T14:00:00.000Z,2024-02-16T14:00:00.000Z,00:3E:73:1A:70:79,,infra,,2,0,?,?,?,False,64,310410 313100 310280,wpa2,US,OH,Kent Road,,4303,44224
41.47224808,-87.01816559,.p,0,20240312-00000,2024-03-11T20:00:00.000Z,2024-03-12T15:00:00.000Z,2024-03-12T16:00:00.000Z,00:3E:73:1A:70:A8,,infra,,2,0,?,?,?,False,36,310410 313100 310280,wpa2,US,IN,Porter's Vale Boulevard,Valparaiso,405,46383
41.15912628,-81.40551758,.p,6,20240112-00000,2024-01-12T22:00:00.000Z,2024-02-16T14:00:00.000Z,2024-02-16T14:00:00.000Z,00:3E:73:1A:70:D9,,infra,,2,0,?,?,?,False,48,310410 313100 310280,wpa2,US,OH,Kent Road,,4303,44224
41.15897369,-81.40544128,.p,5,20240112-00000,2024-01-12T22:00:00.000Z,2024-02-16T14:00:00.000Z,2024-02-16T14:00:00.000Z,00:3E:73:1A:71:39,,infra,,2,0,?,?,?,False,64,310410 313100 310280,wpa2,US,OH,Kent Road,,4303,44224
41.15912247,-81.4052887,.p,6,20240112-00000,2024-01-12T22:00:00.000Z,2024-02-16T14:00:00.000Z,2024-02-16T14:00:00.000Z,00:3E:73:1A:71:C9,,infra,,2,0,?,?,?,False,64,310410 313100 310280,wpa2,US,OH,Kent Road,,4303,44224
41.47267151,-87.0181427,.p,0,20240312-00000,2024-03-11T20:00:00.000Z,2024-03-12T15:00:00.000Z,2024-03-12T16:00:00.000Z,00:3E:73:1A:72:88,,infra,,2,0,?,?,?,False,36,310410 313100 310280,wpa2,US,IN,Porter's Vale Boulevard,Valparaiso,405,46383
41.47223663,-87.0181427,.p,0,20240312-00000,2024-03-11T20:00:00.000Z,2024-03-12T15:00:00.000Z,2024-03-12T16:00:00.000Z,00:3E:73:1A:73:18,,infra,,2,0,?,?,?,False,149,310410 313100 310280,wpa2,US,IN,Porter's Vale Boulevard,Valparaiso,405,46383
41.47224808,-87.01816559,.p,0,20240312-00000,2024-03-11T20:00:00.000Z,2024-03-12T15:00:00.000Z,2024-03-12T16:00:00.000Z,00:3E:73:1A:73:48,,infra,,2,0,?,?,?,False,161,310410 313100 310280,wpa2,US,IN,Porter's Vale Boulevard,Valparaiso,405,46383
41.47242737,-87.01815033,.p,0,20240312-00000,2024-03-11T20:00:00.000Z,2024-03-12T15:00:00.000Z,2024-03-12T16:00:00.000Z,00:3E:73:1A:74:08,,infra,,2,0,?,?,?,False,48,310410 313100 310280,wpa2,US,IN,Porter's Vale Boulevard,Valparaiso,405,46383
41.47250366,-87.0181427,.p,0,20240312-00000,2024-03-11T20:00:00.000Z,2024-03-12T15:00:00.000Z,2024-03-12T16:00:00.000Z,00:3E:73:1A:74:68,,infra,,2,0,?,?,?,False,64,310410 313100 310280,wpa2,US,IN,Porter's Vale Boulevard,Valparaiso,405,46383
41.15884399,-81.40537262,.p,4,20240112-00000,2024-01-12T22:00:00.000Z,2024-02-16T14:00:00.000Z,2024-02-16T14:00:00.000Z,00:3E:73:1A:76:A9,,infra,,2,0,?,?,?,False,161,310410 313100 310280,wpa2,US,OH,Kent Road,,4303,44224
41.15911484,-81.40496063,.p,6,20240112-00000,2024-01-12T21:00:00.000Z,2024-02-16T14:00:00.000Z,2024-02-16T14:00:00.000Z,00:3E:73:1A:76:D9,,infra,,2,0,?,?,?,False,157,310410 313100 310280,wpa2,US,OH,Kent Road,,4303,44224
41.15886307,-81.40526581,.p,5,20240112-00000,2024-01-12T22:00:00.000Z,2024-02-16T14:00:00.000Z,2024-02-16T14:00:00.000Z,00:3E:73:1A:77:69,,infra,,2,0,?,?,?,False,149,310410 313100 310280,wpa2,US,OH,Kent Road,,4303,44224
41.15878677,-81.40526581,.p,6,20240112-00000,2024-01-12T22:00:00.000Z,2024-02-16T14:00:00.000Z,2024-02-16T14:00:00.000Z,00:3E:73:1A:77:C9,,infra,,2,0,?,?,?,False,48,310410 313100 310280,wpa2,US,OH,Kent Road,,4303,44224
41.15875244,-81.4052124,.p,5,20240112-00000,2024-01-12T22:00:00.000Z,2024-02-16T14:00:00.000Z,2024-02-16T14:00:00.000Z,00:3E:73:1A:79:19,,infra,,2,0,?,?,?,False,36,310410 313100 310280,wpa2,US,OH,Kent Road,,4303,44224
39.83722305,-83.08116913,.p,0,20240129-00000,2024-01-29T19:00:00.000Z,2024-01-29T11:00:00.000Z,2024-01-29T11:00:00.000Z,00:3E:73:1A:D0:17,,infra,,2,0,?,?,?,False,36,310410 313100 310280,wpa2,US,OH,London - Groveport Road,,2811,43123
41.46108246,-81.99125671,.p,0,20240213-00000,2024-02-13T22:00:00.000Z,2024-02-13T15:00:00.000Z,2024-02-13T15:00:00.000Z,00:3E:73:1B:0D:37,,infra,,2,0,?,?,?,False,48,310410 313100 310280,wpa2,US,OH,Nagel Road,,1810,44011
41.30950165,-84.35731506,.p,0,20240626-00000,2024-05-24T16:00:00.000Z,2024-06-26T09:00:00.000Z,2024-06-26T10:00:00.000Z,00:3E:73:1B:3F:D8,,infra,,2,0,?,?,?,False,36,310410 313100 310280,wpa2,US,OH,North Clinton Street,,1961,43512
41.30936813,-84.35731506,.p,1,20240626-00000,2024-05-24T16:00:00.000Z,2024-06-26T09:00:00.000Z,2024-06-26T10:00:00.000Z,00:3E:73:1B:4B:A8,,infra,,2,0,?,?,?,False,48,310410 313100 310280,wpa2,US,OH,North Clinton Street,,1961,43512
41.3099556,-84.35816193,.p,0,20240626-00000,2024-06-18T16:00:00.000Z,2024-06-26T09:00:00.000Z,2024-06-26T10:00:00.000Z,00:3E:73:1B:4C:08,,infra,,2,0,?,?,?,False,48,310410 313100 310280,wpa2,US,OH,North Clinton Street,,1961,43512
41.30932236,-84.35772705,.p,1,20240626-00000,2024-05-24T16:00:00.000Z,2024-06-26T09:00:00.000Z,2024-06-26T10:00:00.000Z,00:3E:73:1B:4C:38,,infra,,2,0,?,?,?,False,153,310410 313100 310280,wpa2,US,OH,North Clinton Street,,1961,43512
41.30949402,-84.35728455,.p,0,20240626-00000,2024-06-18T16:00:00.000Z,2024-06-26T09:00:00.000Z,2024-06-26T10:00:00.000Z,00:3E:73:1B:5F:88,,infra,,2,0,?,?,?,False,48,310410 313100 310280,wpa2,US,OH,North Clinton Street,,1961,43512
41.46103287,-81.99113464,.p,0,20240213-00000,2024-02-13T22:00:00.000Z,2024-02-13T15:00:00.000Z,2024-02-13T15:00:00.000Z,00:3E:73:1E:C4:07,,infra,,2,0,?,?,?,False,44,310410 313100 310280,wpa2,US,OH,Nagel Road,,1810,44011
41.54594421,-83.58731842,.p,0,20240213-00000,2024-02-13T14:00:00.000Z,2024-02-13T09:00:00.000Z,2024-02-13T09:00:00.000Z,00:3E:73:1E:CE:28,,infra,,2,0,?,?,?,False,44,310410 313100 310280,wpa2,US,OH,Fremont Pike,Rossford,10055,43460
41.31027222,-84.35813904,.p,0,20240626-00000,2024-06-18T16:00:00.000Z,2024-06-26T09:00:00.000Z,2024-06-26T10:00:00.000Z,00:3E:73:1F:F4:88,,infra,,2,0,?,?,?,False,64,310410 313100 310280,wpa2,US,OH,North Clinton Street,,1961,43512
41.30965424,-84.35816193,.p,0,20240626-00000,2024-06-18T16:00:00.000Z,2024-06-26T09:00:00.000Z,2024-06-26T10:00:00.000Z,00:3E:73:1F:F5:48,,infra,,2,0,?,?,?,False,52,310410 313100 310280,wpa2,US,OH,North Clinton Street,,1961,43512
41.30950546,-84.35818481,.p,0,20240626-00000,2024-06-18T16:00:00.000Z,2024-06-26T09:00:00.000Z,2024-06-26T10:00:00.000Z,00:3E:73:1F:F5:A8,,infra,,2,0,?,?,?,False,36,310410 313100 310280,wpa2,US,OH,North Clinton Street,,1961,43512
41.30994034,-84.35816193,.p,0,20240626-00000,2024-06-18T16:00:00.000Z,2024-06-26T09:00:00.000Z,2024-06-26T10:00:00.000Z,00:3E:73:1F:F8:78,,infra,,2,0,?,?,?,False,64,310410 313100 310280,wpa2,US,OH,North Clinton Street,,1961,43512
41.30997086,-84.35878754,.p,1,20240626-00000,2024-05-24T16:00:00.000Z,2024-06-26T09:00:00.000Z,2024-06-26T10:00:00.000Z,00:3E:73:1F:FB:18,,infra,,2,0,?,?,?,False,161,310410 313100 310280,wpa2,US,OH,North Clinton Street,,1961,43512
41.30929565,-84.35800934,.p,0,20240626-00000,2024-06-18T16:00:00.000Z,2024-06-26T09:00:00.000Z,2024-06-26T10:00:00.000Z,00:3E:73:1F:FB:78,,infra,,2,0,?,?,?,False,157,310410 313100 310280,wpa2,US,OH,North Clinton Street,,1961,43512
41.31044388,-84.35998535,.p,1,20240626-00000,2024-05-24T16:00:00.000Z,2024-06-26T09:00:00.000Z,2024-06-26T09:00:00.000Z,00:3E:73:20:02:98,,infra,,2,0,?,?,?,False,44,310410 313100 310280,wpa2,US,OH,North Clinton Street,,,43512
41.31002426,-84.36053467,.p,2,20240507-00000,2024-04-24T21:00:00.000Z,2024-06-26T09:00:00.000Z,2024-06-26T10:00:00.000Z,00:3E:73:20:04:78,,infra,,2,0,?,?,?,False,149,310410 313100 310280,wpa2,US,OH,North Clinton Street,,,43512
40.29227829,-83.03083038,.p,2,20240226-00000,2024-02-26T16:00:00.000Z,2024-06-12T16:00:00.000Z,2024-06-12T20:00:00.000Z,00:3E:73:20:04:A8,,infra,,2,0,?,?,?,False,149,310410 313100 310280,wpa2,US,OH,State Route 37 East,,,43015
41.54604721,-83.59326172,.p,0,20240326-00000,2024-03-26T19:00:00.000Z,2024-03-26T13:00:00.000Z,2024-03-26T14:00:00.000Z,00:3E:73:20:97:A8,,infra,,2,0,?,?,?,False,161,310410 313100 310280,wpa2,US,OH,Fremont Pike,,,43551
41.46108246,-81.99125671,.p,0,20240213-00000,2024-02-13T22:00:00.000Z,2024-02-13T15:00:00.000Z,2024-02-13T15:00:00.000Z,00:3E:73:20:9B:37,,infra,,2,0,?,?,?,False,157,310410 313100 310280,wpa2,US,OH,Nagel Road,,1810,44011
38.34903336,-85.79636383,.p,0,20240505-00000,2024-05-05T16:00:00.000Z,2024-05-05T14:00:00.000Z,2024-05-05T15:00:00.000Z,00:3E:73:20:A1:C7,,infra,,2,0,?,?,?,False,149,310410 313100 310280,wpa2,US,IN,Charlestown Road,,,47172
41.31040573,-84.35810852,.p,0,20240626-00000,2024-06-18T16:00:00.000Z,2024-06-26T09:00:00.000Z,2024-06-26T10:00:00.000Z,00:3E:73:20:AB:88,,infra,,2,0,?,?,?,False,161,310410 313100 310280,wpa2,US,OH,North Clinton Street,,1961,43512
39.83727646,-83.08096313,.p,1,20240129-00000,2024-01-29T19:00:00.000Z,2024-06-22T19:00:00.000Z,2024-06-22T20:00:00.000Z,00:3E:73:20:B0:67,,infra,,2,0,?,?,?,False,36,310410 313100 310280,wpa2,US,OH,London - Groveport Road,,2811,43123
41.31040955,-84.35811615,.p,0,20240626-00000,2024-06-18T16:00:00.000Z,2024-06-26T09:00:00.000Z,2024-06-26T10:00:00.000Z,00:3E:73:20:B0:98,,infra,,2,0,?,?,?,False,161,310410 313100 310280,wpa2,US,OH,North Clinton Street,,1961,43512
41.31040192,-84.35810852,.p,0,20240626-00000,2024-06-18T16:00:00.000Z,2024-06-26T09:00:00.000Z,2024-06-26T09:00:00.000Z,00:3E:73:20:B2:48,,infra,,2,0,?,?,?,False,36,310410 313100 310280,wpa2,US,OH,North Clinton Street,,1961,43512
41.54563904,-83.59223175,.p,1,20240326-00000,2024-03-26T19:00:00.000Z,2024-04-02T08:00:00.000Z,2024-04-02T08:00:00.000Z,00:3E:73:20:B2:78,,infra,,2,0,?,?,?,False,149,310410 313100 310280,wpa2,US,OH,Fremont Pike,,,43551
39.84926987,-82.77780914,.p,2,20240210-00000,2024-02-10T18:00:00.000Z,2024-06-18T22:00:00.000Z,2024-06-19T00:00:00.000Z,00:3E:73:20:B4:E7,,infra,,2,0,?,?,?,False,157,310410 313100 310280,wpa2,US,OH,Meijer Drive,,8300,43110
41.46102905,-81.99100494,.p,0,20240213-00000,2024-02-13T22:00:00.000Z,2024-02-13T15:00:00.000Z,2024-02-13T15:00:00.000Z,00:3E:73:20:B8:D7,,infra,,2,0,?,?,?,False,64,310410 313100 310280,wpa2,US,OH,Nagel Road,,1810,44011
39.83716965,-83.08125305,.p,0,20240129-00000,2024-01-29T19:00:00.000Z,2024-01-29T11:00:00.000Z,2024-01-29T11:00:00.000Z,00:3E:73:20:BD:B7,,infra,,2,0,?,?,?,False,161,310410 313100 310280,wpa2,US,OH,London - Groveport Road,,2811,43123
39.83719254,-83.08122253,.p,0,20240129-00000,2024-01-29T19:00:00.000Z,2024-01-29T11:00:00.000Z,2024-01-29T11:00:00.000Z,00:3E:73:20:BD:E7,,infra,,2,0,?,?,?,False,64,310410 313100 310280,wpa2,US,OH,London - Groveport Road,,2811,43123
39.83762741,-83.08123779,.p,1,20240129-00000,2024-01-29T19:00:00.000Z,2024-04-13T12:00:00.000Z,2024-04-13T15:00:00.000Z,00:3E:73:20:C2:C7,,infra,,2,0,?,?,?,False,40,310410 313100 310280,wpa2,US,OH,London - Groveport Road,,2811,43123
39.83720016,-83.08120728,.p,0,20240129-00000,2024-01-29T19:00:00.000Z,2024-01-29T11:00:00.000Z,2024-01-29T11:00:00.000Z,00:3E:73:20:C3:B7,,infra,,2,0,?,?,?,False,149,310410 313100 310280,wpa2,US,OH,London - Groveport Road,,2811,43123
39.64024734,-86.33435059,.p,0,20240331-00000,2024-03-31T17:00:00.000Z,2024-03-31T11:00:00.000Z,2024-03-31T11:00:00.000Z,00:3E:73:20:C5:97,,infra,,2,0,?,?,?,False,36,310410 313100 310280,wpa2,US,IN,Windfall Lane,,,46113
39.83720016,-83.08120728,.p,0,20240129-00000,2024-01-29T19:00:00.000Z,2024-01-29T11:00:00.000Z,2024-01-29T11:00:00.000Z,00:3E:73:20:C6:57,,infra,,2,0,?,?,?,False,161,310410 313100 310280,wpa2,US,OH,London - Groveport Road,,2811,43123
39.83946228,-83.08198547,.p,3,20240129-00000,2024-01-29T19:00:00.000Z,2024-06-22T19:00:00.000Z,2024-06-22T20:00:00.000Z,00:3E:73:20:C6:87,,infra,,2,0,?,?,?,False,48,310410 313100 310280,wpa2,US,OH,London - Groveport Road,,,43146
39.83717728,-83.08124542,.p,0,20240129-00000,2024-01-29T19:00:00.000Z,2024-01-29T11:00:00.000Z,2024-01-29T11:00:00.000Z,00:3E:73:20:C7:47,,infra,,2,0,?,?,?,False,36,310410 313100 310280,wpa2,US,OH,London - Groveport Road,,2811,43123
39.83723068,-83.08117676,.p,0,20240129-00000,2024-01-29T19:00:00.000Z,2024-01-29T11:00:00.000Z,2024-01-29T11:00:00.000Z,00:3E:73:20:C7:A7,,infra,,2,0,?,?,?,False,149,310410 313100 310280,wpa2,US,OH,London - Groveport Road,,2811,43123
39.83723831,-83.0811615,.p,0,20240129-00000,2024-01-29T19:00:00.000Z,2024-01-29T11:00:00.000Z,2024-01-29T11:00:00.000Z,00:3E:73:20:C9:57,,infra,,2,0,?,?,?,False,161,310410 313100 310280,wpa2,US,OH,London - Groveport Road,,2811,43123
39.83723068,-83.08115387,.p,1,20240129-00000,2024-01-29T19:00:00.000Z,2024-06-22T19:00:00.000Z,2024-06-22T20:00:00.000Z,00:3E:73:20:C9:B7,,infra,,2,0,?,?,?,False,157,310410 313100 310280,wpa2,US,OH,London - Groveport Road,,2811,43123
39.83720016,-83.0812149,.p,0,20240129-00000,2024-01-29T19:00:00.000Z,2024-01-29T11:00:00.000Z,2024-01-29T11:00:00.000Z,00:3E:73:20:CA:47,,infra,,2,0,?,?,?,False,40,310410 313100 310280,wpa2,US,OH,London - Groveport Road,,2811,43123
39.83718491,-83.08122253,.p,0,20240129-00000,2024-01-29T19:00:00.000Z,2024-01-29T11:00:00.000Z,2024-01-29T11:00:00.000Z,00:3E:73:20:CA:77,,infra,,2,0,?,?,?,False,153,310410 313100 310280,wpa2,US,OH,London - Groveport Road,,2811,43123
39.83716965,-83.08125305,.p,0,20240129-00000,2024-01-29T19:00:00.000Z,2024-01-29T11:00:00.000Z,2024-01-29T11:00:00.000Z,00:3E:73:20:CC:B7,,infra,,2,0,?,?,?,False,36,310410 313100 310280,wpa2,US,OH,London - Groveport Road,,2811,43123
39.83717346,-83.08124542,.p,0,20240129-00000,2024-01-29T19:00:00.000Z,2024-01-29T11:00:00.000Z,2024-01-29T11:00:00.000Z,00:3E:73:20:CD:A7,,infra,,2,0,?,?,?,False,161,310410 313100 310280,wpa2,US,OH,London - Groveport Road,,2811,43123
39.83717728,-83.08124542,.p,0,20240129-00000,2024-01-29T19:00:00.000Z,2024-01-29T11:00:00.000Z,2024-01-29T11:00:00.000Z,00:3E:73:20:CD:D7,,infra,,2,0,?,?,?,False,48,310410 313100 310280,wpa2,US,OH,London - Groveport Road,,2811,43123
39.83717728,-83.08124542,.p,0,20240129-00000,2024-01-29T19:00:00.000Z,2024-01-29T11:00:00.000Z,2024-01-29T11:00:00.000Z,00:3E:73:20:CE:97,,infra,,2,0,?,?,?,False,64,310410 313100 310280,wpa2,US,OH,London - Groveport Road,,2811,43123
39.83716965,-83.08125305,.p,0,20240129-00000,2024-01-29T19:00:00.000Z,2024-01-29T11:00:00.000Z,2024-01-29T11:00:00.000Z,00:3E:73:20:CE:C7,,infra,,2,0,?,?,?,False,161,310410 313100 310280,wpa2,US,OH,London - Groveport Road,,2811,43123
39.83716965,-83.08125305,.p,0,20240129-00000,2024-01-29T19:00:00.000Z,2024-01-29T11:00:00.000Z,2024-01-29T11:00:00.000Z,00:3E:73:20:CF:87,,infra,,2,0,?,?,?,False,64,310410 313100 310280,wpa2,US,OH,London - Groveport Road,,2811,43123
39.83716965,-83.08125305,.p,0,20240129-00000,2024-01-29T19:00:00.000Z,2024-01-29T11:00:00.000Z,2024-01-29T11:00:00.000Z,00:3E:73:20:CF:E7,,infra,,2,0,?,?,?,False,149,310410 313100 310280,wpa2,US,OH,London - Groveport Road,,2811,43123
41.46108246,-81.99125671,.p,0,20240213-00000,2024-02-13T22:00:00.000Z,2024-02-13T15:00:00.000Z,2024-02-13T15:00:00.000Z,00:3E:73:20:D1:97,,infra,,2,0,?,?,?,False,153,310410 313100 310280,wpa2,US,OH,Nagel Road,,1810,44011
41.31023407,-84.35813904,.p,0,20240626-00000,2024-06-18T16:00:00.000Z,2024-06-26T09:00:00.000Z,2024-06-26T10:00:00.000Z,00:3E:73:20:D1:C8,,infra,,2,0,?,?,?,False,149,310410 313100 310280,wpa2,US,OH,North Clinton Street,,1961,43512
39.83716965,-83.08125305,.p,0,20240129-00000,2024-01-29T19:00:00.000Z,2024-01-29T11:00:00.000Z,2024-01-29T11:00:00.000Z,00:3E:73:20:D2:57,,infra,,2,0,?,?,?,False,48,310410 313100 310280,wpa2,US,OH,London - Groveport Road,,2811,43123
39.8372345,-83.08116913,.p,0,20240129-00000,2024-01-29T19:00:00.000Z,2024-01-29T11:00:00.000Z,2024-01-29T11:00:00.000Z,00:3E:73:20:D3:17,,infra,,2,0,?,?,?,False,161,310410 313100 310280,wpa2,US,OH,London - Groveport Road,,2811,43123
39.83945084,-83.08197784,.p,5,20240129-00000,2024-01-29T19:00:00.000Z,2024-06-22T19:00:00.000Z,2024-06-22T20:00:00.000Z,00:3E:73:20:D3:D7,,infra,,2,0,?,?,?,False,149,310410 313100 310280,wpa2,US,OH,London - Groveport Road,,,43146
41.46108246,-81.99125671,.p,0,20240213-00000,2024-02-13T22:00:00.000Z,2024-02-13T15:00:00.000Z,2024-02-13T15:00:00.000Z,00:3E:73:20:D5:87,,infra,,2,0,?,?,?,False,149,310410 313100 310280,wpa2,US,OH,Nagel Road,,1810,44011
39.83716965,-83.08125305,.p,0,20240129-00000,2024-01-29T19:00:00.000Z,2024-01-29T11:00:00.000Z,2024-01-29T11:00:00.000Z,00:3E:73:20:F8:C7,,infra,,2,0,?,?,?,False,40,310410 313100 310280,wpa2,US,OH,London - Groveport Road,,2811,43123
39.83718872,-83.08122253,.p,0,20240129-00000,2024-01-29T19:00:00.000Z,2024-01-29T11:00:00.000Z,2024-01-29T11:00:00.000Z,00:3E:73:21:1A:B7,,infra,,2,0,?,?,?,False,64,310410 313100 310280,wpa2,US,OH,London - Groveport Road,,2811,43123
41.47250366,-87.0181427,.p,0,20240312-00000,2024-03-11T20:00:00.000Z,2024-03-12T15:00:00.000Z,2024-03-12T16:00:00.000Z,00:3E:73:21:3A:68,,infra,,2,0,?,?,?,False,48,310410 313100 310280,wpa2,US,IN,Porter's Vale Boulevard,Valparaiso,405,46383
39.83716965,-83.08125305,.p,0,20240129-00000,2024-01-29T19:00:00.000Z,2024-01-29T11:00:00.000Z,2024-01-29T11:00:00.000Z,00:3E:73:21:3A:97,,infra,,2,0,?,?,?,False,161,310410 313100 310280,wpa2,US,OH,London - Groveport Road,,2811,43123
39.83716965,-83.08125305,.p,0,20240129-00000,2024-01-29T19:00:00.000Z,2024-01-29T11:00:00.000Z,2024-01-29T11:00:00.000Z,00:3E:73:21:3D:C7,,infra,,2,0,?,?,?,False,48,310410 313100 310280,wpa2,US,OH,London - Groveport Road,,2811,43123
42.38210678,-88.06559753,.p,0,20240207-00000,2024-02-07T21:00:00.000Z,2024-02-07T14:00:00.000Z,2024-02-07T14:00:00.000Z,00:3E:73:21:3F:D8,,infra,,2,0,?,?,?,False,64,310410 313100 310280,wpa2,US,IL,East Rollins Road,,750,60073
39.83716965,-83.08125305,.p,0,20240129-00000,2024-01-29T19:00:00.000Z,2024-01-29T11:00:00.000Z,2024-01-29T11:00:00.000Z,00:3E:73:21:4A:57,,infra,,2,0,?,?,?,False,48,310410 313100 310280,wpa2,US,OH,London - Groveport Road,,2811,43123
42.38211441,-88.06655884,.p,0,20240207-00000,2024-02-07T21:00:00.000Z,2024-02-07T14:00:00.000Z,2024-02-07T14:00:00.000Z,00:3E:73:21:5E:08,,infra,,2,0,?,?,?,False,161,310410 313100 310280,wpa2,US,IL,East Rollins Road,,750,60073
39.83718109,-83.08123779,.p,0,20240129-00000,2024-01-29T19:00:00.000Z,2024-01-29T11:00:00.000Z,2024-01-29T11:00:00.000Z,00:3E:73:21:65:27,,infra,,2,0,?,?,?,False,149,310410 313100 310280,wpa2,US,OH,London - Groveport Road,,2811,43123
41.47267532,-87.01815796,.p,0,20240312-00000,2024-03-11T20:00:00.000Z,2024-03-12T15:00:00.000Z,2024-03-12T16:00:00.000Z,00:3E:73:21:6F:48,,infra,,2,0,?,?,?,False,149,310410 313100 310280,wpa2,US,IN,Porter's Vale Boulevard,Valparaiso,405,46383
42.38210678,-88.06526947,.p,0,20240207-00000,2024-02-07T21:00:00.000Z,2024-02-07T14:00:00.000Z,2024-02-07T14:00:00.000Z,00:3E:73:21:72:18,,infra,,2,0,?,?,?,False,40,310410 313100 310280,wpa2,US,IL,East Rollins Road,,750,60073
41.47267151,-87.0181427,.p,0,20240312-00000,2024-03-11T20:00:00.000Z,2024-03-12T15:00:00.000Z,2024-03-12T16:00:00.000Z,00:3E:73:21:73:68,,infra,,2,0,?,?,?,False,161,310410 313100 310280,wpa2,US,IN,Porter's Vale Boulevard,Valparaiso,405,46383
41.47267532,-87.01815796,.p,0,20240312-00000,2024-03-11T20:00:00.000Z,2024-03-12T15:00:00.000Z,2024-03-12T16:00:00.000Z,00:3E:73:21:73:F8,,infra,,2,0,?,?,?,False,52,310410 313100 310280,wpa2,US,IN,Porter's Vale Boulevard,Valparaiso,405,46383
42.38209915,-88.06494904,.p,0,20240207-00000,2024-02-07T21:00:00.000Z,2024-02-07T14:00:00.000Z,2024-02-07T14:00:00.000Z,00:3E:73:21:82:98,,infra,,2,0,?,?,?,False,157,310410 313100 310280,wpa2,US,IL,East Rollins Road,,750,60073
39.83716965,-83.08125305,.p,0,20240129-00000,2024-01-29T19:00:00.000Z,2024-01-29T11:00:00.000Z,2024-01-29T11:00:00.000Z,00:3E:73:21:83:B7,,infra,,2,0,?,?,?,False,48,310410 313100 310280,wpa2,US,OH,London - Groveport Road,,2811,43123
41.47266388,-87.01806641,.p,0,20240312-00000,2024-03-11T20:00:00.000Z,2024-03-12T15:00:00.000Z,2024-03-12T16:00:00.000Z,00:3E:73:21:84:A8,,infra,,2,0,?,?,?,False,52,310410 313100 310280,wpa2,US,IN,Porter's Vale Boulevard,Valparaiso,405,46383
41.47267914,-87.01815796,.p,0,20240312-00000,2024-03-11T20:00:00.000Z,2024-03-12T15:00:00.000Z,2024-03-12T16:00:00.000Z,00:3E:73:21:85:68,,infra,,2,0,?,?,?,False,161,310410 313100 310280,wpa2,US,IN,Porter's Vale Boulevard,Valparaiso,405,46383
41.47243881,-87.01813507,.p,0,20240312-00000,2024-03-11T20:00:00.000Z,2024-03-12T15:00:00.000Z,2024-03-12T16:00:00.000Z,00:3E:73:21:86:58,,infra,,2,0,?,?,?,False,149,310410 313100 310280,wpa2,US,IN,Porter's Vale Boulevard,Valparaiso,405,46383
41.472435,-87.01810455,.p,0,20240312-00000,2024-03-11T20:00:00.000Z,2024-03-12T15:00:00.000Z,2024-03-12T16:00:00.000Z,00:3E:73:21:86:E8,,infra,,2,0,?,?,?,False,64,310410 313100 310280,wpa2,US,IN,Porter's Vale Boulevard,Valparaiso,405,46383
41.47244263,-87.01815033,.p,0,20240312-00000,2024-03-11T20:00:00.000Z,2024-03-12T15:00:00.000Z,2024-03-12T16:00:00.000Z,00:3E:73:21:87:18,,infra,,2,0,?,?,?,False,161,310410 313100 310280,wpa2,US,IN,Porter's Vale Boulevard,Valparaiso,405,46383
41.47266769,-87.01815796,.p,0,20240312-00000,2024-03-11T20:00:00.000Z,2024-03-12T15:00:00.000Z,2024-03-12T16:00:00.000Z,00:3E:73:21:87:A8,,infra,,2,0,?,?,?,False,48,310410 313100 310280,wpa2,US,IN,Porter's Vale Boulevard,Valparaiso,405,46383
42.38210678,-88.06582642,.p,0,20240207-00000,2024-02-07T21:00:00.000Z,2024-02-07T14:00:00.000Z,2024-02-07T14:00:00.000Z,00:3E:73:21:87:D8,,infra,,2,0,?,?,?,False,52,310410 313100 310280,wpa2,US,IL,East Rollins Road,,750,60073
41.47267151,-87.01815796,.p,0,20240312-00000,2024-03-11T20:00:00.000Z,2024-03-12T15:00:00.000Z,2024-03-12T16:00:00.000Z,00:3E:73:21:88:38,,infra,,2,0,?,?,?,False,36,310410 313100 310280,wpa2,US,IN,Porter's Vale Boulevard,Valparaiso,405,46383
41.47266769,-87.01815796,.p,0,20240312-00000,2024-03-11T20:00:00.000Z,2024-03-12T15:00:00.000Z,2024-03-12T16:00:00.000Z,00:3E:73:21:88:68,,infra,,2,0,?,?,?,False,64,310410 313100 310280,wpa2,US,IN,Porter's Vale Boulevard,Valparaiso,405,46383
42.38211441,-88.06627655,.p,0,20240207-00000,2024-02-07T21:00:00.000Z,2024-02-07T14:00:00.000Z,2024-02-07T14:00:00.000Z,00:3E:73:21:88:C8,,infra,,2,0,?,?,?,False,153,310410 313100 310280,wpa2,US,IL,East Rollins Road,,750,60073
39.83716965,-83.08125305,.p,0,20240129-00000,2024-01-29T19:00:00.000Z,2024-01-29T11:00:00.000Z,2024-01-29T11:00:00.000Z,00:3E:73:21:8E:67,,infra,,2,0,?,?,?,False,36,310410 313100 310280,wpa2,US,OH,London - Groveport Road,,2811,43123
39.83716965,-83.08125305,.p,0,20240129-00000,2024-01-29T19:00:00.000Z,2024-01-29T11:00:00.000Z,2024-01-29T11:00:00.000Z,00:3E:73:21:8E:C7,,infra,,2,0,?,?,?,False,44,310410 313100 310280,wpa2,US,OH,London - Groveport Road,,2811,43123
39.83724213,-83.08106995,.p,1,20240129-00000,2024-01-29T19:00:00.000Z,2024-06-22T19:00:00.000Z,2024-06-22T20:00:00.000Z,00:3E:73:21:90:47,,infra,,2,0,?,?,?,False,36,310410 313100 310280,wpa2,US,OH,London - Groveport Road,,2811,43123
39.83732224,-83.08104706,.p,1,20240129-00000,2024-01-29T19:00:00.000Z,2024-06-22T19:00:00.000Z,2024-06-22T20:00:00.000Z,00:3E:73:21:91:F7,,infra,,2,0,?,?,?,False,40,310410 313100 310280,wpa2,US,OH,London - Groveport Road,,2811,43123
39.83716965,-83.08125305,.p,0,20240129-00000,2024-01-29T19:00:00.000Z,2024-01-29T11:00:00.000Z,2024-01-29T11:00:00.000Z,00:3E:73:21:93:A7,,infra,,2,0,?,?,?,False,149,310410 313100 310280,wpa2,US,OH,London - Groveport Road,,2811,43123
39.83734512,-83.08079529,.p,1,20240129-00000,2024-01-29T19:00:00.000Z,2024-06-22T19:00:00.000Z,2024-06-22T20:00:00.000Z,00:3E:73:21:96:17,,infra,,2,0,?,?,?,False,157,310410 313100 310280,wpa2,US,OH,London - Groveport Road,,2811,43123
39.83716965,-83.08125305,.p,0,20240129-00000,2024-01-29T19:00:00.000Z,2024-01-29T11:00:00.000Z,2024-01-29T11:00:00.000Z,00:3E:73:21:97:67,,infra,,2,0,?,?,?,False,56,310410 313100 310280,wpa2,US,OH,London - Groveport Road,,2811,43123
39.83716965,-83.08125305,.p,0,20240129-00000,2024-01-29T19:00:00.000Z,2024-01-29T11:00:00.000Z,2024-01-29T11:00:00.000Z,00:3E:73:21:98:B7,,infra,,2,0,?,?,?,False,52,310410 313100 310280,wpa2,US,OH,London - Groveport Road,,2811,43123
41.31016922,-84.3581543,.p,0,20240626-00000,2024-06-18T16:00:00.000Z,2024-06-26T09:00:00.000Z,2024-06-26T09:00:00.000Z,00:3E:73:24:AF:08,,infra,,2,0,?,?,?,False,161,310410 313100 310280,wpa2,US,OH,North Clinton Street,,1961,43512
41.30981445,-84.35816193,.p,0,20240626-00000,2024-06-18T16:00:00.000Z,2024-06-26T09:00:00.000Z,2024-06-26T10:00:00.000Z,00:3E:73:24:CE:58,,infra,,2,0,?,?,?,False,40,310410 313100 310280,wpa2,US,OH,North Clinton Street,,1961,43512
41.31009674,-84.35816956,.p,0,20240626-00000,2024-06-18T16:00:00.000Z,2024-06-26T09:00:00.000Z,2024-06-26T09:00:00.000Z,00:3E:73:26:38:68,,infra,,2,0,?,?,?,False,149,310410 313100 310280,wpa2,US,OH,North Clinton Street,,1961,43512
41.31040573,-84.35810852,.p,0,20240626-00000,2024-06-18T16:00:00.000Z,2024-06-26T09:00:00.000Z,2024-06-26T09:00:00.000Z,00:3E:73:26:38:C8,,infra,,2,0,?,?,?,False,36,310410 313100 310280,wpa2,US,OH,North Clinton Street,,1961,43512
41.3103447,-84.35810089,.p,0,20240626-00000,2024-06-18T16:00:00.000Z,2024-06-26T09:00:00.000Z,2024-06-26T10:00:00.000Z,00:3E:73:26:3F:88,,infra,,2,0,?,?,?,False,161,310410 313100 310280,wpa2,US,OH,North Clinton Street,,1961,43512
41.31035233,-84.3586731,.p,1,20240626-00000,2024-05-24T16:00:00.000Z,2024-06-26T09:00:00.000Z,2024-06-26T10:00:00.000Z,00:3E:73:26:41:C8,,infra,,2,0,?,?,?,False,52,310410 313100 310280,wpa2,US,OH,North Clinton Street,,1961,43512
35.64792252,-82.03031158,LiveBetter,5,20240223-00000,2024-02-19T21:00:00.000Z,2024-06-11T03:00:00.000Z,2024-06-11T03:00:00.000Z,00:3E:73:2F:6A:A7,,infra,,2,0,?,?,?,False,52,310410 313100 310280,wpa2,US,NC,Sugar Hill Road,,2875,28752
35.64759827,-82.02996826,LiveBetter,3,20240223-00000,2024-02-19T21:00:00.000Z,2024-04-08T03:00:00.000Z,2024-04-08T18:00:00.000Z,00:3E:73:2F:7A:67,,infra,,2,0,?,?,?,False,64,310410 313100 310280,wpa2,US,NC,Sugar Hill Road,,2875,28752
35.6477356,-82.0302887,LiveBetter,4,20240223-00000,2024-02-19T21:00:00.000Z,2024-04-08T03:00:00.000Z,2024-04-08T18:00:00.000Z,00:3E:73:2F:7D:F7,,infra,,2,0,?,?,?,False,100,310410 313100 310280,wpa2,US,NC,Sugar Hill Road,,2875,28752
35.64767456,-82.03029633,LiveBetter,4,20240223-00000,2024-02-19T21:00:00.000Z,2024-04-08T03:00:00.000Z,2024-04-08T18:00:00.000Z,00:3E:73:2F:7E:57,,infra,,2,0,?,?,?,False,165,310410 313100 310280,wpa2,US,NC,Sugar Hill Road,,2875,28752
35.64764786,-82.03000641,LiveBetter,3,20240223-00000,2024-02-19T21:00:00.000Z,2024-04-08T03:00:00.000Z,2024-04-08T18:00:00.000Z,00:3E:73:2F:7E:E7,,infra,,2,0,?,?,?,False,153,310410 313100 310280,wpa2,US,NC,Sugar Hill Road,,2875,28752
35.64789963,-82.03034973,LiveBetter,4,20240223-00000,2024-02-19T21:00:00.000Z,2024-04-08T03:00:00.000Z,2024-04-08T18:00:00.000Z,00:3E:73:2F:7F:17,,infra,,2,0,?,?,?,False,149,310410 313100 310280,wpa2,US,NC,Sugar Hill Road,,2875,28752
35.64772415,-82.0303421,LiveBetter,4,20240223-00000,2024-02-19T21:00:00.000Z,2024-04-08T03:00:00.000Z,2024-04-08T18:00:00.000Z,00:3E:73:2F:81:87,,infra,,2,0,?,?,?,False,60,310410 313100 310280,wpa2,US,NC,Sugar Hill Road,,2875,28752
35.64741898,-82.02992249,LiveBetter,5,20240203-00000,2024-01-31T22:00:00.000Z,2024-04-08T03:00:00.000Z,2024-07-08T16:00:00.000Z,00:3E:73:2F:83:37,,infra,,2,0,?,?,?,False,100,310410 313100 310280,wpa2,US,NC,Sugar Hill Road,,2875,28752
35.64772415,-82.03064728,LiveBetter,3,20240223-00000,2024-02-19T21:00:00.000Z,2024-04-01T13:00:00.000Z,2024-04-01T13:00:00.000Z,00:3E:73:2F:83:67,,infra,,2,0,?,?,?,False,100,310410 313100 310280,wpa2,US,NC,Sugar Hill Road,,2875,28752
35.64775848,-82.03049469,LiveBetter,3,20240223-00000,2024-02-19T21:00:00.000Z,2024-04-08T03:00:00.000Z,2024-04-08T18:00:00.000Z,00:3E:73:2F:83:C7,,infra,,2,0,?,?,?,False,40,310410 313100 310280,wpa2,US,NC,Sugar Hill Road,,2875,28752
35.64757538,-82.03041077,LiveBetter,4,20240223-00000,2024-02-19T21:00:00.000Z,2024-04-08T03:00:00.000Z,2024-04-08T18:00:00.000Z,00:3E:73:2F:84:E7,,infra,,2,0,?,?,?,False,108,310410 313100 310280,wpa2,US,NC,Sugar Hill Road,,2875,28752
35.6477623,-82.0302124,LiveBetter,4,20240223-00000,2024-02-19T21:00:00.000Z,2024-04-08T03:00:00.000Z,2024-04-08T18:00:00.000Z,00:3E:73:2F:86:37,,infra,,2,0,?,?,?,False,40,310410 313100 310280,wpa2,US,NC,Sugar Hill Road,,2875,28752
35.64776611,-82.03062439,LiveBetter,2,20240223-00000,2024-02-19T21:00:00.000Z,2024-04-01T13:00:00.000Z,2024-04-01T13:00:00.000Z,00:3E:73:2F:86:F7,,infra,,2,0,?,?,?,False,40,310410 313100 310280,wpa2,US,NC,Sugar Hill Road,,2875,28752
35.6477356,-82.03018951,LiveBetter,4,20240223-00000,2024-02-19T21:00:00.000Z,2024-04-08T03:00:00.000Z,2024-04-08T18:00:00.000Z,00:3E:73:2F:87:87,,infra,,2,0,?,?,?,False,108,310410 313100 310280,wpa2,US,NC,Sugar Hill Road,,2875,28752
35.64772034,-82.03038788,LiveBetter,4,20240223-00000,2024-02-19T21:00:00.000Z,2024-04-08T03:00:00.000Z,2024-04-08T18:00:00.000Z,00:3E:73:2F:87:B7,,infra,,2,0,?,?,?,False,136,310410 313100 310280,wpa2,US,NC,Sugar Hill Road,,2875,28752
35.64731598,-82.03011322,LiveBetter,5,20240203-00000,2024-01-31T22:00:00.000Z,2024-04-14T17:00:00.000Z,2024-04-14T20:00:00.000Z,00:3E:73:2F:8C:07,,infra,,2,0,?,?,?,False,149,310410 313100 310280,wpa2,US,NC,Sugar Hill Road,,2875,28752
35.64724731,-82.02993011,LiveBetter,5,20240203-00000,2024-01-31T22:00:00.000Z,2024-07-08T16:00:00.000Z,2024-07-08T16:00:00.000Z,00:3E:73:2F:8C:67,,infra,,2,0,?,?,?,False,165,310410 313100 310280,wpa2,US,NC,Sugar Hill Road,,2875,28752
35.64773941,-82.02999115,LiveBetter,5,20240223-00000,2024-02-19T21:00:00.000Z,2024-04-08T03:00:00.000Z,2024-04-08T18:00:00.000Z,00:3E:73:2F:8D:57,,infra,,2,0,?,?,?,False,140,310410 313100 310280,wpa2,US,NC,Sugar Hill Road,,2875,28752
35.64766693,-82.03041077,LiveBetter,4,20240223-00000,2024-02-19T21:00:00.000Z,2024-04-08T03:00:00.000Z,2024-04-08T18:00:00.000Z,00:3E:73:2F:8D:B7,,infra,,2,0,?,?,?,False,104,310410 313100 310280,wpa2,US,NC,Sugar Hill Road,,2875,28752
35.64762497,-82.03036499,LiveBetter,4,20240223-00000,2024-02-19T21:00:00.000Z,2024-04-08T03:00:00.000Z,2024-04-08T18:00:00.000Z,00:3E:73:2F:95:F7,,infra,,2,0,?,?,?,False,157,310410 313100 310280,wpa2,US,NC,Sugar Hill Road,,2875,28752
35.64785385,-82.0303421,LiveBetter,3,20240223-00000,2024-02-19T21:00:00.000Z,2024-04-08T03:00:00.000Z,2024-04-08T18:00:00.000Z,00:3E:73:2F:A0:17,,infra,,2,0,?,?,?,False,161,310410 313100 310280,wpa2,US,NC,Sugar Hill Road,,2875,28752
35.64780045,-82.03033447,LiveBetter,4,20240223-00000,2024-02-19T21:00:00.000Z,2024-04-08T03:00:00.000Z,2024-04-08T18:00:00.000Z,00:3E:73:2F:A0:77,,infra,,2,0,?,?,?,False,44,310410 313100 310280,wpa2,US,NC,Sugar Hill Road,,2875,28752
35.64762878,-82.03043365,LiveBetter,3,20240223-00000,2024-02-19T21:00:00.000Z,2024-04-08T03:00:00.000Z,2024-04-08T18:00:00.000Z,00:3E:73:2F:A1:07,,infra,,2,0,?,?,?,False,136,310410 313100 310280,wpa2,US,NC,Sugar Hill Road,,2875,28752
35.64761734,-82.03048706,LiveBetter,3,20240223-00000,2024-02-19T21:00:00.000Z,2024-04-08T03:00:00.000Z,2024-04-08T18:00:00.000Z,00:3E:73:2F:A1:F7,,infra,,2,0,?,?,?,False,52,310410 313100 310280,wpa2,US,NC,Sugar Hill Road,,2875,28752
35.64784622,-82.03039551,LiveBetter,3,20240223-00000,2024-02-19T21:00:00.000Z,2024-04-08T03:00:00.000Z,2024-04-08T18:00:00.000Z,00:3E:73:2F:A2:57,,infra,,2,0,?,?,?,False,48,310410 313100 310280,wpa2,US,NC,Sugar Hill Road,,2875,28752
35.64800644,-82.03041077,LiveBetter,6,20240223-00000,2024-02-19T21:00:00.000Z,2024-06-23T16:00:00.000Z,2024-06-23T17:00:00.000Z,00:3E:73:2F:A4:67,,infra,,2,0,?,?,?,False,153,310410 313100 310280,wpa2,US,NC,Sugar Hill Road,,2875,28752
35.64773941,-82.03044128,LiveBetter,4,20240223-00000,2024-02-19T21:00:00.000Z,2024-04-08T03:00:00.000Z,2024-04-08T18:00:00.000Z,00:3E:73:2F:A5:B7,,infra,,2,0,?,?,?,False,157,310410 313100 310280,wpa2,US,NC,Sugar Hill Road,,2875,28752
35.6475296,-82.03034973,LiveBetter,4,20240223-00000,2024-02-19T21:00:00.000Z,2024-04-08T03:00:00.000Z,2024-04-08T18:00:00.000Z,00:3E:73:2F:A6:47,,infra,,2,0,?,?,?,False,44,310410 313100 310280,wpa2,US,NC,Sugar Hill Road,,2875,28752
35.64731979,-82.029953,LiveBetter,5,20240203-00000,2024-01-31T22:00:00.000Z,2024-04-08T03:00:00.000Z,2024-04-08T18:00:00.000Z,00:3E:73:2F:A6:A7,,infra,,2,0,?,?,?,False,36,310410 313100 310280,wpa2,US,NC,Sugar Hill Road,,2875,28752
35.64773178,-82.03037262,LiveBetter,4,20240223-00000,2024-02-19T21:00:00.000Z,2024-04-08T03:00:00.000Z,2024-04-08T18:00:00.000Z,00:3E:73:2F:A8:87,,infra,,2,0,?,?,?,False,36,310410 313100 310280,wpa2,US,NC,Sugar Hill Road,,2875,28752
35.64788055,-82.03030396,LiveBetter,4,20240223-00000,2024-02-19T21:00:00.000Z,2024-04-08T03:00:00.000Z,2024-04-08T18:00:00.000Z,00:3E:73:2F:A9:77,,infra,,2,0,?,?,?,False,161,310410 313100 310280,wpa2,US,NC,Sugar Hill Road,,2875,28752
35.64765549,-82.03038025,LiveBetter,4,20240223-00000,2024-02-19T21:00:00.000Z,2024-04-08T03:00:00.000Z,2024-04-08T18:00:00.000Z,00:3E:73:2F:AA:97,,infra,,2,0,?,?,?,False,56,310410 313100 310280,wpa2,US,NC,Sugar Hill Road,,2875,28752
35.64759064,-82.03042603,LiveBetter,3,20240223-00000,2024-02-19T21:00:00.000Z,2024-04-08T03:00:00.000Z,2024-04-08T18:00:00.000Z,00:3E:73:2F:AA:F7,,infra,,2,0,?,?,?,False,64,310410 313100 310280,wpa2,US,NC,Sugar Hill Road,,2875,28752
35.64779282,-82.03026581,LiveBetter,4,20240223-00000,2024-02-19T21:00:00.000Z,2024-04-08T03:00:00.000Z,2024-04-08T18:00:00.000Z,00:3E:73:2F:AB:B7,,infra,,2,0,?,?,?,False,100,310410 313100 310280,wpa2,US,NC,Sugar Hill Road,,2875,28752
35.64760971,-82.02990723,LiveBetter,4,20240223-00000,2024-02-19T21:00:00.000Z,2024-04-08T03:00:00.000Z,2024-04-08T18:00:00.000Z,00:3E:73:2F:AD:C7,,infra,,2,0,?,?,?,False,108,310410 313100 310280,wpa2,US,NC,Sugar Hill Road,,2875,28752
35.64748764,-82.0304184,LiveBetter,3,20240223-00000,2024-02-19T21:00:00.000Z,2024-04-08T03:00:00.000Z,2024-04-08T18:00:00.000Z,00:3E:73:2F:AD:F7,,infra,,2,0,?,?,?,False,60,310410 313100 310280,wpa2,US,NC,Sugar Hill Road,,2875,28752
38.0193367,-84.42176056,.p,0,20240325-00000,2024-03-25T17:00:00.000Z,2024-03-25T12:00:00.000Z,2024-03-25T13:00:00.000Z,00:3E:73:31:69:C8,,infra,,2,0,?,?,?,False,36,310410 313100 310280,wpa2,US,KY,Paul Jones Way,Lexington,2155,40509
39.86799622,-84.10418701,.p,0,20240721-00000,2024-07-05T20:00:00.000Z,2024-07-21T00:00:00.000Z,2024-07-21T16:00:00.000Z,00:3E:73:31:70:28,,infra,,2,0,?,?,?,False,157,310410 313100 310280,wpa2,US,OH,I 70,Huber Heights,,45424
38.01970291,-84.42209625,.p,0,20240325-00000,2024-03-25T17:00:00.000Z,2024-03-25T12:00:00.000Z,2024-03-25T13:00:00.000Z,00:3E:73:31:72:08,,infra,,2,0,?,?,?,False,153,310410 313100 310280,wpa2,US,KY,Paul Jones Way,Lexington,2155,40509
38.01952744,-84.42192841,.p,0,20240325-00000,2024-03-25T17:00:00.000Z,2024-03-25T12:00:00.000Z,2024-03-25T13:00:00.000Z,00:3E:73:31:72:F8,,infra,,2,0,?,?,?,False,36,310410 313100 310280,wpa2,US,KY,Paul Jones Way,Lexington,2155,40509
39.8680191,-84.10396576,.p,0,20240411-00000,2024-03-30T21:00:00.000Z,2024-04-11T13:00:00.000Z,2024-04-11T19:00:00.000Z,00:3E:73:31:73:B8,,infra,,2,0,?,?,?,False,149,310410 313100 310280,wpa2,US,OH,I 70,Huber Heights,,45424
38.01882935,-84.42129517,.p,0,20240325-00000,2024-03-25T17:00:00.000Z,2024-03-25T12:00:00.000Z,2024-03-25T13:00:00.000Z,00:3E:73:31:76:E8,,infra,,2,0,?,?,?,False,36,310410 313100 310280,wpa2,US,KY,Paul Jones Way,Lexington,2155,40509
38.01940536,-84.42182159,.p,0,20240325-00000,2024-03-25T17:00:00.000Z,2024-03-25T12:00:00.000Z,2024-03-25T13:00:00.000Z,00:3E:73:31:87:08,,infra,,2,0,?,?,?,False,52,310410 313100 310280,wpa2,US,KY,Paul Jones Way,Lexington,2155,40509
39.86799622,-84.10418701,.p,0,20240721-00000,2024-07-05T20:00:00.000Z,2024-07-21T00:00:00.000Z,2024-07-21T16:00:00.000Z,00:3E:73:31:8A:08,,infra,,2,0,?,?,?,False,52,310410 313100 310280,wpa2,US,OH,I 70,Huber Heights,,45424
41.46988678,-87.01696014,.p,1,20240312-00000,2024-03-11T20:00:00.000Z,2024-06-18T08:00:00.000Z,2024-06-18T08:00:00.000Z,00:3E:73:31:8C:D8,,infra,,2,0,?,?,?,False,64,310410 313100 310280,wpa2,US,IN,Porter's Vale Boulevard,Valparaiso,,46383
38.01970291,-84.42209625,.p,0,20240325-00000,2024-03-25T17:00:00.000Z,2024-03-25T12:00:00.000Z,2024-03-25T13:00:00.000Z,00:3E:73:31:8D:38,,infra,,2,0,?,?,?,False,149,310410 313100 310280,wpa2,US,KY,Paul Jones Way,Lexington,2155,40509
41.47043991,-87.0168457,.p,0,20240312-00000,2024-03-11T20:00:00.000Z,2024-03-12T15:00:00.000Z,2024-03-12T16:00:00.000Z,00:3E:73:31:92:78,,infra,,2,0,?,?,?,False,149,310410 313100 310280,wpa2,US,IN,Porter's Vale Boulevard,Valparaiso,,46383
41.15885162,-81.40513611,.p,6,20240112-00000,2024-01-12T22:00:00.000Z,2024-02-16T14:00:00.000Z,2024-02-16T14:00:00.000Z,00:3E:73:31:9B:D9,,infra,,2,0,?,?,?,False,149,310410 313100 310280,wpa2,US,OH,Kent Road,,4303,44224
39.83717346,-83.08125305,.p,0,20240129-00000,2024-01-29T19:00:00.000Z,2024-01-29T11:00:00.000Z,2024-01-29T11:00:00.000Z,00:3E:73:31:AA:A7,,infra,,2,0,?,?,?,False,64,310410 313100 310280,wpa2,US,OH,London - Groveport Road,,2811,43123
39.83716965,-83.08125305,.p,0,20240129-00000,2024-01-29T19:00:00.000Z,2024-01-29T11:00:00.000Z,2024-01-29T11:00:00.000Z,00:3E:73:31:B9:A7,,infra,,2,0,?,?,?,False,161,310410 313100 310280,wpa2,US,OH,London - Groveport Road,,2811,43123
41.47218323,-87.01932526,.p,1,20240118-00000,2024-01-16T21:00:00.000Z,2024-03-12T15:00:00.000Z,2024-03-12T16:00:00.000Z,00:3E:73:31:BA:08,,infra,,2,0,?,?,?,False,161,310410 313100 310280,wpa2,US,IN,Porter's Vale Boulevard,Valparaiso,405,46383
41.47243881,-87.01815033,.p,0,20240312-00000,2024-03-11T20:00:00.000Z,2024-03-12T15:00:00.000Z,2024-03-12T16:00:00.000Z,00:3E:73:31:BA:C8,,infra,,2,0,?,?,?,False,149,310410 313100 310280,wpa2,US,IN,Porter's Vale Boulevard,Valparaiso,405,46383
41.47267914,-87.01815796,.p,0,20240312-00000,2024-03-11T20:00:00.000Z,2024-03-12T15:00:00.000Z,2024-03-12T16:00:00.000Z,00:3E:73:31:BB:B8,,infra,,2,0,?,?,?,False,36,310410 313100 310280,wpa2,US,IN,Porter's Vale Boulevard,Valparaiso,405,46383
39.83716965,-83.08125305,.p,0,20240129-00000,2024-01-29T19:00:00.000Z,2024-01-29T11:00:00.000Z,2024-01-29T11:00:00.000Z,00:3E:73:31:BB:E7,,infra,,2,0,?,?,?,False,157,310410 313100 310280,wpa2,US,OH,London - Groveport Road,,2811,43123
41.47267914,-87.01815796,.p,0,20240312-00000,2024-03-11T20:00:00.000Z,2024-03-12T15:00:00.000Z,2024-03-12T16:00:00.000Z,00:3E:73:31:BC:48,,infra,,2,0,?,?,?,False,52,310410 313100 310280,wpa2,US,IN,Porter's Vale Boulevard,Valparaiso,405,46383
39.83716965,-83.08125305,.p,0,20240129-00000,2024-01-29T19:00:00.000Z,2024-01-29T11:00:00.000Z,2024-01-29T11:00:00.000Z,00:3E:73:31:BD:97,,infra,,2,0,?,?,?,False,52,310410 313100 310280,wpa2,US,OH,London - Groveport Road,,2811,43123
41.47281265,-87.01797485,.p,1,20240312-00000,2024-03-11T20:00:00.000Z,2024-07-04T12:00:00.000Z,2024-07-04T12:00:00.000Z,00:3E:73:31:BF:D8,,infra,,2,0,?,?,?,False,157,310410 313100 310280,wpa2,US,IN,Porter's Vale Boulevard,Valparaiso,405,46383
39.83716965,-83.08125305,.p,0,20240129-00000,2024-01-29T19:00:00.000Z,2024-01-29T11:00:00.000Z,2024-01-29T11:00:00.000Z,00:3E:73:31:C2:17,,infra,,2,0,?,?,?,False,64,310410 313100 310280,wpa2,US,OH,London - Groveport Road,,2811,43123
41.47266388,-87.01811981,.p,0,20240312-00000,2024-03-11T20:00:00.000Z,2024-03-12T15:00:00.000Z,2024-03-12T16:00:00.000Z,00:3E:73:31:C4:88,,infra,,2,0,?,?,?,False,36,310410 313100 310280,wpa2,US,IN,Porter's Vale Boulevard,Valparaiso,405,46383
41.47266388,-87.01811981,.p,0,20240312-00000,2024-03-11T20:00:00.000Z,2024-03-12T15:00:00.000Z,2024-03-12T16:00:00.000Z,00:3E:73:31:C4:E8,,infra,,2,0,?,?,?,False,64,310410 313100 310280,wpa2,US,IN,Porter's Vale Boulevard,Valparaiso,405,46383
41.47266769,-87.01815796,.p,0,20240312-00000,2024-03-11T20:00:00.000Z,2024-03-12T15:00:00.000Z,2024-03-12T16:00:00.000Z,00:3E:73:31:C5:18,,infra,,2,0,?,?,?,False,149,310410 313100 310280,wpa2,US,IN,Porter's Vale Boulevard,Valparaiso,405,46383
42.38178635,-88.06739807,.p,0,20240207-00000,2024-02-07T21:00:00.000Z,2024-02-07T14:00:00.000Z,2024-02-07T14:00:00.000Z,00:3E:73:31:C5:A8,,infra,,2,0,?,?,?,False,153,310410 313100 310280,wpa2,US,IL,Civic Center Way,,,60073
41.47266769,-87.01815796,.p,0,20240312-00000,2024-03-11T20:00:00.000Z,2024-03-12T15:00:00.000Z,2024-03-12T16:00:00.000Z,00:3E:73:31:C6:08,,infra,,2,0,?,?,?,False,60,310410 313100 310280,wpa2,US,IN,Porter's Vale Boulevard,Valparaiso,405,46383
42.3816452,-88.06745911,.p,0,20240207-00000,2024-02-07T21:00:00.000Z,2024-02-07T14:00:00.000Z,2024-02-07T14:00:00.000Z,00:3E:73:31:C6:38,,infra,,2,0,?,?,?,False,161,310410 313100 310280,wpa2,US,IL,Civic Center Way,,,60073
41.47266388,-87.01811981,.p,0,20240312-00000,2024-03-11T20:00:00.000Z,2024-03-12T15:00:00.000Z,2024-03-12T16:00:00.000Z,00:3E:73:31:C6:68,,infra,,2,0,?,?,?,False,161,310410 313100 310280,wpa2,US,IN,Porter's Vale Boulevard,Valparaiso,405,46383
39.83718491,-83.08122253,.p,0,20240129-00000,2024-01-29T19:00:00.000Z,2024-01-29T11:00:00.000Z,2024-01-29T11:00:00.000Z,00:3E:73:31:C7:87,,infra,,2,0,?,?,?,False,48,310410 313100 310280,wpa2,US,OH,London - Groveport Road,,2811,43123
42.3816452,-88.06745911,.p,0,20240207-00000,2024-02-07T21:00:00.000Z,2024-02-07T14:00:00.000Z,2024-02-07T14:00:00.000Z,00:3E:73:31:C8:18,,infra,,2,0,?,?,?,False,48,310410 313100 310280,wpa2,US,IL,Civic Center Way,,,60073
39.83716965,-83.08125305,.p,0,20240129-00000,2024-01-29T19:00:00.000Z,2024-01-29T11:00:00.000Z,2024-01-29T11:00:00.000Z,00:3E:73:31:D0:E7,,infra,,2,0,?,?,?,False,157,310410 313100 310280,wpa2,US,OH,London - Groveport Road,,2811,43123
39.83716965,-83.08125305,.p,0,20240129-00000,2024-01-29T19:00:00.000Z,2024-01-29T11:00:00.000Z,2024-01-29T11:00:00.000Z,00:3E:73:31:D3:27,,infra,,2,0,?,?,?,False,149,310410 313100 310280,wpa2,US,OH,London - Groveport Road,,2811,43123
39.83716965,-83.08125305,.p,0,20240129-00000,2024-01-29T19:00:00.000Z,2024-01-29T11:00:00.000Z,2024-01-29T11:00:00.000Z,00:3E:73:31:D3:E7,,infra,,2,0,?,?,?,False,149,310410 313100 310280,wpa2,US,OH,London - Groveport Road,,2811,43123
42.38211823,-88.0669632,.p,0,20240207-00000,2024-02-07T21:00:00.000Z,2024-02-07T14:00:00.000Z,2024-02-07T14:00:00.000Z,00:3E:73:31:D4:A8,,infra,,2,0,?,?,?,False,40,310410 313100 310280,wpa2,US,IL,East Rollins Road,,750,60073
39.83718491,-83.08123779,.p,0,20240129-00000,2024-01-29T19:00:00.000Z,2024-01-29T11:00:00.000Z,2024-01-29T11:00:00.000Z,00:3E:73:31:D9:27,,infra,,2,0,?,?,?,False,52,310410 313100 310280,wpa2,US,OH,London - Groveport Road,,2811,43123
39.83716965,-83.08125305,.p,0,20240129-00000,2024-01-29T19:00:00.000Z,2024-01-29T11:00:00.000Z,2024-01-29T11:00:00.000Z,00:3E:73:31:D9:87,,infra,,2,0,?,?,?,False,161,310410 313100 310280,wpa2,US,OH,London - Groveport Road,,2811,43123
40.52188873,-85.67658234,.p,2,20240403-00000,2024-04-03T22:00:00.000Z,2024-05-24T05:00:00.000Z,2024-05-24T05:00:00.000Z,00:3E:73:31:DA:48,,infra,,2,0,?,?,?,False,161,310410 313100 310280,wpa2,US,IN,South Western Avenue,,3820,46953
40.52125549,-85.67655182,.p,0,20240423-00000,2024-04-22T22:00:00.000Z,2024-04-23T04:00:00.000Z,2024-04-23T06:00:00.000Z,00:3E:73:31:DC:58,,infra,,2,0,?,?,?,False,161,310410 313100 310280,wpa2,US,IN,South Western Avenue,,3820,46953
40.52191544,-85.67658997,.p,2,20240403-00000,2024-04-03T22:00:00.000Z,2024-05-24T05:00:00.000Z,2024-05-24T05:00:00.000Z,00:3E:73:31:E2:E8,,infra,,2,0,?,?,?,False,149,310410 313100 310280,wpa2,US,IN,South Western Avenue,,3820,46953
40.52125931,-85.67651367,.p,0,20240423-00000,2024-04-22T22:00:00.000Z,2024-04-23T04:00:00.000Z,2024-04-23T06:00:00.000Z,00:3E:73:31:E3:18,,infra,,2,0,?,?,?,False,48,310410 313100 310280,wpa2,US,IN,South Western Avenue,,3820,46953
41.47265625,-87.01808929,.p,1,20240312-00000,2024-03-11T20:00:00.000Z,2024-07-04T12:00:00.000Z,2024-07-04T12:00:00.000Z,00:3E:73:31:E3:78,,infra,,2,0,?,?,?,False,36,310410 313100 310280,wpa2,US,IN,Porter's Vale Boulevard,Valparaiso,405,46383
41.47216034,-87.01725769,.p,0,20240312-00000,2024-03-11T20:00:00.000Z,2024-03-12T15:00:00.000Z,2024-03-12T16:00:00.000Z,00:3E:73:31:E3:A8,,infra,,2,0,?,?,?,False,48,310410 313100 310280,wpa2,US,IN,Porter's Vale Boulevard,Valparaiso,405,46383
44.3005867,-88.41822815,.p,0,20240614-00000,2024-06-14T17:00:00.000Z,2024-06-14T14:00:00.000Z,2024-06-14T22:00:00.000Z,00:3E:73:31:E6:47,,infra,,2,0,?,?,?,False,40,310410 313100 310280,wpa2,US,WI,North Richmond Street,Appleton,3801,54913
40.52125549,-85.67655182,.p,0,20240423-00000,2024-04-22T22:00:00.000Z,2024-04-23T04:00:00.000Z,2024-04-23T06:00:00.000Z,00:3E:73:31:E9:D8,,infra,,2,0,?,?,?,False,64,310410 313100 310280,wpa2,US,IN,South Western Avenue,,3820,46953
40.52126312,-85.67647552,.p,0,20240423-00000,2024-04-22T22:00:00.000Z,2024-04-23T04:00:00.000Z,2024-04-23T06:00:00.000Z,00:3E:73:31:EA:68,,infra,,2,0,?,?,?,False,161,310410 313100 310280,wpa2,US,IN,South Western Avenue,,3820,46953
0.0,0.0,.p,0,20240423-00000,2001-01-01T00:00:00.000Z,2001-01-01T00:00:00.000Z,2024-04-23T06:00:00.000Z,00:3E:73:31:EB:B8,,infra,,2,0,?,?,?,False,52,310410 313100 310280,wpa2,,,,,,
41.47243881,-87.01815033,.p,0,20240312-00000,2024-03-11T20:00:00.000Z,2024-03-12T15:00:00.000Z,2024-03-12T16:00:00.000Z,00:3E:73:31:EB:E8,,infra,,2,0,?,?,?,False,149,310410 313100 310280,wpa2,US,IN,Porter's Vale Boulevard,Valparaiso,405,46383
41.47266769,-87.0181427,.p,0,20240312-00000,2024-03-11T20:00:00.000Z,2024-03-12T15:00:00.000Z,2024-03-12T16:00:00.000Z,00:3E:73:31:EF:48,,infra,,2,0,?,?,?,False,153,310410 313100 310280,wpa2,US,IN,Porter's Vale Boulevard,Valparaiso,405,46383
41.47251129,-87.0181427,.p,0,20240312-00000,2024-03-11T20:00:00.000Z,2024-03-12T15:00:00.000Z,2024-03-12T16:00:00.000Z,00:3E:73:31:F0:98,,infra,,2,0,?,?,?,False,36,310410 313100 310280,wpa2,US,IN,Porter's Vale Boulevard,Valparaiso,405,46383
41.47270966,-87.01795197,.p,1,20240312-00000,2024-03-11T20:00:00.000Z,2024-07-04T12:00:00.000Z,2024-07-04T12:00:00.000Z,00:3E:73:31:F4:B8,,infra,,2,0,?,?,?,False,157,310410 313100 310280,wpa2,US,IN,Porter's Vale Boulevard,Valparaiso,405,46383
41.47242355,-87.01813507,.p,0,20240312-00000,2024-03-11T20:00:00.000Z,2024-03-12T15:00:00.000Z,2024-03-12T16:00:00.000Z,00:3E:73:31:F6:98,,infra,,2,0,?,?,?,False,64,310410 313100 310280,wpa2,US,IN,Porter's Vale Boulevard,Valparaiso,405,46383
41.47246552,-87.01813507,.p,0,20240312-00000,2024-03-11T20:00:00.000Z,2024-03-12T15:00:00.000Z,2024-03-12T16:00:00.000Z,00:3E:73:31:F7:28,,infra,,2,0,?,?,?,False,52,310410 313100 310280,wpa2,US,IN,Porter's Vale Boulevard,Valparaiso,405,46383
41.47261429,-87.01808929,.p,2,20240312-00000,2024-03-11T20:00:00.000Z,2024-07-04T12:00:00.000Z,2024-07-04T12:00:00.000Z,00:3E:73:31:F7:58,,infra,,2,0,?,?,?,False,64,310410 313100 310280,wpa2,US,IN,Porter's Vale Boulevard,Valparaiso,405,46383
40.52127075,-85.67649841,.p,0,20240423-00000,2024-04-22T22:00:00.000Z,2024-04-23T04:00:00.000Z,2024-04-23T06:00:00.000Z,00:3E:73:31:F7:88,,infra,,2,0,?,?,?,False,36,310410 313100 310280,wpa2,US,IN,South Western Avenue,,3820,46953
40.5220108,-85.67650604,.p,2,20240403-00000,2024-04-03T22:00:00.000Z,2024-05-24T05:00:00.000Z,2024-05-24T05:00:00.000Z,00:3E:73:31:F7:E8,,infra,,2,0,?,?,?,False,44,310410 313100 310280,wpa2,US,IN,South Western Avenue,,3820,46953
40.52214813,-85.67665863,.p,1,20240403-00000,2024-04-03T22:00:00.000Z,2024-04-23T04:00:00.000Z,2024-04-23T06:00:00.000Z,00:3E:73:31:F8:18,,infra,,2,0,?,?,?,False,48,310410 313100 310280,wpa2,US,IN,South Western Avenue,,3820,46953
41.47244644,-87.01815033,.p,0,20240312-00000,2024-03-11T20:00:00.000Z,2024-03-12T15:00:00.000Z,2024-03-12T16:00:00.000Z,00:3E:73:31:F8:78,,infra,,2,0,?,?,?,False,149,310410 313100 310280,wpa2,US,IN,Porter's Vale Boulevard,Valparaiso,405,46383
40.52124405,-85.67644501,.p,1,20240423-00000,2024-04-22T22:00:00.000Z,2024-05-22T06:00:00.000Z,2024-05-22T06:00:00.000Z,00:3E:73:31:F8:A8,,infra,,2,0,?,?,?,False,149,310410 313100 310280,wpa2,US,IN,South Western Avenue,,3820,46953
40.5212059,-85.67644501,.p,1,20240423-00000,2024-04-22T22:00:00.000Z,2024-05-22T06:00:00.000Z,2024-05-22T06:00:00.000Z,00:3E:73:31:F9:08,,infra,,2,0,?,?,?,False,161,310410 313100 310280,wpa2,US,IN,South Western Avenue,,3820,46953
40.52127075,-85.67649841,.p,0,20240423-00000,2024-04-22T22:00:00.000Z,2024-04-23T04:00:00.000Z,2024-04-23T06:00:00.000Z,00:3E:73:31:F9:68,,infra,,2,0,?,?,?,False,48,310410 313100 310280,wpa2,US,IN,South Western Avenue,,3820,46953
40.52125931,-85.67652893,.p,0,20240423-00000,2024-04-22T22:00:00.000Z,2024-04-23T04:00:00.000Z,2024-04-23T06:00:00.000Z,00:3E:73:31:F9:98,,infra,,2,0,?,?,?,False,36,310410 313100 310280,wpa2,US,IN,South Western Avenue,,3820,46953
41.47274399,-87.01802063,.p,1,20240312-00000,2024-03-11T20:00:00.000Z,2024-07-04T12:00:00.000Z,2024-07-04T12:00:00.000Z,00:3E:73:31:F9:C8,,infra,,2,0,?,?,?,False,52,310410 313100 310280,wpa2,US,IN,Porter's Vale Boulevard,Valparaiso,405,46383
41.47267151,-87.01811218,.p,0,20240312-00000,2024-03-11T20:00:00.000Z,2024-03-12T15:00:00.000Z,2024-03-12T16:00:00.000Z,00:3E:73:31:F9:F8,,infra,,2,0,?,?,?,False,161,310410 313100 310280,wpa2,US,IN,Porter's Vale Boulevard,Valparaiso,405,46383
41.47266769,-87.01812744,.p,0,20240312-00000,2024-03-11T20:00:00.000Z,2024-03-12T15:00:00.000Z,2024-03-12T16:00:00.000Z,00:3E:73:31:FA:28,,infra,,2,0,?,?,?,False,52,310410 313100 310280,wpa2,US,IN,Porter's Vale Boulevard,Valparaiso,405,46383
41.47243881,-87.01816559,.p,0,20240312-00000,2024-03-11T20:00:00.000Z,2024-03-12T15:00:00.000Z,2024-03-12T16:00:00.000Z,00:3E:73:31:FB:D8,,infra,,2,0,?,?,?,False,157,310410 313100 310280,wpa2,US,IN,Porter's Vale Boulevard,Valparaiso,405,46383
41.47249603,-87.01815033,.p,0,20240312-00000,2024-03-11T20:00:00.000Z,2024-03-12T15:00:00.000Z,2024-03-12T16:00:00.000Z,00:3E:73:31:FC:68,,infra,,2,0,?,?,?,False,52,310410 313100 310280,wpa2,US,IN,Porter's Vale Boulevard,Valparaiso,405,46383
0.0,0.0,.p,0,20240330-00000,2001-01-01T00:00:00.000Z,2001-01-01T00:00:00.000Z,2024-03-30T13:00:00.000Z,00:3E:73:31:FC:F7,,infra,,2,0,?,?,?,False,149,310410 313100 310280,wpa2,,,,,,
41.47224045,-87.01815033,.p,0,20240312-00000,2024-03-11T20:00:00.000Z,2024-03-12T15:00:00.000Z,2024-03-12T16:00:00.000Z,00:3E:73:31:FD:58,,infra,,2,0,?,?,?,False,161,310410 313100 310280,wpa2,US,IN,Porter's Vale Boulevard,Valparaiso,405,46383
41.47224808,-87.01808167,.p,1,20240312-00000,2024-03-11T20:00:00.000Z,2024-07-04T12:00:00.000Z,2024-07-04T12:00:00.000Z,00:3E:73:31:FD:B8,,infra,,2,0,?,?,?,False,40,310410 313100 310280,wpa2,US,IN,Porter's Vale Boulevard,Valparaiso,405,46383
41.47270584,-87.01800537,.p,1,20240312-00000,2024-03-11T20:00:00.000Z,2024-07-04T12:00:00.000Z,2024-07-04T12:00:00.000Z,00:3E:73:31:FE:78,,infra,,2,0,?,?,?,False,36,310410 313100 310280,wpa2,US,IN,Porter's Vale Boulevard,Valparaiso,405,46383
40.52125931,-85.6765213,.p,0,20240423-00000,2024-04-22T22:00:00.000Z,2024-04-23T04:00:00.000Z,2024-04-23T06:00:00.000Z,00:3E:73:31:FE:A8,,infra,,2,0,?,?,?,False,161,310410 313100 310280,wpa2,US,IN,South Western Avenue,,3820,46953
40.52125931,-85.67652893,.p,0,20240423-00000,2024-04-22T22:00:00.000Z,2024-04-23T04:00:00.000Z,2024-04-23T06:00:00.000Z,00:3E:73:31:FF:08,,infra,,2,0,?,?,?,False,161,310410 313100 310280,wpa2,US,IN,South Western Avenue,,3820,46953
40.52126312,-85.67647552,.p,0,20240423-00000,2024-04-22T22:00:00.000Z,2024-04-23T04:00:00.000Z,2024-04-23T06:00:00.000Z,00:3E:73:31:FF:98,,infra,,2,0,?,?,?,False,149,310410 313100 310280,wpa2,US,IN,South Western Avenue,,3820,46953
40.52125549,-85.67655182,.p,0,20240423-00000,2024-04-22T22:00:00.000Z,2024-04-23T04:00:00.000Z,2024-04-23T06:00:00.000Z,00:3E:73:31:FF:F8,,infra,,2,0,?,?,?,False,52,310410 313100 310280,wpa2,US,IN,South Western Avenue,,3820,46953
40.52125549,-85.67655182,.p,0,20240423-00000,2024-04-22T22:00:00.000Z,2024-04-23T04:00:00.000Z,2024-04-23T06:00:00.000Z,00:3E:73:32:00:28,,infra,,2,0,?,?,?,False,52,310410 313100 310280,wpa2,US,IN,South Western Avenue,,3820,46953
40.52125549,-85.67655182,.p,0,20240423-00000,2024-04-22T22:00:00.000Z,2024-04-23T04:00:00.000Z,2024-04-23T06:00:00.000Z,00:3E:73:32:00:B8,,infra,,2,0,?,?,?,False,149,310410 313100 310280,wpa2,US,IN,South Western Avenue,,3820,46953
40.5215416,-85.67652893,.p,1,20240423-00000,2024-04-22T22:00:00.000Z,2024-05-24T05:00:00.000Z,2024-05-24T05:00:00.000Z,00:3E:73:32:01:48,,infra,,2,0,?,?,?,False,149,310410 313100 310280,wpa2,US,IN,South Western Avenue,,3820,46953
40.52168274,-85.67663574,.p,1,20240403-00000,2024-04-03T22:00:00.000Z,2024-04-23T04:00:00.000Z,2024-04-23T06:00:00.000Z,00:3E:73:32:02:08,,infra,,2,0,?,?,?,False,149,310410 313100 310280,wpa2,US,IN,South Western Avenue,,3820,46953
40.52148438,-85.67651367,.p,0,20240423-00000,2024-04-22T22:00:00.000Z,2024-04-23T04:00:00.000Z,2024-04-23T06:00:00.000Z,00:3E:73:32:02:C8,,infra,,2,0,?,?,?,False,161,310410 313100 310280,wpa2,US,IN,South Western Avenue,,3820,46953
40.52125931,-85.67651367,.p,0,20240423-00000,2024-04-22T22:00:00.000Z,2024-04-23T04:00:00.000Z,2024-04-23T06:00:00.000Z,00:3E:73:32:03:58,,infra,,2,0,?,?,?,False,149,310410 313100 310280,wpa2,US,IN,South Western Avenue,,3820,46953
39.83725357,-83.08114624,.p,0,20240129-00000,2024-01-29T19:00:00.000Z,2024-01-29T11:00:00.000Z,2024-01-29T11:00:00.000Z,00:3E:73:32:05:37,,infra,,2,0,?,?,?,False,48,310410 313100 310280,wpa2,US,OH,London - Groveport Road,,2811,43123
0.0,0.0,.p,0,20240423-00000,2001-01-01T00:00:00.000Z,2001-01-01T00:00:00.000Z,2024-04-23T06:00:00.000Z,00:3E:73:32:07:A8,,infra,,2,0,?,?,?,False,161,310410 313100 310280,wpa2,,,,,,
40.52127838,-85.6764679,.p,0,20240423-00000,2024-04-22T22:00:00.000Z,2024-04-23T04:00:00.000Z,2024-04-23T06:00:00.000Z,00:3E:73:32:08:68,,infra,,2,0,?,?,?,False,64,310410 313100 310280,wpa2,US,IN,South Western Avenue,,3820,46953
40.52125549,-85.67655182,.p,0,20240423-00000,2024-04-22T22:00:00.000Z,2024-04-23T04:00:00.000Z,2024-04-23T06:00:00.000Z,00:3E:73:32:08:98,,infra,,2,0,?,?,?,False,40,310410 313100 310280,wpa2,US,IN,South Western Avenue,,3820,46953
40.52125549,-85.67655182,.p,0,20240423-00000,2024-04-22T22:00:00.000Z,2024-04-23T04:00:00.000Z,2024-04-23T06:00:00.000Z,00:3E:73:32:08:F8,,infra,,2,0,?,?,?,False,36,310410 313100 310280,wpa2,US,IN,South Western Avenue,,3820,46953
40.52125549,-85.67655182,.p,0,20240423-00000,2024-04-22T22:00:00.000Z,2024-04-23T04:00:00.000Z,2024-04-23T06:00:00.000Z,00:3E:73:32:09:B8,,infra,,2,0,?,?,?,False,149,310410 313100 310280,wpa2,US,IN,South Western Avenue,,3820,46953
40.52125549,-85.67655182,.p,0,20240423-00000,2024-04-22T22:00:00.000Z,2024-04-23T04:00:00.000Z,2024-04-23T06:00:00.000Z,00:3E:73:32:09:E8,,infra,,2,0,?,?,?,False,64,310410 313100 310280,wpa2,US,IN,South Western Avenue,,3820,46953
40.52128983,-85.67646027,.p,0,20240423-00000,2024-04-22T22:00:00.000Z,2024-04-23T04:00:00.000Z,2024-04-23T06:00:00.000Z,00:3E:73:32:0B:08,,infra,,2,0,?,?,?,False,36,310410 313100 310280,wpa2,US,IN,South Western Avenue,,3820,46953
40.52126694,-85.67654419,.p,0,20240423-00000,2024-04-22T22:00:00.000Z,2024-04-23T04:00:00.000Z,2024-04-23T06:00:00.000Z,00:3E:73:32:0F:28,,infra,,2,0,?,?,?,False,44,310410 313100 310280,wpa2,US,IN,South Western Avenue,,3820,46953
34.78686142,-84.99794769,LiveBetter,0,20240709-00000,2024-07-09T17:00:00.000Z,2024-07-09T15:00:00.000Z,2024-07-09T16:00:00.000Z,00:3E:73:36:F6:17,,infra,,2,0,?,?,?,False,48,310410 313100 310280,wpa2,US,GA,Shugart Road,Dalton,815,30720
34.78701019,-84.99801636,LiveBetter,1,20240707-00000,2024-07-07T20:00:00.000Z,2024-07-09T15:00:00.000Z,2024-07-09T16:00:00.000Z,00:3E:73:37:05:17,,infra,,2,0,?,?,?,False,140,310410 313100 310280,wpa2,US,GA,Shugart Road,Dalton,815,30720
34.78661728,-84.9980011,LiveBetter,1,20240707-00000,2024-07-07T20:00:00.000Z,2024-07-09T15:00:00.000Z,2024-07-09T16:00:00.000Z,00:3E:73:37:0A:B7,,infra,,2,0,?,?,?,False,52,310410 313100 310280,wpa2,US,GA,Shugart Road,Dalton,815,30720
34.78643417,-84.99798584,LiveBetter,1,20240707-00000,2024-07-07T20:00:00.000Z,2024-07-09T15:00:00.000Z,2024-07-09T16:00:00.000Z,00:3E:73:37:16:B7,,infra,,2,0,?,?,?,False,140,310410 313100 310280,wpa2,US,GA,Shugart Road,Dalton,815,30720
40.52125549,-85.67655182,.p,0,20240423-00000,2024-04-22T22:00:00.000Z,2024-04-23T04:00:00.000Z,2024-04-23T06:00:00.000Z,00:3E:73:39:B5:98,,infra,,2,0,?,?,?,False,153,310410 313100 310280,wpa2,US,IN,South Western Avenue,,3820,46953
31.57912445,-84.08699036,LiveBetter,0,20240701-00000,2024-06-28T22:00:00.000Z,2024-07-01T17:00:00.000Z,2024-07-01T18:00:00.000Z,00:3E:73:3A:C1:87,,infra,,2,0,?,?,?,False,48,310410 313100 310280,wpa2,US,GA,Cordele Road,Albany,262,31705
31.57914162,-84.08659363,LiveBetter,0,20240701-00000,2024-06-28T23:00:00.000Z,2024-07-01T17:00:00.000Z,2024-07-01T18:00:00.000Z,00:3E:73:3B:09:57,,infra,,2,0,?,?,?,False,104,310410 313100 310280,wpa2,US,GA,Cordele Road,Albany,262,31705
31.57883835,-84.08672333,LiveBetter,0,20240701-00000,2024-06-28T22:00:00.000Z,2024-07-01T17:00:00.000Z,2024-07-01T18:00:00.000Z,00:3E:73:3B:0D:47,,infra,,2,0,?,?,?,False,64,310410 313100 310280,wpa2,US,GA,Cordele Road,Albany,262,31705
31.57920647,-84.08663177,LiveBetter,0,20240701-00000,2024-06-28T22:00:00.000Z,2024-07-01T17:00:00.000Z,2024-07-01T18:00:00.000Z,00:3E:73:3B:4B:E7,,infra,,2,0,?,?,?,False,161,310410 313100 310280,wpa2,US,GA,Cordele Road,Albany,262,31705
31.57876778,-84.08638763,LiveBetter,0,20240701-00000,2024-06-28T22:00:00.000Z,2024-07-01T17:00:00.000Z,2024-07-01T18:00:00.000Z,00:3E:73:3B:4C:17,,infra,,2,0,?,?,?,False,153,310410 313100 310280,wpa2,US,GA,Cordele Road,Albany,262,31705
31.57877541,-84.08668518,LiveBetter,0,20240701-00000,2024-06-28T23:00:00.000Z,2024-07-01T17:00:00.000Z,2024-07-01T18:00:00.000Z,00:3E:73:3B:4D:07,,infra,,2,0,?,?,?,False,100,310410 313100 310280,wpa2,US,GA,Cordele Road,Albany,262,31705
31.57914734,-84.08654785,LiveBetter,0,20240701-00000,2024-06-28T22:00:00.000Z,2024-07-01T17:00:00.000Z,2024-07-01T18:00:00.000Z,00:3E:73:3B:4E:27,,infra,,2,0,?,?,?,False,108,310410 313100 310280,wpa2,US,GA,Cordele Road,Albany,262,31705
31.57898903,-84.08706665,LiveBetter,0,20240701-00000,2024-06-28T22:00:00.000Z,2024-07-01T17:00:00.000Z,2024-07-01T18:00:00.000Z,00:3E:73:3B:4F:77,,infra,,2,0,?,?,?,False,52,310410 313100 310280,wpa2,US,GA,Cordele Road,Albany,262,31705
31.57913399,-84.08698273,LiveBetter,0,20240701-00000,2024-06-28T22:00:00.000Z,2024-07-01T17:00:00.000Z,2024-07-01T18:00:00.000Z,00:3E:73:3B:50:67,,infra,,2,0,?,?,?,False,64,310410 313100 310280,wpa2,US,GA,Cordele Road,Albany,262,31705
31.57889175,-84.08690643,LiveBetter,0,20240701-00000,2024-06-28T22:00:00.000Z,2024-07-01T17:00:00.000Z,2024-07-01T18:00:00.000Z,00:3E:73:3B:50:C7,,infra,,2,0,?,?,?,False,149,310410 313100 310280,wpa2,US,GA,Cordele Road,Albany,262,31705
31.5789566,-84.08693695,LiveBetter,0,20240701-00000,2024-06-28T22:00:00.000Z,2024-07-01T17:00:00.000Z,2024-07-01T18:00:00.000Z,00:3E:73:3B:51:27,,infra,,2,0,?,?,?,False,40,310410 313100 310280,wpa2,US,GA,Cordele Road,Albany,262,31705
31.57885551,-84.08700562,LiveBetter,0,20240701-00000,2024-06-28T22:00:00.000Z,2024-07-01T17:00:00.000Z,2024-07-01T18:00:00.000Z,00:3E:73:3B:51:B7,,infra,,2,0,?,?,?,False,136,310410 313100 310280,wpa2,US,GA,Cordele Road,Albany,262,31705
31.57911491,-84.08703613,LiveBetter,0,20240701-00000,2024-06-28T22:00:00.000Z,2024-07-01T17:00:00.000Z,2024-07-01T18:00:00.000Z,00:3E:73:3B:51:E7,,infra,,2,0,?,?,?,False,100,310410 313100 310280,wpa2,US,GA,Cordele Road,Albany,262,31705
31.57877731,-84.08690643,LiveBetter,0,20240701-00000,2024-06-28T22:00:00.000Z,2024-07-01T17:00:00.000Z,2024-07-01T18:00:00.000Z,00:3E:73:3B:52:17,,infra,,2,0,?,?,?,False,140,310410 313100 310280,wpa2,US,GA,Cordele Road,Albany,262,31705
31.57884789,-84.08696747,LiveBetter,0,20240701-00000,2024-06-28T22:00:00.000Z,2024-07-01T17:00:00.000Z,2024-07-01T18:00:00.000Z,00:3E:73:3B:52:47,,infra,,2,0,?,?,?,False,100,310410 313100 310280,wpa2,US,GA,Cordele Road,Albany,262,31705
31.57866859,-84.08695984,LiveBetter,0,20240701-00000,2024-06-28T22:00:00.000Z,2024-07-01T17:00:00.000Z,2024-07-01T18:00:00.000Z,00:3E:73:3B:52:77,,infra,,2,0,?,?,?,False,44,310410 313100 310280,wpa2,US,GA,Cordele Road,Albany,262,31705
31.57887268,-84.08715057,LiveBetter,0,20240701-00000,2024-06-28T22:00:00.000Z,2024-07-01T17:00:00.000Z,2024-07-01T18:00:00.000Z,00:3E:73:3B:52:A7,,infra,,2,0,?,?,?,False,48,310410 313100 310280,wpa2,US,GA,Cordele Road,Albany,262,31705
31.57885551,-84.08673096,LiveBetter,0,20240701-00000,2024-06-28T22:00:00.000Z,2024-07-01T17:00:00.000Z,2024-07-01T18:00:00.000Z,00:3E:73:3B:53:07,,infra,,2,0,?,?,?,False,60,310410 313100 310280,wpa2,US,GA,Cordele Road,Albany,262,31705
31.57894707,-84.0870285,LiveBetter,0,20240701-00000,2024-06-28T22:00:00.000Z,2024-07-01T17:00:00.000Z,2024-07-01T18:00:00.000Z,00:3E:73:3B:53:37,,infra,,2,0,?,?,?,False,161,310410 313100 310280,wpa2,US,GA,Cordele Road,Albany,262,31705
31.57875252,-84.08693695,LiveBetter,0,20240701-00000,2024-06-28T22:00:00.000Z,2024-07-01T17:00:00.000Z,2024-07-01T18:00:00.000Z,00:3E:73:3B:53:67,,infra,,2,0,?,?,?,False,36,310410 313100 310280,wpa2,US,GA,Cordele Road,Albany,262,31705
31.57894516,-84.08691406,LiveBetter,0,20240701-00000,2024-06-28T22:00:00.000Z,2024-07-01T17:00:00.000Z,2024-07-01T18:00:00.000Z,00:3E:73:3B:56:97,,infra,,2,0,?,?,?,False,165,310410 313100 310280,wpa2,US,GA,Cordele Road,Albany,262,31705
31.57906342,-84.08677673,LiveBetter,0,20240701-00000,2024-06-28T22:00:00.000Z,2024-07-01T17:00:00.000Z,2024-07-01T18:00:00.000Z,00:3E:73:3B:56:F7,,infra,,2,0,?,?,?,False,60,310410 313100 310280,wpa2,US,GA,Cordele Road,Albany,262,31705
31.57867241,-84.0870285,LiveBetter,0,20240701-00000,2024-06-28T22:00:00.000Z,2024-07-01T17:00:00.000Z,2024-07-01T18:00:00.000Z,00:3E:73:3B:59:07,,infra,,2,0,?,?,?,False,153,310410 313100 310280,wpa2,US,GA,Cordele Road,Albany,262,31705
31.57945824,-84.08730316,LiveBetter,2,20240504-00000,2024-05-04T22:00:00.000Z,2024-07-01T17:00:00.000Z,2024-07-01T18:00:00.000Z,00:3E:73:3C:54:77,,infra,,2,0,?,?,?,False,60,310410 313100 310280,wpa2,US,GA,Cordele Road,Albany,262,31705
31.57900429,-84.08687592,LiveBetter,0,20240701-00000,2024-06-28T22:00:00.000Z,2024-07-01T17:00:00.000Z,2024-07-01T18:00:00.000Z,00:3E:73:3C:6F:77,,infra,,2,0,?,?,?,False,157,310410 313100 310280,wpa2,US,GA,Cordele Road,Albany,262,31705
31.57880211,-84.08648682,LiveBetter,0,20240701-00000,2024-06-28T22:00:00.000Z,2024-07-01T17:00:00.000Z,2024-07-01T18:00:00.000Z,00:3E:73:3C:70:97,,infra,,2,0,?,?,?,False,108,310410 313100 310280,wpa2,US,GA,Cordele Road,Albany,262,31705
31.57883072,-84.08652496,LiveBetter,0,20240701-00000,2024-06-28T22:00:00.000Z,2024-07-01T17:00:00.000Z,2024-07-01T18:00:00.000Z,00:3E:73:3C:71:57,,infra,,2,0,?,?,?,False,140,310410 313100 310280,wpa2,US,GA,Cordele Road,Albany,262,31705
31.57894516,-84.08704376,LiveBetter,0,20240701-00000,2024-06-28T22:00:00.000Z,2024-07-01T17:00:00.000Z,2024-07-01T18:00:00.000Z,00:3E:73:3C:74:87,,infra,,2,0,?,?,?,False,52,310410 313100 310280,wpa2,US,GA,Cordele Road,Albany,262,31705
31.57920837,-84.08688354,LiveBetter,0,20240701-00000,2024-06-28T22:00:00.000Z,2024-07-01T17:00:00.000Z,2024-07-01T18:00:00.000Z,00:3E:73:3C:76:37,,infra,,2,0,?,?,?,False,136,310410 313100 310280,wpa2,US,GA,Cordele Road,Albany,262,31705
31.57910538,-84.08701324,LiveBetter,0,20240701-00000,2024-06-28T22:00:00.000Z,2024-07-01T17:00:00.000Z,2024-07-01T18:00:00.000Z,00:3E:73:3C:76:F7,,infra,,2,0,?,?,?,False,153,310410 313100 310280,wpa2,US,GA,Cordele Road,Albany,262,31705
31.5790329,-84.08681488,LiveBetter,0,20240701-00000,2024-06-28T23:00:00.000Z,2024-07-01T17:00:00.000Z,2024-07-01T18:00:00.000Z,00:3E:73:3C:77:B7,,infra,,2,0,?,?,?,False,64,310410 313100 310280,wpa2,US,GA,Cordele Road,Albany,262,31705
31.57924461,-84.08704376,LiveBetter,0,20240701-00000,2024-06-28T22:00:00.000Z,2024-07-01T17:00:00.000Z,2024-07-01T18:00:00.000Z,00:3E:73:3C:78:77,,infra,,2,0,?,?,?,False,108,310410 313100 310280,wpa2,US,GA,Cordele Road,Albany,262,31705
31.57872772,-84.08705902,LiveBetter,0,20240701-00000,2024-06-28T22:00:00.000Z,2024-07-01T17:00:00.000Z,2024-07-01T18:00:00.000Z,00:3E:73:3C:78:A7,,infra,,2,0,?,?,?,False,165,310410 313100 310280,wpa2,US,GA,Cordele Road,Albany,262,31705
31.57872581,-84.08705139,LiveBetter,0,20240701-00000,2024-06-28T22:00:00.000Z,2024-07-01T17:00:00.000Z,2024-07-01T18:00:00.000Z,00:3E:73:3C:78:D7,,infra,,2,0,?,?,?,False,104,310410 313100 310280,wpa2,US,GA,Cordele Road,Albany,262,31705
31.57875824,-84.0863266,LiveBetter,0,20240701-00000,2024-06-28T23:00:00.000Z,2024-07-01T17:00:00.000Z,2024-07-01T18:00:00.000Z,00:3E:73:3C:7A:27,,infra,,2,0,?,?,?,False,40,310410 313100 310280,wpa2,US,GA,Cordele Road,Albany,262,31705
31.57889748,-84.08669281,LiveBetter,0,20240701-00000,2024-06-28T22:00:00.000Z,2024-07-01T17:00:00.000Z,2024-07-01T18:00:00.000Z,00:3E:73:3C:7B:17,,infra,,2,0,?,?,?,False,161,310410 313100 310280,wpa2,US,GA,Cordele Road,Albany,262,31705
31.57908821,-84.08679962,LiveBetter,0,20240701-00000,2024-06-28T22:00:00.000Z,2024-07-01T17:00:00.000Z,2024-07-01T18:00:00.000Z,00:3E:73:3C:7B:47,,infra,,2,0,?,?,?,False,136,310410 313100 310280,wpa2,US,GA,Cordele Road,Albany,262,31705
27.89185905,-81.5532608,LiveBetter,5,20240508-00000,2024-04-20T16:00:00.000Z,2024-07-15T19:00:00.000Z,2024-07-15T21:00:00.000Z,00:3E:73:3C:DA:27,,infra,,2,0,?,?,?,False,149,310410 313100 310280,wpa2,US,FL,Tangelo Street,,2000,33898
34.11402512,-84.58480835,LiveBetter,0,20240516-00000,2024-05-16T16:00:00.000Z,2024-05-16T09:00:00.000Z,2024-05-16T10:00:00.000Z,00:3E:73:3D:56:17,,infra,,2,0,?,?,?,False,104,310410 313100 310280,wpa2,US,GA,Britley Park Lane,,1181,30189
34.11403275,-84.58477783,LiveBetter,0,20240516-00000,2024-05-16T16:00:00.000Z,2024-05-16T09:00:00.000Z,2024-05-16T10:00:00.000Z,00:3E:73:3D:8F:D7,,infra,,2,0,?,?,?,False,36,310410 313100 310280,wpa2,US,GA,Britley Park Lane,,1181,30189
34.11402893,-84.58425903,LiveBetter,0,20240516-00000,2024-05-16T16:00:00.000Z,2024-05-16T09:00:00.000Z,2024-05-16T10:00:00.000Z,00:3E:73:3D:90:F7,,infra,,2,0,?,?,?,False,108,310410 313100 310280,wpa2,US,GA,Britley Park Lane,,1177,30189
34.11403275,-84.58477783,LiveBetter,0,20240516-00000,2024-05-16T16:00:00.000Z,2024-05-16T09:00:00.000Z,2024-05-16T10:00:00.000Z,00:3E:73:3D:96:37,,infra,,2,0,?,?,?,False,153,310410 313100 310280,wpa2,US,GA,Britley Park Lane,,1181,30189
34.11403275,-84.58477783,LiveBetter,0,20240516-00000,2024-05-16T16:00:00.000Z,2024-05-16T09:00:00.000Z,2024-05-16T10:00:00.000Z,00:3E:73:3D:C7:27,,infra,,2,0,?,?,?,False,56,310410 313100 310280,wpa2,US,GA,Britley Park Lane,,1181,30189
0.0,0.0,.p,0,20240423-00000,2001-01-01T00:00:00.000Z,2001-01-01T00:00:00.000Z,2024-04-23T06:00:00.000Z,00:3E:73:41:59:08,,infra,,2,0,?,?,?,False,64,310410 313100 310280,wpa2,,,,,,
38.29999924,-85.55312347,.p,0,20240422-00000,2024-04-22T23:00:00.000Z,2024-04-22T16:00:00.000Z,2024-04-22T23:00:00.000Z,00:3E:73:41:5D:B7,,infra,,2,0,?,?,?,False,48,310410 313100 310280,wpa2,US,KY,Gene Snyder Freeway,Louisville,,40241
0.0,0.0,.p,0,20240423-00000,2001-01-01T00:00:00.000Z,2001-01-01T00:00:00.000Z,2024-04-23T06:00:00.000Z,00:3E:73:41:92:38,,infra,,2,0,?,?,?,False,48,310410 313100 310280,wpa2,,,,,,
41.61722565,-85.90020752,LiveBetter,0,20240629-00000,2024-06-29T18:00:00.000Z,2024-06-29T12:00:00.000Z,2024-06-29T13:00:00.000Z,00:3E:73:45:09:A7,,infra,,2,0,?,?,?,False,153,310410 313100 310280,wpa2,US,IN,Elkhart Road,,4024,46526
41.61726761,-85.90013123,LiveBetter,0,20240629-00000,2024-06-29T18:00:00.000Z,2024-06-29T12:00:00.000Z,2024-06-29T13:00:00.000Z,00:3E:73:45:09:D7,,infra,,2,0,?,?,?,False,165,310410 313100 310280,wpa2,US,IN,Elkhart Road,,4024,46526
41.61740875,-85.89998627,LiveBetter,0,20240629-00000,2024-06-29T18:00:00.000Z,2024-06-29T12:00:00.000Z,2024-06-29T13:00:00.000Z,00:3E:73:45:0D:07,,infra,,2,0,?,?,?,False,136,310410 313100 310280,wpa2,US,IN,Elkhart Road,,4024,46526
41.61726761,-85.90013123,LiveBetter,0,20240629-00000,2024-06-29T18:00:00.000Z,2024-06-29T12:00:00.000Z,2024-06-29T13:00:00.000Z,00:3E:73:45:14:57,,infra,,2,0,?,?,?,False,52,310410 313100 310280,wpa2,US,IN,Elkhart Road,,4024,46526
41.61726761,-85.90013123,LiveBetter,0,20240629-00000,2024-06-29T18:00:00.000Z,2024-06-29T12:00:00.000Z,2024-06-29T13:00:00.000Z,00:3E:73:45:14:87,,infra,,2,0,?,?,?,False,56,310410 313100 310280,wpa2,US,IN,Elkhart Road,,4024,46526
41.61757278,-85.89989471,LiveBetter,0,20240629-00000,2024-06-29T18:00:00.000Z,2024-06-29T12:00:00.000Z,2024-06-29T13:00:00.000Z,00:3E:73:45:16:97,,infra,,2,0,?,?,?,False,104,310410 313100 310280,wpa2,US,IN,Elkhart Road,,4024,46526
41.61676025,-85.89945221,LiveBetter,0,20240629-00000,2024-06-29T18:00:00.000Z,2024-06-29T12:00:00.000Z,2024-06-29T13:00:00.000Z,00:3E:73:45:17:B7,,infra,,2,0,?,?,?,False,60,310410 313100 310280,wpa2,US,IN,Elkhart Road,,4024,46526
41.61662292,-85.89936066,LiveBetter,0,20240629-00000,2024-06-29T19:00:00.000Z,2024-06-29T12:00:00.000Z,2024-06-29T13:00:00.000Z,00:3E:73:45:18:77,,infra,,2,0,?,?,?,False,40,310410 313100 310280,wpa2,US,IN,Elkhart Road,,4024,46526
27.89175415,-81.55334473,LiveBetter,5,20240201-00000,2024-02-01T17:00:00.000Z,2024-07-15T19:00:00.000Z,2024-07-15T21:00:00.000Z,00:3E:73:45:5A:A7,,infra,,2,0,?,?,?,False,36,310410 313100 310280,wpa2,US,FL,Tangelo Street,,2000,33898
35.95477676,-78.99828339,LiveBetter,0,20240211-00000,2024-02-11T02:00:00.000Z,2024-02-11T04:00:00.000Z,2024-02-11T04:00:00.000Z,00:3E:73:46:0E:17,,infra,,2,0,?,?,?,False,149,310410 313100 310280,wpa2,US,NC,New Hope Commons Drive,Durham,5450,27707
27.89175415,-81.55268097,LiveBetter,5,20240202-00000,2024-02-03T01:00:00.000Z,2024-07-09T21:00:00.000Z,2024-07-09T23:00:00.000Z,00:3E:73:46:49:57,,infra,,2,0,?,?,?,False,108,310410 313100 310280,wpa2,US,FL,Tangelo Street,,2000,33898
27.89179611,-81.55325317,LiveBetter,5,20240201-00000,2024-02-01T17:00:00.000Z,2024-07-15T19:00:00.000Z,2024-07-15T21:00:00.000Z,00:3E:73:46:49:B7,,infra,,2,0,?,?,?,False,40,310410 313100 310280,wpa2,US,FL,Tangelo Street,,2000,33898
27.89180946,-81.55343628,LiveBetter,5,20240201-00000,2024-02-01T17:00:00.000Z,2024-07-15T19:00:00.000Z,2024-07-15T21:00:00.000Z,00:3E:73:46:49:E7,,infra,,2,0,?,?,?,False,52,310410 313100 310280,wpa2,US,FL,Tangelo Street,,2000,33898
27.89191818,-81.55355072,LiveBetter,5,20240201-00000,2024-02-01T17:00:00.000Z,2024-07-15T19:00:00.000Z,2024-07-15T21:00:00.000Z,00:3E:73:46:4A:17,,infra,,2,0,?,?,?,False,153,310410 313100 310280,wpa2,US,FL,Tangelo Street,,2000,33898
27.89188194,-81.55297089,LiveBetter,5,20240201-00000,2024-02-01T17:00:00.000Z,2024-07-09T21:00:00.000Z,2024-07-09T23:00:00.000Z,00:3E:73:46:4A:47,,infra,,2,0,?,?,?,False,52,310410 313100 310280,wpa2,US,FL,Tangelo Street,,2000,33898
27.89204216,-81.55295563,LiveBetter,5,20240201-00000,2024-02-01T17:00:00.000Z,2024-07-15T19:00:00.000Z,2024-07-15T21:00:00.000Z,00:3E:73:46:4A:77,,infra,,2,0,?,?,?,False,64,310410 313100 310280,wpa2,US,FL,Tangelo Street,,2000,33898
27.891819,-81.55330658,LiveBetter,5,20240201-00000,2024-02-01T17:00:00.000Z,2024-07-15T19:00:00.000Z,2024-07-15T21:00:00.000Z,00:3E:73:47:79:77,,infra,,2,0,?,?,?,False,140,310410 313100 310280,wpa2,US,FL,Tangelo Street,,2000,33898
27.89195061,-81.55297852,LiveBetter,5,20240201-00000,2024-02-01T17:00:00.000Z,2024-07-15T19:00:00.000Z,2024-07-15T21:00:00.000Z,00:3E:73:47:7D:67,,infra,,2,0,?,?,?,False,136,310410 313100 310280,wpa2,US,FL,Tangelo Street,,2000,33898
27.8919487,-81.55297089,LiveBetter,5,20240201-00000,2024-02-01T17:00:00.000Z,2024-07-15T19:00:00.000Z,2024-07-15T21:00:00.000Z,00:3E:73:47:7E:87,,infra,,2,0,?,?,?,False,100,310410 313100 310280,wpa2,US,FL,Tangelo Street,,2000,33898
27.89178848,-81.55343628,LiveBetter,5,20240201-00000,2024-02-01T17:00:00.000Z,2024-07-15T19:00:00.000Z,2024-07-15T21:00:00.000Z,00:3E:73:47:7F:17,,infra,,2,0,?,?,?,False,40,310410 313100 310280,wpa2,US,FL,Tangelo Street,,2000,33898
27.89183426,-81.55341339,LiveBetter,5,20240201-00000,2024-02-01T17:00:00.000Z,2024-07-15T19:00:00.000Z,2024-07-15T21:00:00.000Z,00:3E:73:47:7F:47,,infra,,2,0,?,?,?,False,108,310410 313100 310280,wpa2,US,FL,Tangelo Street,,2000,33898
27.89185524,-81.55313873,LiveBetter,5,20240201-00000,2024-02-01T17:00:00.000Z,2024-07-15T19:00:00.000Z,2024-07-15T21:00:00.000Z,00:3E:73:47:81:57,,infra,,2,0,?,?,?,False,161,310410 313100 310280,wpa2,US,FL,Tangelo Street,,2000,33898
27.89199448,-81.55389404,LiveBetter,5,20240201-00000,2024-02-01T17:00:00.000Z,2024-07-15T19:00:00.000Z,2024-07-15T21:00:00.000Z,00:3E:73:47:81:87,,infra,,2,0,?,?,?,False,140,310410 313100 310280,wpa2,US,FL,Tangelo Street,,2000,33898
27.89175606,-81.5532608,LiveBetter,5,20240201-00000,2024-02-01T17:00:00.000Z,2024-07-09T21:00:00.000Z,2024-07-09T23:00:00.000Z,00:3E:73:47:81:E7,,infra,,2,0,?,?,?,False,52,310410 313100 310280,wpa2,US,FL,Tangelo Street,,2000,33898
27.89201546,-81.55322266,LiveBetter,5,20240201-00000,2024-02-01T17:00:00.000Z,2024-07-15T19:00:00.000Z,2024-07-15T21:00:00.000Z,00:3E:73:47:82:17,,infra,,2,0,?,?,?,False,36,310410 313100 310280,wpa2,US,FL,Tangelo Street,,2000,33898
27.89202309,-81.55300903,LiveBetter,5,20240201-00000,2024-02-01T17:00:00.000Z,2024-07-15T19:00:00.000Z,2024-07-15T21:00:00.000Z,00:3E:73:47:82:77,,infra,,2,0,?,?,?,False,165,310410 313100 310280,wpa2,US,FL,Tangelo Street,,2000,33898
27.89189339,-81.55305481,LiveBetter,5,20240201-00000,2024-02-01T17:00:00.000Z,2024-07-09T21:00:00.000Z,2024-07-09T23:00:00.000Z,00:3E:73:47:82:A7,,infra,,2,0,?,?,?,False,44,310410 313100 310280,wpa2,US,FL,Tangelo Street,,2000,33898
27.8921299,-81.55298615,LiveBetter,5,20240201-00000,2024-02-01T17:00:00.000Z,2024-07-15T19:00:00.000Z,2024-07-15T21:00:00.000Z,00:3E:73:47:82:D7,,infra,,2,0,?,?,?,False,140,310410 313100 310280,wpa2,US,FL,Tangelo Street,,2000,33898
27.8918705,-81.55303955,LiveBetter,5,20240201-00000,2024-02-01T17:00:00.000Z,2024-07-15T19:00:00.000Z,2024-07-15T21:00:00.000Z,00:3E:73:47:83:07,,infra,,2,0,?,?,?,False,36,310410 313100 310280,wpa2,US,FL,Tangelo Street,,2000,33898
27.89193916,-81.55318451,LiveBetter,5,20240201-00000,2024-02-01T17:00:00.000Z,2024-07-15T19:00:00.000Z,2024-07-15T21:00:00.000Z,00:3E:73:47:83:97,,infra,,2,0,?,?,?,False,140,310410 313100 310280,wpa2,US,FL,Tangelo Street,,2000,33898
27.89199448,-81.55330658,LiveBetter,5,20240201-00000,2024-02-01T17:00:00.000Z,2024-07-15T19:00:00.000Z,2024-07-15T21:00:00.000Z,00:3E:73:47:84:E7,,infra,,2,0,?,?,?,False,56,310410 313100 310280,wpa2,US,FL,Tangelo Street,,2000,33898
27.89191628,-81.55328369,LiveBetter,5,20240201-00000,2024-02-01T17:00:00.000Z,2024-07-15T19:00:00.000Z,2024-07-15T21:00:00.000Z,00:3E:73:47:85:47,,infra,,2,0,?,?,?,False,64,310410 313100 310280,wpa2,US,FL,Tangelo Street,,2000,33898
27.89202309,-81.55342102,LiveBetter,5,20240201-00000,2024-02-01T17:00:00.000Z,2024-07-15T19:00:00.000Z,2024-07-15T21:00:00.000Z,00:3E:73:47:85:77,,infra,,2,0,?,?,?,False,52,310410 313100 310280,wpa2,US,FL,Tangelo Street,,2000,33898
31.57924652,-84.08670807,LiveBetter,0,20240701-00000,2024-06-28T22:00:00.000Z,2024-07-01T17:00:00.000Z,2024-07-01T18:00:00.000Z,00:3E:73:48:70:F7,,infra,,2,0,?,?,?,False,44,310410 313100 310280,wpa2,US,GA,Cordele Road,Albany,262,31705
35.95486832,-78.99827576,LiveBetter,0,20240211-00000,2024-02-11T02:00:00.000Z,2024-02-11T04:00:00.000Z,2024-02-11T04:00:00.000Z,00:3E:73:4B:93:77,,infra,,2,0,?,?,?,False,161,310410 313100 310280,wpa2,US,NC,New Hope Commons Drive,Durham,5450,27707
35.95488739,-78.99837494,LiveBetter,0,20240211-00000,2024-02-11T02:00:00.000Z,2024-02-11T04:00:00.000Z,2024-02-11T04:00:00.000Z,00:3E:73:4B:94:37,,infra,,2,0,?,?,?,False,40,310410 313100 310280,wpa2,US,NC,New Hope Commons Drive,Durham,5450,27707
34.70632935,-82.76186371,LiveBetter,0,20240406-00000,2024-04-06T11:00:00.000Z,2024-04-06T05:00:00.000Z,2024-04-06T05:00:00.000Z,00:3E:73:4B:94:F7,,infra,,2,0,?,?,?,False,48,310410 313100 310280,wpa2,US,SC,Eighteen Mile Road,,1286,29630
35.95477295,-78.99838257,LiveBetter,0,20240211-00000,2024-02-11T02:00:00.000Z,2024-02-11T04:00:00.000Z,2024-02-11T04:00:00.000Z,00:3E:73:4B:95:27,,infra,,2,0,?,?,?,False,140,310410 313100 310280,wpa2,US,NC,New Hope Commons Drive,Durham,5450,27707
35.95487976,-78.99838257,LiveBetter,0,20240211-00000,2024-02-11T02:00:00.000Z,2024-02-11T04:00:00.000Z,2024-02-11T04:00:00.000Z,00:3E:73:4B:96:D7,,infra,,2,0,?,?,?,False,153,310410 313100 310280,wpa2,US,NC,New Hope Commons Drive,Durham,5450,27707
35.95487976,-78.99838257,LiveBetter,0,20240211-00000,2024-02-11T02:00:00.000Z,2024-02-11T04:00:00.000Z,2024-02-11T04:00:00.000Z,00:3E:73:4B:98:57,,infra,,2,0,?,?,?,False,52,310410 313100 310280,wpa2,US,NC,New Hope Commons Drive,Durham,5450,27707
34.70635986,-82.76183319,LiveBetter,0,20240406-00000,2024-04-06T11:00:00.000Z,2024-04-06T05:00:00.000Z,2024-04-06T05:00:00.000Z,00:3E:73:4B:9A:97,,infra,,2,0,?,?,?,False,136,310410 313100 310280,wpa2,US,SC,Eighteen Mile Road,,1286,29630
34.70639801,-82.76191711,LiveBetter,0,20240406-00000,2024-04-06T11:00:00.000Z,2024-04-06T05:00:00.000Z,2024-04-06T05:00:00.000Z,00:3E:73:4B:A1:27,,infra,,2,0,?,?,?,False,108,310410 313100 310280,wpa2,US,SC,Eighteen Mile Road,,1286,29630
34.70635605,-82.76182556,LiveBetter,1,20240406-00000,2024-04-06T11:00:00.000Z,2024-05-04T05:00:00.000Z,2024-05-04T05:00:00.000Z,00:3E:73:4B:A1:E7,,infra,,2,0,?,?,?,False,136,310410 313100 310280,wpa2,US,SC,Eighteen Mile Road,,1286,29630
35.95478821,-78.99829102,LiveBetter,0,20240211-00000,2024-02-11T02:00:00.000Z,2024-02-11T04:00:00.000Z,2024-02-11T04:00:00.000Z,00:3E:73:4B:AC:C7,,infra,,2,0,?,?,?,False,149,310410 313100 310280,wpa2,US,NC,New Hope Commons Drive,Durham,5450,27707
35.95471954,-78.99836731,LiveBetter,0,20240211-00000,2024-02-11T02:00:00.000Z,2024-02-11T04:00:00.000Z,2024-02-11T04:00:00.000Z,00:3E:73:4B:AD:B7,,infra,,2,0,?,?,?,False,44,310410 313100 310280,wpa2,US,NC,New Hope Commons Drive,Durham,5450,27707
35.95487976,-78.99838257,LiveBetter,0,20240211-00000,2024-02-11T02:00:00.000Z,2024-02-11T04:00:00.000Z,2024-02-11T04:00:00.000Z,00:3E:73:4B:AF:97,,infra,,2,0,?,?,?,False,64,310410 313100 310280,wpa2,US,NC,New Hope Commons Drive,Durham,5450,27707
35.95474625,-78.9983902,LiveBetter,0,20240211-00000,2024-02-11T02:00:00.000Z,2024-02-11T04:00:00.000Z,2024-02-11T04:00:00.000Z,00:3E:73:4B:C5:27,,infra,,2,0,?,?,?,False,100,310410 313100 310280,wpa2,US,NC,New Hope Commons Drive,Durham,5450,27707
35.95475006,-78.99832153,LiveBetter,0,20240211-00000,2024-02-11T02:00:00.000Z,2024-02-11T04:00:00.000Z,2024-02-11T04:00:00.000Z,00:3E:73:4B:CB:B7,,infra,,2,0,?,?,?,False,64,310410 313100 310280,wpa2,US,NC,New Hope Commons Drive,Durham,5450,27707
35.95487976,-78.99838257,LiveBetter,0,20240211-00000,2024-02-11T02:00:00.000Z,2024-02-11T04:00:00.000Z,2024-02-11T04:00:00.000Z,00:3E:73:4B:CF:17,,infra,,2,0,?,?,?,False,100,310410 313100 310280,wpa2,US,NC,New Hope Commons Drive,Durham,5450,27707
35.95487976,-78.99838257,LiveBetter,0,20240211-00000,2024-02-11T02:00:00.000Z,2024-02-11T04:00:00.000Z,2024-02-11T04:00:00.000Z,00:3E:73:4B:CF:77,,infra,,2,0,?,?,?,False,64,310410 313100 310280,wpa2,US,NC,New Hope Commons Drive,Durham,5450,27707
35.95485306,-78.99837494,LiveBetter,0,20240211-00000,2024-02-11T02:00:00.000Z,2024-02-11T04:00:00.000Z,2024-02-11T04:00:00.000Z,00:3E:73:4B:D1:57,,infra,,2,0,?,?,?,False,60,310410 313100 310280,wpa2,US,NC,New Hope Commons Drive,Durham,5450,27707
35.9548645,-78.99833679,LiveBetter,0,20240211-00000,2024-02-11T02:00:00.000Z,2024-02-11T04:00:00.000Z,2024-02-11T04:00:00.000Z,00:3E:73:4B:DC:07,,infra,,2,0,?,?,?,False,161,310410 313100 310280,wpa2,US,NC,New Hope Commons Drive,Durham,5450,27707
35.95471954,-78.99836731,LiveBetter,0,20240211-00000,2024-02-11T02:00:00.000Z,2024-02-11T04:00:00.000Z,2024-02-11T04:00:00.000Z,00:3E:73:4B:E7:D7,,infra,,2,0,?,?,?,False,136,310410 313100 310280,wpa2,US,NC,New Hope Commons Drive,Durham,5450,27707
35.95485306,-78.99835205,LiveBetter,0,20240211-00000,2024-02-11T02:00:00.000Z,2024-02-11T04:00:00.000Z,2024-02-11T04:00:00.000Z,00:3E:73:4B:F3:17,,infra,,2,0,?,?,?,False,40,310410 313100 310280,wpa2,US,NC,New Hope Commons Drive,Durham,5450,27707
35.95484161,-78.99832916,LiveBetter,0,20240211-00000,2024-02-11T02:00:00.000Z,2024-02-11T04:00:00.000Z,2024-02-11T04:00:00.000Z,00:3E:73:4B:F4:67,,infra,,2,0,?,?,?,False,104,310410 313100 310280,wpa2,US,NC,New Hope Commons Drive,Durham,5450,27707
35.95487213,-78.99835968,LiveBetter,0,20240211-00000,2024-02-11T02:00:00.000Z,2024-02-11T04:00:00.000Z,2024-02-11T04:00:00.000Z,00:3E:73:4B:FD:37,,infra,,2,0,?,?,?,False,36,310410 313100 310280,wpa2,US,NC,New Hope Commons Drive,Durham,5450,27707
35.95485687,-78.99835968,LiveBetter,0,20240211-00000,2024-02-11T02:00:00.000Z,2024-02-11T04:00:00.000Z,2024-02-11T04:00:00.000Z,00:3E:73:4C:05:47,,infra,,2,0,?,?,?,False,48,310410 313100 310280,wpa2,US,NC,New Hope Commons Drive,Durham,5450,27707
35.95496368,-78.99819946,LiveBetter,0,20240211-00000,2024-02-11T02:00:00.000Z,2024-02-11T04:00:00.000Z,2024-02-11T04:00:00.000Z,00:3E:73:4C:06:C7,,infra,,2,0,?,?,?,False,104,310410 313100 310280,wpa2,US,NC,New Hope Commons Drive,Durham,5450,27707
35.95481873,-78.9982605,LiveBetter,0,20240211-00000,2024-02-11T02:00:00.000Z,2024-02-11T04:00:00.000Z,2024-02-11T04:00:00.000Z,00:3E:73:4C:07:57,,infra,,2,0,?,?,?,False,165,310410 313100 310280,wpa2,US,NC,New Hope Commons Drive,Durham,5450,27707
35.95492554,-78.99823761,LiveBetter,0,20240211-00000,2024-02-11T02:00:00.000Z,2024-02-11T04:00:00.000Z,2024-02-11T04:00:00.000Z,00:3E:73:4C:0C:07,,infra,,2,0,?,?,?,False,44,310410 313100 310280,wpa2,US,NC,New Hope Commons Drive,Durham,5450,27707
35.95488358,-78.99833679,LiveBetter,0,20240211-00000,2024-02-11T02:00:00.000Z,2024-02-11T04:00:00.000Z,2024-02-11T04:00:00.000Z,00:3E:73:4C:0D:27,,infra,,2,0,?,?,?,False,140,310410 313100 310280,wpa2,US,NC,New Hope Commons Drive,Durham,5450,27707
35.9548912,-78.99828339,LiveBetter,0,20240211-00000,2024-02-11T02:00:00.000Z,2024-02-11T04:00:00.000Z,2024-02-11T04:00:00.000Z,00:3E:73:4C:0E:D7,,infra,,2,0,?,?,?,False,149,310410 313100 310280,wpa2,US,NC,New Hope Commons Drive,Durham,5450,27707
35.95488358,-78.99835968,LiveBetter,0,20240211-00000,2024-02-11T02:00:00.000Z,2024-02-11T04:00:00.000Z,2024-02-11T04:00:00.000Z,00:3E:73:4C:0F:07,,infra,,2,0,?,?,?,False,60,310410 313100 310280,wpa2,US,NC,New Hope Commons Drive,Durham,5450,27707
35.95479965,-78.99828339,LiveBetter,0,20240211-00000,2024-02-11T02:00:00.000Z,2024-02-11T04:00:00.000Z,2024-02-11T04:00:00.000Z,00:3E:73:4C:10:E7,,infra,,2,0,?,?,?,False,52,310410 313100 310280,wpa2,US,NC,New Hope Commons Drive,Durham,5450,27707
35.95484161,-78.99821472,LiveBetter,0,20240211-00000,2024-02-11T02:00:00.000Z,2024-02-11T04:00:00.000Z,2024-02-11T04:00:00.000Z,00:3E:73:4C:12:67,,infra,,2,0,?,?,?,False,153,310410 313100 310280,wpa2,US,NC,New Hope Commons Drive,Durham,5450,27707
35.95490646,-78.99830627,LiveBetter,0,20240211-00000,2024-02-11T02:00:00.000Z,2024-02-11T04:00:00.000Z,2024-02-11T04:00:00.000Z,00:3E:73:4C:17:A7,,infra,,2,0,?,?,?,False,108,310410 313100 310280,wpa2,US,NC,New Hope Commons Drive,Durham,5450,27707
35.95489502,-78.99835968,LiveBetter,0,20240211-00000,2024-02-11T02:00:00.000Z,2024-02-11T04:00:00.000Z,2024-02-11T04:00:00.000Z,00:3E:73:4C:18:07,,infra,,2,0,?,?,?,False,165,310410 313100 310280,wpa2,US,NC,New Hope Commons Drive,Durham,5450,27707
35.95483017,-78.99823761,LiveBetter,0,20240211-00000,2024-02-11T02:00:00.000Z,2024-02-11T04:00:00.000Z,2024-02-11T04:00:00.000Z,00:3E:73:4C:18:97,,infra,,2,0,?,?,?,False,136,310410 313100 310280,wpa2,US,NC,New Hope Commons Drive,Durham,5450,27707
35.95471954,-78.99836731,LiveBetter,0,20240211-00000,2024-02-11T02:00:00.000Z,2024-02-11T04:00:00.000Z,2024-02-11T04:00:00.000Z,00:3E:73:4C:18:F7,,infra,,2,0,?,?,?,False,161,310410 313100 310280,wpa2,US,NC,New Hope Commons Drive,Durham,5450,27707
35.9548111,-78.99829102,LiveBetter,0,20240211-00000,2024-02-11T02:00:00.000Z,2024-02-11T04:00:00.000Z,2024-02-11T04:00:00.000Z,00:3E:73:4C:19:57,,infra,,2,0,?,?,?,False,36,310410 313100 310280,wpa2,US,NC,New Hope Commons Drive,Durham,5450,27707
35.95469666,-78.99837494,LiveBetter,0,20240211-00000,2024-02-11T02:00:00.000Z,2024-02-11T04:00:00.000Z,2024-02-11T04:00:00.000Z,00:3E:73:4C:1A:77,,infra,,2,0,?,?,?,False,56,310410 313100 310280,wpa2,US,NC,New Hope Commons Drive,Durham,5450,27707
35.95487976,-78.99838257,LiveBetter,0,20240211-00000,2024-02-11T02:00:00.000Z,2024-02-11T04:00:00.000Z,2024-02-11T04:00:00.000Z,00:3E:73:4C:1B:F7,,infra,,2,0,?,?,?,False,153,310410 313100 310280,wpa2,US,NC,New Hope Commons Drive,Durham,5450,27707
27.8918457,-81.55299377,LiveBetter,5,20240202-00000,2024-02-03T01:00:00.000Z,2024-07-09T21:00:00.000Z,2024-07-09T23:00:00.000Z,00:3E:73:4F:1B:36,,infra,,2,0,?,?,?,False,60,310410 313100 310280,wpa2,US,FL,Tangelo Street,,2000,33898
43.70251846,-72.28821564,Passpoint,0,20240623-00000,2024-06-22T15:00:00.000Z,2024-06-23T05:00:00.000Z,2024-06-23T06:00:00.000Z,00:3E:73:50:0B:C4,,infra,,2,0,?,?,?,False,36,310410 313100 310280,wpa2,US,NH,Teagan Avenue,,,03755
43.70251846,-72.28858948,Passpoint,0,20240623-00000,2024-06-22T15:00:00.000Z,2024-06-23T05:00:00.000Z,2024-06-23T06:00:00.000Z,00:3E:73:50:0B:E4,,infra,,2,0,?,?,?,False,140,310410 313100 310280,wpa2,US,NH,Teagan Avenue,,,03755
43.70314026,-72.2821579,Passpoint,0,20240623-00000,2024-06-22T15:00:00.000Z,2024-06-23T05:00:00.000Z,2024-06-23T06:00:00.000Z,00:3E:73:51:C0:75,,infra,,2,0,?,?,?,False,100,310410 313100 310280,wpa2,US,NH,South Park Street,,6,03755
37.27177429,-76.71347809,Cellular,0,20240622-00000,2024-06-22T14:00:00.000Z,2024-06-22T08:00:00.000Z,2024-06-22T08:00:00.000Z,00:3E:73:52:53:44,,infra,,2,0,?,?,?,False,140,310410 313100 310280,wpa2,US,VA,Stadium Drive,Williamsburg,200,23186
29.68370628,-91.26839447,LiveBetter,0,20240303-00000,2024-03-03T18:00:00.000Z,2024-03-03T10:00:00.000Z,2024-03-03T11:00:00.000Z,00:3E:73:57:0D:97,,infra,,2,0,?,?,?,False,64,310410 313100 310280,wpa2,US,LA,Delmar Avenue,,,70380
38.29668427,-85.55396271,.p,0,20240422-00000,2024-04-22T23:00:00.000Z,2024-04-22T16:00:00.000Z,2024-04-22T23:00:00.000Z,00:3E:73:59:02:07,,infra,,2,0,?,?,?,False,44,310410 313100 310280,wpa2,US,KY,Towne Center Drive,Louisville,,40241
38.29668427,-85.55395508,.p,0,20240422-00000,2024-04-22T23:00:00.000Z,2024-04-22T16:00:00.000Z,2024-04-22T23:00:00.000Z,00:3E:73:59:03:B7,,infra,,2,0,?,?,?,False,161,310410 313100 310280,wpa2,US,KY,Towne Center Drive,Louisville,,40241
38.01976776,-84.42215729,.p,0,20240325-00000,2024-03-25T17:00:00.000Z,2024-03-25T12:00:00.000Z,2024-03-25T13:00:00.000Z,00:3E:73:59:13:A8,,infra,,2,0,?,?,?,False,48,310410 313100 310280,wpa2,US,KY,Paul Jones Way,Lexington,2155,40509
29.68369865,-91.26838684,LiveBetter,0,20240318-00000,2024-03-03T18:00:00.000Z,2024-03-18T08:00:00.000Z,2024-03-18T08:00:00.000Z,00:3E:73:59:2F:37,,infra,,2,0,?,?,?,False,108,310410 313100 310280,wpa2,US,LA,Delmar Avenue,,,70380
29.6860199,-91.25572205,LiveBetter,0,20240608-00000,2024-04-20T19:00:00.000Z,2024-06-08T23:00:00.000Z,2024-06-08T23:00:00.000Z,00:3E:73:59:37:17,,infra,,2,0,?,?,?,False,136,310410 313100 310280,wpa2,US,LA,Arlington Street,,,70380
38.02050781,-84.41883087,.p,0,20240521-00000,2024-05-21T19:00:00.000Z,2024-05-21T13:00:00.000Z,2024-05-21T13:00:00.000Z,00:3E:73:59:B0:08,,infra,,2,0,?,?,?,False,149,310410 313100 310280,wpa2,US,KY,Alysheba Way,Lexington,,40509-2429
29.15785789,-82.1656723,LiveBetter,3,20240213-00000,2024-02-13T21:00:00.000Z,2024-04-20T14:00:00.000Z,2024-04-20T16:00:00.000Z,00:3E:73:5A:1B:A4,,infra,,2,0,?,?,?,False,140,310410 313100 310280,wpa2,US,FL,Southwest 19th Avenue Road,Ocala,2600,34471
38.01970291,-84.42209625,.p,0,20240325-00000,2024-03-25T17:00:00.000Z,2024-03-25T12:00:00.000Z,2024-03-25T13:00:00.000Z,00:3E:73:5A:64:08,,infra,,2,0,?,?,?,False,149,310410 313100 310280,wpa2,US,KY,Paul Jones Way,Lexington,2155,40509
38.01906204,-84.42151642,.p,0,20240325-00000,2024-03-25T17:00:00.000Z,2024-03-25T12:00:00.000Z,2024-03-25T13:00:00.000Z,00:3E:73:5A:6B:B8,,infra,,2,0,?,?,?,False,149,310410 313100 310280,wpa2,US,KY,Paul Jones Way,Lexington,2155,40509
43.70410919,-72.30182648,Passpoint,0,20240623-00000,2024-06-22T15:00:00.000Z,2024-06-23T05:00:00.000Z,2024-06-23T06:00:00.000Z,00:3E:73:6D:1B:F5,,infra,,2,0,?,?,?,False,116,310410 313100 310280,wpa2,US,VT,Main Street,,,03755
28.00527382,-82.30690765,.,0,20240716-00000,2024-07-16T12:00:00.000Z,2024-07-16T14:00:00.000Z,2024-07-16T14:00:00.000Z,00:3E:73:6F:4C:6B,,infra,,2,0,?,?,?,False,44,310410 313100 310280,wpa2,US,FL,I 4,,,33584
28.00541115,-82.3069458,.,0,20240716-00000,2024-07-16T12:00:00.000Z,2024-07-16T14:00:00.000Z,2024-07-16T14:00:00.000Z,00:3E:73:6F:52:FB,,infra,,2,0,?,?,?,False,60,310410 313100 310280,wpa2,US,FL,I 4,,,33584
28.00480652,-82.30857849,.,0,20240716-00000,2024-07-16T17:00:00.000Z,2024-07-16T14:00:00.000Z,2024-07-16T14:00:00.000Z,00:3E:73:71:A5:8B,,infra,,2,0,?,?,?,False,149,310410 313100 310280,wpa2,US,FL,I 4,,,33592
28.00536728,-82.30716705,.,0,20240716-00000,2024-07-16T12:00:00.000Z,2024-07-16T14:00:00.000Z,2024-07-16T14:00:00.000Z,00:3E:73:71:CD:DB,,infra,,2,0,?,?,?,False,60,310410 313100 310280,wpa2,US,FL,I 4,,,33584
28.00516891,-82.30819702,.,0,20240716-00000,2024-07-16T12:00:00.000Z,2024-07-16T14:00:00.000Z,2024-07-16T14:00:00.000Z,00:3E:73:71:D4:CB,,infra,,2,0,?,?,?,False,52,310410 313100 310280,wpa2,US,FL,I 4,,,33584
41.61732864,-85.90002441,LiveBetter,0,20240629-00000,2024-06-29T18:00:00.000Z,2024-06-29T12:00:00.000Z,2024-06-29T13:00:00.000Z,00:3E:73:72:1F:97,,infra,,2,0,?,?,?,False,52,310410 313100 310280,wpa2,US,IN,Elkhart Road,,4024,46526
41.61715698,-85.89956665,LiveBetter,0,20240629-00000,2024-06-29T18:00:00.000Z,2024-06-29T12:00:00.000Z,2024-06-29T13:00:00.000Z,00:3E:73:72:2B:37,,infra,,2,0,?,?,?,False,100,310410 313100 310280,wpa2,US,IN,Elkhart Road,,4024,46526
41.61662292,-85.89936066,LiveBetter,0,20240629-00000,2024-06-29T19:00:00.000Z,2024-06-29T12:00:00.000Z,2024-06-29T13:00:00.000Z,00:3E:73:72:36:77,,infra,,2,0,?,?,?,False,104,310410 313100 310280,wpa2,US,IN,Elkhart Road,,4024,46526
41.61727142,-85.89966583,LiveBetter,0,20240629-00000,2024-06-29T18:00:00.000Z,2024-06-29T12:00:00.000Z,2024-06-29T13:00:00.000Z,00:3E:73:72:3F:17,,infra,,2,0,?,?,?,False,149,310410 313100 310280,wpa2,US,IN,Elkhart Road,,4024,46526
41.61726761,-85.90013123,LiveBetter,0,20240629-00000,2024-06-29T18:00:00.000Z,2024-06-29T12:00:00.000Z,2024-06-29T13:00:00.000Z,00:3E:73:72:42:A7,,infra,,2,0,?,?,?,False,36,310410 313100 310280,wpa2,US,IN,Elkhart Road,,4024,46526
41.61745834,-85.89989471,LiveBetter,0,20240629-00000,2024-06-29T18:00:00.000Z,2024-06-29T12:00:00.000Z,2024-06-29T13:00:00.000Z,00:3E:73:72:43:07,,infra,,2,0,?,?,?,False,161,310410 313100 310280,wpa2,US,IN,Elkhart Road,,4024,46526
41.6166954,-85.89942169,LiveBetter,0,20240629-00000,2024-06-29T18:00:00.000Z,2024-06-29T12:00:00.000Z,2024-06-29T13:00:00.000Z,00:3E:73:72:44:B7,,infra,,2,0,?,?,?,False,136,310410 313100 310280,wpa2,US,IN,Elkhart Road,,4024,46526
41.61710358,-85.8996582,LiveBetter,0,20240629-00000,2024-06-29T18:00:00.000Z,2024-06-29T12:00:00.000Z,2024-06-29T13:00:00.000Z,00:3E:73:72:4E:D7,,infra,,2,0,?,?,?,False,149,310410 313100 310280,wpa2,US,IN,Elkhart Road,,4024,46526
41.61686325,-85.89948273,LiveBetter,0,20240629-00000,2024-06-29T18:00:00.000Z,2024-06-29T12:00:00.000Z,2024-06-29T13:00:00.000Z,00:3E:73:72:4F:67,,infra,,2,0,?,?,?,False,100,310410 313100 310280,wpa2,US,IN,Elkhart Road,,4024,46526
41.61662292,-85.89936066,LiveBetter,0,20240629-00000,2024-06-29T19:00:00.000Z,2024-06-29T12:00:00.000Z,2024-06-29T13:00:00.000Z,00:3E:73:72:52:97,,infra,,2,0,?,?,?,False,64,310410 313100 310280,wpa2,US,IN,Elkhart Road,,4024,46526
41.61726761,-85.90013123,LiveBetter,0,20240629-00000,2024-06-29T18:00:00.000Z,2024-06-29T12:00:00.000Z,2024-06-29T13:00:00.000Z,00:3E:73:73:B4:97,,infra,,2,0,?,?,?,False,157,310410 313100 310280,wpa2,US,IN,Elkhart Road,,4024,46526
41.61692047,-85.89949799,LiveBetter,0,20240629-00000,2024-06-29T18:00:00.000Z,2024-06-29T12:00:00.000Z,2024-06-29T13:00:00.000Z,00:3E:73:73:B4:F7,,infra,,2,0,?,?,?,False,40,310410 313100 310280,wpa2,US,IN,Elkhart Road,,4024,46526
41.61726379,-85.89984894,LiveBetter,0,20240629-00000,2024-06-29T18:00:00.000Z,2024-06-29T12:00:00.000Z,2024-06-29T13:00:00.000Z,00:3E:73:73:BB:27,,infra,,2,0,?,?,?,False,36,310410 313100 310280,wpa2,US,IN,Elkhart Road,,4024,46526
41.61715698,-85.89956665,LiveBetter,0,20240629-00000,2024-06-29T18:00:00.000Z,2024-06-29T12:00:00.000Z,2024-06-29T13:00:00.000Z,00:3E:73:73:BB:57,,infra,,2,0,?,?,?,False,64,310410 313100 310280,wpa2,US,IN,Elkhart Road,,4024,46526
41.61702347,-85.89970398,LiveBetter,0,20240629-00000,2024-06-29T18:00:00.000Z,2024-06-29T12:00:00.000Z,2024-06-29T13:00:00.000Z,00:3E:73:73:C1:B7,,infra,,2,0,?,?,?,False,60,310410 313100 310280,wpa2,US,IN,Elkhart Road,,4024,46526
41.61751938,-85.89989471,LiveBetter,0,20240629-00000,2024-06-29T18:00:00.000Z,2024-06-29T12:00:00.000Z,2024-06-29T13:00:00.000Z,00:3E:73:73:C4:E7,,infra,,2,0,?,?,?,False,48,310410 313100 310280,wpa2,US,IN,Elkhart Road,,4024,46526
41.61693192,-85.89949799,LiveBetter,0,20240629-00000,2024-06-29T18:00:00.000Z,2024-06-29T12:00:00.000Z,2024-06-29T13:00:00.000Z,00:3E:73:73:C5:D7,,infra,,2,0,?,?,?,False,140,310410 313100 310280,wpa2,US,IN,Elkhart Road,,4024,46526
41.61719894,-85.89977264,LiveBetter,0,20240629-00000,2024-06-29T18:00:00.000Z,2024-06-29T12:00:00.000Z,2024-06-29T13:00:00.000Z,00:3E:73:73:C6:07,,infra,,2,0,?,?,?,False,161,310410 313100 310280,wpa2,US,IN,Elkhart Road,,4024,46526
41.61693573,-85.89950562,LiveBetter,0,20240629-00000,2024-06-29T18:00:00.000Z,2024-06-29T12:00:00.000Z,2024-06-29T13:00:00.000Z,00:3E:73:73:CB:17,,infra,,2,0,?,?,?,False,108,310410 313100 310280,wpa2,US,IN,Elkhart Road,,4024,46526
41.61715698,-85.89956665,LiveBetter,0,20240629-00000,2024-06-29T18:00:00.000Z,2024-06-29T12:00:00.000Z,2024-06-29T13:00:00.000Z,00:3E:73:73:CB:77,,infra,,2,0,?,?,?,False,56,310410 313100 310280,wpa2,US,IN,Elkhart Road,,4024,46526
29.15843201,-82.16572571,LiveBetter,1,20240418-00000,2024-04-18T21:00:00.000Z,2024-04-19T06:00:00.000Z,2024-04-19T06:00:00.000Z,00:3E:73:74:3B:34,,infra,,2,0,?,?,?,False,161,310410 313100 310280,wpa2,US,FL,Southwest 19th Avenue Road,Ocala,2600,34471
41.61726761,-85.90013123,LiveBetter,0,20240629-00000,2024-06-29T18:00:00.000Z,2024-06-29T12:00:00.000Z,2024-06-29T13:00:00.000Z,00:3E:73:74:84:87,,infra,,2,0,?,?,?,False,108,310410 313100 310280,wpa2,US,IN,Elkhart Road,,4024,46526
41.61713409,-85.89978027,LiveBetter,0,20240629-00000,2024-06-29T18:00:00.000Z,2024-06-29T12:00:00.000Z,2024-06-29T13:00:00.000Z,00:3E:73:74:86:F7,,infra,,2,0,?,?,?,False,52,310410 313100 310280,wpa2,US,IN,Elkhart Road,,4024,46526
41.61715317,-85.89950562,LiveBetter,0,20240629-00000,2024-06-29T18:00:00.000Z,2024-06-29T12:00:00.000Z,2024-06-29T13:00:00.000Z,00:3E:73:74:A4:F7,,infra,,2,0,?,?,?,False,136,310410 313100 310280,wpa2,US,IN,Elkhart Road,,4024,46526
41.61722565,-85.90020752,LiveBetter,0,20240629-00000,2024-06-29T18:00:00.000Z,2024-06-29T12:00:00.000Z,2024-06-29T13:00:00.000Z,00:3E:73:74:AA:37,,infra,,2,0,?,?,?,False,100,310410 313100 310280,wpa2,US,IN,Elkhart Road,,4024,46526
41.61726761,-85.90013123,LiveBetter,0,20240629-00000,2024-06-29T18:00:00.000Z,2024-06-29T12:00:00.000Z,2024-06-29T13:00:00.000Z,00:3E:73:74:AB:B7,,infra,,2,0,?,?,?,False,52,310410 313100 310280,wpa2,US,IN,Elkhart Road,,4024,46526
41.61662674,-85.89935303,LiveBetter,0,20240629-00000,2024-06-29T19:00:00.000Z,2024-06-29T12:00:00.000Z,2024-06-29T13:00:00.000Z,00:3E:73:74:B0:07,,infra,,2,0,?,?,?,False,165,310410 313100 310280,wpa2,US,IN,Elkhart Road,,4024,46526
38.43261337,-78.91090393,LiveBetter,1,20240617-00000,2024-06-17T21:00:00.000Z,2024-07-01T12:00:00.000Z,2024-07-01T12:00:00.000Z,00:3E:73:75:0C:A4,,infra,,2,0,?,?,?,False,104,310410 313100 310280,wpa2,US,VA,John Wayland Highway,Harrisonburg,2160,22801
34.78806305,-86.95834351,LiveBetter,0,20240510-00000,2024-05-10T13:00:00.000Z,2024-05-10T09:00:00.000Z,2024-05-10T10:00:00.000Z,00:3E:73:78:8A:D7,,infra,,2,0,?,?,?,False,64,310410 313100 310280,wpa2,US,AL,US Highway 72 East,Athens,1011,35611
39.33680725,-76.49061584,LiveBetter,0,20240213-00000,2024-02-13T11:00:00.000Z,2024-02-13T10:00:00.000Z,2024-02-13T10:00:00.000Z,00:3E:73:78:F4:C7,,infra,,2,0,?,?,?,False,140,310410 313100 310280,wpa2,US,MD,Philadelphia Road,,,21237
34.78808212,-86.95835876,LiveBetter,1,20240510-00000,2024-05-09T16:00:00.000Z,2024-05-10T09:00:00.000Z,2024-05-10T10:00:00.000Z,00:3E:73:79:65:47,,infra,,2,0,?,?,?,False,165,310410 313100 310280,wpa2,US,AL,US Highway 72 East,Athens,1011,35611
34.78810883,-86.95838165,LiveBetter,0,20240510-00000,2024-05-09T16:00:00.000Z,2024-05-10T09:00:00.000Z,2024-05-10T10:00:00.000Z,00:3E:73:79:6F:67,,infra,,2,0,?,?,?,False,157,310410 313100 310280,wpa2,US,AL,US Highway 72 East,Athens,1011,35611
34.78810883,-86.95838165,LiveBetter,0,20240510-00000,2024-05-09T16:00:00.000Z,2024-05-10T09:00:00.000Z,2024-05-10T10:00:00.000Z,00:3E:73:79:7E:37,,infra,,2,0,?,?,?,False,140,310410 313100 310280,wpa2,US,AL,US Highway 72 East,Athens,1011,35611
34.78804398,-86.95832825,LiveBetter,1,20240510-00000,2024-05-09T16:00:00.000Z,2024-05-10T09:00:00.000Z,2024-05-10T10:00:00.000Z,00:3E:73:79:7E:67,,infra,,2,0,?,?,?,False,44,310410 313100 310280,wpa2,US,AL,US Highway 72 East,Athens,1011,35611
34.78810883,-86.95838165,LiveBetter,0,20240510-00000,2024-05-09T16:00:00.000Z,2024-05-10T09:00:00.000Z,2024-05-10T10:00:00.000Z,00:3E:73:79:7E:C7,,infra,,2,0,?,?,?,False,100,310410 313100 310280,wpa2,US,AL,US Highway 72 East,Athens,1011,35611
34.78810883,-86.95838165,LiveBetter,0,20240510-00000,2024-05-09T16:00:00.000Z,2024-05-10T09:00:00.000Z,2024-05-10T10:00:00.000Z,00:3E:73:79:AC:B7,,infra,,2,0,?,?,?,False,165,310410 313100 310280,wpa2,US,AL,US Highway 72 East,Athens,1011,35611
34.78808975,-86.95836639,LiveBetter,1,20240510-00000,2024-05-09T16:00:00.000Z,2024-05-10T09:00:00.000Z,2024-05-10T10:00:00.000Z,00:3E:73:79:AF:57,,infra,,2,0,?,?,?,False,136,310410 313100 310280,wpa2,US,AL,US Highway 72 East,Athens,1011,35611
34.78803635,-86.95832825,LiveBetter,0,20240510-00000,2024-05-10T13:00:00.000Z,2024-05-10T09:00:00.000Z,2024-05-10T10:00:00.000Z,00:3E:73:79:AF:B7,,infra,,2,0,?,?,?,False,149,310410 313100 310280,wpa2,US,AL,US Highway 72 East,Athens,1011,35611
34.78808975,-86.95836639,LiveBetter,1,20240510-00000,2024-05-09T16:00:00.000Z,2024-05-10T09:00:00.000Z,2024-05-10T10:00:00.000Z,00:3E:73:79:B1:37,,infra,,2,0,?,?,?,False,48,310410 313100 310280,wpa2,US,AL,US Highway 72 East,Athens,1011,35611
34.78808975,-86.95836639,LiveBetter,1,20240510-00000,2024-05-09T16:00:00.000Z,2024-05-10T09:00:00.000Z,2024-05-10T10:00:00.000Z,00:3E:73:79:B1:C7,,infra,,2,0,?,?,?,False,40,310410 313100 310280,wpa2,US,AL,US Highway 72 East,Athens,1011,35611
34.7881012,-86.95837402,LiveBetter,1,20240510-00000,2024-05-09T16:00:00.000Z,2024-05-10T09:00:00.000Z,2024-05-10T10:00:00.000Z,00:3E:73:79:B1:F7,,infra,,2,0,?,?,?,False,108,310410 313100 310280,wpa2,US,AL,US Highway 72 East,Athens,1011,35611
34.78808975,-86.95836639,LiveBetter,0,20240510-00000,2024-05-09T16:00:00.000Z,2024-05-10T09:00:00.000Z,2024-05-10T10:00:00.000Z,00:3E:73:79:B2:87,,infra,,2,0,?,?,?,False,165,310410 313100 310280,wpa2,US,AL,US Highway 72 East,Athens,1011,35611
34.78810883,-86.95838165,LiveBetter,0,20240510-00000,2024-05-09T16:00:00.000Z,2024-05-10T09:00:00.000Z,2024-05-10T10:00:00.000Z,00:3E:73:79:B2:B7,,infra,,2,0,?,?,?,False,153,310410 313100 310280,wpa2,US,AL,US Highway 72 East,Athens,1011,35611
34.78807449,-86.95835876,LiveBetter,1,20240510-00000,2024-05-09T16:00:00.000Z,2024-05-10T09:00:00.000Z,2024-05-10T10:00:00.000Z,00:3E:73:79:B3:47,,infra,,2,0,?,?,?,False,104,310410 313100 310280,wpa2,US,AL,US Highway 72 East,Athens,1011,35611
34.78807831,-86.95835876,LiveBetter,1,20240510-00000,2024-05-09T16:00:00.000Z,2024-05-10T09:00:00.000Z,2024-05-10T10:00:00.000Z,00:3E:73:79:B3:A7,,infra,,2,0,?,?,?,False,44,310410 313100 310280,wpa2,US,AL,US Highway 72 East,Athens,1011,35611
34.7881012,-86.95837402,LiveBetter,1,20240510-00000,2024-05-09T16:00:00.000Z,2024-05-10T09:00:00.000Z,2024-05-10T10:00:00.000Z,00:3E:73:79:B4:07,,infra,,2,0,?,?,?,False,64,310410 313100 310280,wpa2,US,AL,US Highway 72 East,Athens,1011,35611
32.86361694,-83.61117554,LiveBetter,0,20240601-00000,2024-06-01T16:00:00.000Z,2024-06-01T10:00:00.000Z,2024-06-01T11:00:00.000Z,00:3E:73:7C:43:E7,,infra,,2,0,?,?,?,False,44,310410 313100 310280,wpa2,US,GA,Gray Highway,Macon,1401,31211
32.8634758,-83.61125183,LiveBetter,0,20240601-00000,2024-06-01T16:00:00.000Z,2024-06-01T10:00:00.000Z,2024-06-01T11:00:00.000Z,00:3E:73:7C:F4:57,,infra,,2,0,?,?,?,False,136,310410 313100 310280,wpa2,US,GA,Gray Highway,Macon,1401,31211
32.86355972,-83.6112442,LiveBetter,0,20240601-00000,2024-06-01T16:00:00.000Z,2024-06-01T10:00:00.000Z,2024-06-01T11:00:00.000Z,00:3E:73:7D:0B:F7,,infra,,2,0,?,?,?,False,52,310410 313100 310280,wpa2,US,GA,Gray Highway,Macon,1401,31211
32.86339188,-83.61126709,LiveBetter,0,20240601-00000,2024-06-01T16:00:00.000Z,2024-06-01T10:00:00.000Z,2024-06-01T11:00:00.000Z,00:3E:73:7D:0C:87,,infra,,2,0,?,?,?,False,36,310410 313100 310280,wpa2,US,GA,Gray Highway,Macon,1401,31211
32.86356354,-83.61122131,LiveBetter,0,20240601-00000,2024-06-01T16:00:00.000Z,2024-06-01T10:00:00.000Z,2024-06-01T11:00:00.000Z,00:3E:73:7D:0C:B7,,infra,,2,0,?,?,?,False,161,310410 313100 310280,wpa2,US,GA,Gray Highway,Macon,1401,31211
32.86349106,-83.61125946,LiveBetter,0,20240601-00000,2024-06-01T16:00:00.000Z,2024-06-01T10:00:00.000Z,2024-06-01T11:00:00.000Z,00:3E:73:7D:21:E7,,infra,,2,0,?,?,?,False,36,310410 313100 310280,wpa2,US,GA,Gray Highway,Macon,1401,31211
32.86363983,-83.61117554,LiveBetter,0,20240601-00000,2024-06-01T16:00:00.000Z,2024-06-01T10:00:00.000Z,2024-06-01T11:00:00.000Z,00:3E:73:7D:27:87,,infra,,2,0,?,?,?,False,104,310410 313100 310280,wpa2,US,GA,,Macon,,31211
32.86355591,-83.61122894,LiveBetter,0,20240601-00000,2024-06-01T16:00:00.000Z,2024-06-01T10:00:00.000Z,2024-06-01T11:00:00.000Z,00:3E:73:7D:28:D7,,infra,,2,0,?,?,?,False,64,310410 313100 310280,wpa2,US,GA,Gray Highway,Macon,1401,31211
32.86351776,-83.61122894,LiveBetter,0,20240601-00000,2024-06-01T16:00:00.000Z,2024-06-01T10:00:00.000Z,2024-06-01T11:00:00.000Z,00:3E:73:7D:2A:E7,,infra,,2,0,?,?,?,False,157,310410 313100 310280,wpa2,US,GA,Gray Highway,Macon,1401,31211
32.86353302,-83.61122894,LiveBetter,0,20240601-00000,2024-06-01T16:00:00.000Z,2024-06-01T10:00:00.000Z,2024-06-01T11:00:00.000Z,00:3E:73:7D:2B:17,,infra,,2,0,?,?,?,False,149,310410 313100 310280,wpa2,US,GA,Gray Highway,Macon,1401,31211
32.86363602,-83.61117554,LiveBetter,0,20240601-00000,2024-06-01T16:00:00.000Z,2024-06-01T10:00:00.000Z,2024-06-01T11:00:00.000Z,00:3E:73:7D:30:27,,infra,,2,0,?,?,?,False,104,310410 313100 310280,wpa2,US,GA,,Macon,,31211
39.28633499,-76.49720001,LiveBetter,0,20240405-00000,2024-04-05T21:00:00.000Z,2024-04-05T17:00:00.000Z,2024-04-05T19:00:00.000Z,00:3E:73:7E:60:17,,infra,,2,0,?,?,?,False,161,310410 313100 310280,wpa2,US,MD,North Point Boulevard,Dundalk,2399,21222
39.4008522,-79.01198578,LiveBetter,0,20240705-00000,2024-06-17T17:00:00.000Z,2024-07-05T11:00:00.000Z,2024-07-05T12:00:00.000Z,00:3E:73:7E:67:07,,infra,,2,0,?,?,?,False,136,310410 313100 310280,wpa2,US,WV,Trenum Drive,,,26726
39.28642654,-76.49700928,LiveBetter,2,20240405-00000,2024-04-05T21:00:00.000Z,2024-04-13T16:00:00.000Z,2024-04-13T21:00:00.000Z,00:3E:73:7E:6C:17,,infra,,2,0,?,?,?,False,100,310410 313100 310280,wpa2,US,MD,Baltimore Beltway,Dundalk,,21222-2140
39.28633499,-76.49720001,LiveBetter,0,20240405-00000,2024-04-05T21:00:00.000Z,2024-04-05T17:00:00.000Z,2024-04-05T19:00:00.000Z,00:3E:73:7E:6D:97,,infra,,2,0,?,?,?,False,40,310410 313100 310280,wpa2,US,MD,North Point Boulevard,Dundalk,2399,21222
39.2863884,-76.49736786,LiveBetter,2,20240202-00000,2024-02-03T00:00:00.000Z,2024-04-05T17:00:00.000Z,2024-04-05T19:00:00.000Z,00:3E:73:7E:C9:D7,,infra,,2,0,?,?,?,False,149,310410 313100 310280,wpa2,US,MD,North Point Boulevard,Dundalk,2399,21222
32.61911392,-83.67345428,LiveBetter,1,20240415-00000,2024-04-15T22:00:00.000Z,2024-05-24T21:00:00.000Z,2024-05-24T22:00:00.000Z,00:3E:73:85:4B:F6,,infra,,2,0,?,?,?,False,165,310410 313100 310280,wpa2,US,GA,Watson Boulevard,Warner Robins,,31028:31088
32.62062073,-83.67458344,LiveBetter,0,20240524-00000,2024-05-24T16:00:00.000Z,2024-05-24T21:00:00.000Z,2024-05-24T22:00:00.000Z,00:3E:73:85:92:A6,,infra,,2,0,?,?,?,False,40,310410 313100 310280,wpa2,US,GA,Watson Boulevard,Warner Robins,2720,31093
32.04200745,-81.00391388,LiveBetter,0,20240320-00000,2024-03-20T23:00:00.000Z,2024-03-20T17:00:00.000Z,2024-03-20T18:00:00.000Z,00:3E:73:87:8C:27,,infra,,2,0,?,?,?,False,100,310410 313100 310280,wpa2,US,GA,Old Penrose Road,Savannah,4725,31410
0.0,0.0,LiveBetter,0,20240320-00000,2001-01-01T00:00:00.000Z,2001-01-01T00:00:00.000Z,2024-03-20T18:00:00.000Z,00:3E:73:87:8E:07,,infra,,2,0,?,?,?,False,108,310410 313100 310280,wpa2,,,,,,
40.23048401,-74.8822937,wegmans_passpoint,2,20240615-00000,2024-06-15T22:00:00.000Z,2024-07-01T17:00:00.000Z,2024-07-01T17:00:00.000Z,00:3E:73:90:FF:D4,,infra,,2,0,?,?,?,False,153,f4f5e8f5f4 310410 313100,wpa2,US,PA,I 295,Lower Makefield Township,,
38.74292755,-77.08776855,LiveBetter,0,20240601-00000,2024-06-01T21:00:00.000Z,2024-06-01T14:00:00.000Z,2024-06-01T15:00:00.000Z,00:3E:73:92:F3:57,,infra,,2,0,?,?,?,False,36,310410 313100 310280,wpa2,US,VA,Richmond Highway,Alexandria,7940,22306
38.78015518,-77.0766983,LiveBetter,0,20240701-00000,2024-02-12T18:00:00.000Z,2024-07-01T01:00:00.000Z,2024-07-01T01:00:00.000Z,00:3E:73:A3:3A:E7,,infra,,2,0,?,?,?,False,52,310410 313100 310280,wpa2,US,VA,Richmond Highway,Alexandria,6303,22306
38.78019714,-77.07673645,LiveBetter,0,20240701-00000,2024-02-12T18:00:00.000Z,2024-07-01T01:00:00.000Z,2024-07-01T02:00:00.000Z,00:3E:73:A3:3F:F7,,infra,,2,0,?,?,?,False,40,310410 313100 310280,wpa2,US,VA,Richmond Highway,Alexandria,6303,22306
38.7802124,-77.07701111,LiveBetter,0,20240701-00000,2024-02-12T18:00:00.000Z,2024-07-01T01:00:00.000Z,2024-07-01T02:00:00.000Z,00:3E:73:A3:42:67,,infra,,2,0,?,?,?,False,140,310410 313100 310280,wpa2,US,VA,Richmond Highway,Alexandria,6303,22306
38.78011322,-77.0769577,LiveBetter,0,20240701-00000,2024-02-12T18:00:00.000Z,2024-07-01T01:00:00.000Z,2024-07-01T02:00:00.000Z,00:3E:73:A3:51:07,,infra,,2,0,?,?,?,False,149,310410 313100 310280,wpa2,US,VA,Richmond Highway,Alexandria,6303,22306
31.98033905,-81.17303467,LiveBetter,7,20240318-00000,2024-03-11T17:00:00.000Z,2024-07-13T13:00:00.000Z,2024-07-13T14:00:00.000Z,00:3E:73:BC:A0:47,,infra,,2,0,?,?,?,False,104,310410 313100 310280,wpa2,US,GA,Abercorn Street,Savannah,14030,31419
27.89194107,-81.55327606,LiveBetter,5,20240201-00000,2024-02-01T17:00:00.000Z,2024-07-15T19:00:00.000Z,2024-07-15T21:00:00.000Z,00:3E:73:BC:A4:C7,,infra,,2,0,?,?,?,False,100,310410 313100 310280,wpa2,US,FL,Tangelo Street,,2000,33898
27.89191818,-81.55317688,LiveBetter,5,20240201-00000,2024-02-01T17:00:00.000Z,2024-07-15T19:00:00.000Z,2024-07-15T21:00:00.000Z,00:3E:73:BC:A8:B7,,infra,,2,0,?,?,?,False,153,310410 313100 310280,wpa2,US,FL,Tangelo Street,,2000,33898
27.8918457,-81.55331421,LiveBetter,5,20240201-00000,2024-02-01T17:00:00.000Z,2024-04-13T14:00:00.000Z,2024-04-13T15:00:00.000Z,00:3E:73:BC:AA:C7,,infra,,2,0,?,?,?,False,44,310410 313100 310280,wpa2,US,FL,Tangelo Street,,2000,33898
27.89194489,-81.55304718,LiveBetter,5,20240201-00000,2024-02-01T17:00:00.000Z,2024-07-15T19:00:00.000Z,2024-07-15T21:00:00.000Z,00:3E:73:BC:AF:D7,,infra,,2,0,?,?,?,False,157,310410 313100 310280,wpa2,US,FL,Tangelo Street,,2000,33898
31.98069,-81.17388916,LiveBetter,2,20240318-00000,2024-03-11T17:00:00.000Z,2024-04-05T20:00:00.000Z,2024-04-06T00:00:00.000Z,00:3E:73:BC:B3:C7,,infra,,2,0,?,?,?,False,40,310410 313100 310280,wpa2,US,GA,Abercorn Street,Savannah,14030,31419
31.98083496,-81.17363739,LiveBetter,0,20240405-00000,2024-04-06T00:00:00.000Z,2024-04-05T20:00:00.000Z,2024-04-06T00:00:00.000Z,00:3E:73:BC:B6:F7,,infra,,2,0,?,?,?,False,157,310410 313100 310280,wpa2,US,GA,Abercorn Street,Savannah,14030,31419
27.89198112,-81.55307007,LiveBetter,5,20240201-00000,2024-02-01T17:00:00.000Z,2024-07-15T19:00:00.000Z,2024-07-15T21:00:00.000Z,00:3E:73:BC:BF:97,,infra,,2,0,?,?,?,False,44,310410 313100 310280,wpa2,US,FL,Tangelo Street,,2000,33898
27.89193153,-81.5531311,LiveBetter,5,20240201-00000,2024-02-01T17:00:00.000Z,2024-07-15T19:00:00.000Z,2024-07-15T21:00:00.000Z,00:3E:73:BC:BF:F7,,infra,,2,0,?,?,?,False,48,310410 313100 310280,wpa2,US,FL,Tangelo Street,,2000,33898
27.89188194,-81.55278778,LiveBetter,5,20240202-00000,2024-02-02T18:00:00.000Z,2024-07-09T21:00:00.000Z,2024-07-09T23:00:00.000Z,00:3E:73:BC:C1:A7,,infra,,2,0,?,?,?,False,136,310410 313100 310280,wpa2,US,FL,Tangelo Street,,2000,33898
31.98088074,-81.17369843,LiveBetter,0,20240405-00000,2024-04-06T00:00:00.000Z,2024-04-05T20:00:00.000Z,2024-04-06T00:00:00.000Z,00:3E:73:BC:C7:77,,infra,,2,0,?,?,?,False,44,310410 313100 310280,wpa2,US,GA,Abercorn Street,Savannah,14030,31419
31.98138237,-81.17277527,LiveBetter,1,20240701-00000,2024-07-01T22:00:00.000Z,2024-07-14T18:00:00.000Z,2024-07-14T18:00:00.000Z,00:3E:73:BC:CB:F7,,infra,,2,0,?,?,?,False,36,310410 313100 310280,wpa2,US,GA,Abercorn Street,Savannah,14030,31419
35.16044617,-79.4221344,LiveBetter,0,20240523-00000,2024-05-19T13:00:00.000Z,2024-05-23T13:00:00.000Z,2024-05-23T13:00:00.000Z,00:3E:73:BD:7C:C7,,infra,,2,0,?,?,?,False,36,310410 313100 310280,wpa2,US,NC,Turner Street,,,28387
25.78690338,-80.33464813,LiveBetter,0,20240720-00000,2024-07-20T20:00:00.000Z,2024-07-20T15:00:00.000Z,2024-07-21T01:00:00.000Z,00:3E:73:BE:EF:47,,infra,,2,0,?,?,?,False,136,310410 313100 310280,wpa2,US,FL,Northwest 13th Terrace,,8651,33126
25.78659821,-80.33477783,LiveBetter,0,20240720-00000,2024-07-20T20:00:00.000Z,2024-07-20T15:00:00.000Z,2024-07-21T01:00:00.000Z,00:3E:73:BF:34:47,,infra,,2,0,?,?,?,False,44,310410 313100 310280,wpa2,US,FL,Northwest 13th Terrace,,8651,33126
27.89180946,-81.55325317,LiveBetter,5,20240201-00000,2024-02-01T17:00:00.000Z,2024-07-15T19:00:00.000Z,2024-07-15T21:00:00.000Z,00:3E:73:BF:66:57,,infra,,2,0,?,?,?,False,165,310410 313100 310280,wpa2,US,FL,Tangelo Street,,2000,33898
27.89179611,-81.5533371,LiveBetter,5,20240201-00000,2024-02-01T17:00:00.000Z,2024-07-15T19:00:00.000Z,2024-07-15T21:00:00.000Z,00:3E:73:BF:6B:97,,infra,,2,0,?,?,?,False,100,310410 313100 310280,wpa2,US,FL,Tangelo Street,,2000,33898
27.89185524,-81.55316925,LiveBetter,5,20240201-00000,2024-02-01T17:00:00.000Z,2024-07-15T19:00:00.000Z,2024-07-15T21:00:00.000Z,00:3E:73:BF:6B:C7,,infra,,2,0,?,?,?,False,108,310410 313100 310280,wpa2,US,FL,Tangelo Street,,2000,33898
27.89179802,-81.55323029,LiveBetter,5,20240201-00000,2024-02-01T17:00:00.000Z,2024-07-15T19:00:00.000Z,2024-07-15T21:00:00.000Z,00:3E:73:BF:70:A7,,infra,,2,0,?,?,?,False,157,310410 313100 310280,wpa2,US,FL,Tangelo Street,,2000,33898
27.89179802,-81.55322266,LiveBetter,5,20240201-00000,2024-02-01T17:00:00.000Z,2024-07-15T19:00:00.000Z,2024-07-15T21:00:00.000Z,00:3E:73:BF:71:97,,infra,,2,0,?,?,?,False,64,310410 313100 310280,wpa2,US,FL,Tangelo Street,,2000,33898
27.89174843,-81.55335999,LiveBetter,5,20240202-00000,2024-02-02T22:00:00.000Z,2024-07-15T19:00:00.000Z,2024-07-15T21:00:00.000Z,00:3E:73:BF:73:17,,infra,,2,0,?,?,?,False,149,310410 313100 310280,wpa2,US,FL,Tangelo Street,,2000,33898
27.89183426,-81.55352783,LiveBetter,5,20240201-00000,2024-02-01T17:00:00.000Z,2024-05-23T10:00:00.000Z,2024-05-23T10:00:00.000Z,00:3E:73:BF:76:17,,infra,,2,0,?,?,?,False,64,310410 313100 310280,wpa2,US,FL,Tangelo Street,,2000,33898
27.89177513,-81.55325317,LiveBetter,5,20240201-00000,2024-02-01T17:00:00.000Z,2024-07-15T19:00:00.000Z,2024-07-15T21:00:00.000Z,00:3E:73:BF:7B:27,,infra,,2,0,?,?,?,False,140,310410 313100 310280,wpa2,US,FL,Tangelo Street,,2000,33898
27.89182281,-81.5533371,LiveBetter,5,20240201-00000,2024-02-01T17:00:00.000Z,2024-07-15T19:00:00.000Z,2024-07-15T21:00:00.000Z,00:3E:73:BF:7B:B7,,infra,,2,0,?,?,?,False,48,310410 313100 310280,wpa2,US,FL,Tangelo Street,,2000,33898
27.89187431,-81.55338287,LiveBetter,5,20240201-00000,2024-02-01T17:00:00.000Z,2024-07-15T19:00:00.000Z,2024-07-15T21:00:00.000Z,00:3E:73:BF:7C:47,,infra,,2,0,?,?,?,False,140,310410 313100 310280,wpa2,US,FL,Tangelo Street,,2000,33898
27.89190102,-81.55324554,LiveBetter,5,20240201-00000,2024-02-01T17:00:00.000Z,2024-07-15T19:00:00.000Z,2024-07-15T21:00:00.000Z,00:3E:73:BF:7D:07,,infra,,2,0,?,?,?,False,44,310410 313100 310280,wpa2,US,FL,Tangelo Street,,2000,33898
27.89201546,-81.55312347,LiveBetter,5,20240201-00000,2024-02-01T17:00:00.000Z,2024-07-15T19:00:00.000Z,2024-07-15T21:00:00.000Z,00:3E:73:BF:7F:47,,infra,,2,0,?,?,?,False,40,310410 313100 310280,wpa2,US,FL,Tangelo Street,,2000,33898
27.89176178,-81.5533371,LiveBetter,5,20240201-00000,2024-02-01T17:00:00.000Z,2024-07-15T19:00:00.000Z,2024-07-15T21:00:00.000Z,00:3E:73:BF:81:B7,,infra,,2,0,?,?,?,False,157,310410 313100 310280,wpa2,US,FL,Tangelo Street,,2000,33898
27.89219666,-81.55373383,LiveBetter,5,20240201-00000,2024-02-01T17:00:00.000Z,2024-07-15T19:00:00.000Z,2024-07-15T21:00:00.000Z,00:3E:73:BF:82:A7,,infra,,2,0,?,?,?,False,36,310410 313100 310280,wpa2,US,FL,Tangelo Street,,2000,33898
27.89177132,-81.5533905,LiveBetter,5,20240201-00000,2024-02-01T17:00:00.000Z,2024-07-15T19:00:00.000Z,2024-07-15T21:00:00.000Z,00:3E:73:BF:83:97,,infra,,2,0,?,?,?,False,161,310410 313100 310280,wpa2,US,FL,Tangelo Street,,2000,33898
27.89175797,-81.55329132,LiveBetter,5,20240201-00000,2024-02-01T17:00:00.000Z,2024-07-15T19:00:00.000Z,2024-07-15T21:00:00.000Z,00:3E:73:BF:85:17,,infra,,2,0,?,?,?,False,52,310410 313100 310280,wpa2,US,FL,Tangelo Street,,2000,33898
27.89209366,-81.55335236,LiveBetter,5,20240201-00000,2024-02-01T17:00:00.000Z,2024-07-15T19:00:00.000Z,2024-07-15T21:00:00.000Z,00:3E:73:BF:86:97,,infra,,2,0,?,?,?,False,153,310410 313100 310280,wpa2,US,FL,Tangelo Street,,2000,33898
25.78643799,-80.33474731,LiveBetter,0,20240720-00000,2024-07-20T20:00:00.000Z,2024-07-20T15:00:00.000Z,2024-07-21T01:00:00.000Z,00:3E:73:BF:BD:27,,infra,,2,0,?,?,?,False,100,310410 313100 310280,wpa2,US,FL,Northwest 13th Terrace,,8651,33126
34.12653732,-81.21925354,LiveBetter,0,20240227-00000,2024-02-27T18:00:00.000Z,2024-02-27T10:00:00.000Z,2024-02-27T10:00:00.000Z,00:3E:73:BF:CB:F7,,infra,,2,0,?,?,?,False,104,310410 313100 310280,wpa2,US,SC,Shady Grove Road,,,29002
31.98092651,-81.17377472,LiveBetter,0,20240405-00000,2024-04-06T00:00:00.000Z,2024-04-05T20:00:00.000Z,2024-04-06T00:00:00.000Z,00:3E:73:C0:65:57,,infra,,2,0,?,?,?,False,60,310410 313100 310280,wpa2,US,GA,Abercorn Street,Savannah,14030,31419
31.9807682,-81.1736145,LiveBetter,0,20240405-00000,2024-04-06T00:00:00.000Z,2024-04-05T20:00:00.000Z,2024-04-06T00:00:00.000Z,00:3E:73:C0:6C:A7,,infra,,2,0,?,?,?,False,136,310410 313100 310280,wpa2,US,GA,Abercorn Street,Savannah,14030,31419
31.98090553,-81.1738739,LiveBetter,0,20240405-00000,2024-04-06T00:00:00.000Z,2024-04-05T20:00:00.000Z,2024-04-06T00:00:00.000Z,00:3E:73:C0:7B:D7,,infra,,2,0,?,?,?,False,161,310410 313100 310280,wpa2,US,GA,Abercorn Street,Savannah,14030,31419
31.98096848,-81.17376709,LiveBetter,0,20240405-00000,2024-04-06T00:00:00.000Z,2024-04-05T20:00:00.000Z,2024-04-06T00:00:00.000Z,00:3E:73:C0:8B:07,,infra,,2,0,?,?,?,False,48,310410 313100 310280,wpa2,US,GA,Abercorn Street,Savannah,14030,31419
31.98098755,-81.17372894,LiveBetter,0,20240405-00000,2024-04-06T00:00:00.000Z,2024-04-05T20:00:00.000Z,2024-04-06T00:00:00.000Z,00:3E:73:C0:8E:67,,infra,,2,0,?,?,?,False,52,310410 313100 310280,wpa2,US,GA,Abercorn Street,Savannah,14030,31419
31.9809494,-81.17392731,LiveBetter,0,20240405-00000,2024-04-06T00:00:00.000Z,2024-04-05T20:00:00.000Z,2024-04-06T00:00:00.000Z,00:3E:73:C0:96:47,,infra,,2,0,?,?,?,False,100,310410 313100 310280,wpa2,US,GA,Abercorn Street,Savannah,14030,31419
31.98093605,-81.17393494,LiveBetter,0,20240405-00000,2024-04-06T00:00:00.000Z,2024-04-05T20:00:00.000Z,2024-04-06T00:00:00.000Z,00:3E:73:C0:99:17,,infra,,2,0,?,?,?,False,136,310410 313100 310280,wpa2,US,GA,Abercorn Street,Savannah,14030,31419
31.98098373,-81.1736908,LiveBetter,0,20240405-00000,2024-04-06T00:00:00.000Z,2024-04-05T20:00:00.000Z,2024-04-06T00:00:00.000Z,00:3E:73:C0:99:47,,infra,,2,0,?,?,?,False,136,310410 313100 310280,wpa2,US,GA,Abercorn Street,Savannah,14030,31419
31.98056412,-81.17375946,LiveBetter,2,20240318-00000,2024-03-11T17:00:00.000Z,2024-04-05T20:00:00.000Z,2024-04-06T00:00:00.000Z,00:3E:73:C0:9A:97,,infra,,2,0,?,?,?,False,165,310410 313100 310280,wpa2,US,GA,Abercorn Street,Savannah,14030,31419
31.98098373,-81.17395782,LiveBetter,0,20240405-00000,2024-04-06T00:00:00.000Z,2024-04-05T20:00:00.000Z,2024-04-06T00:00:00.000Z,00:3E:73:C0:9A:F7,,infra,,2,0,?,?,?,False,36,310410 313100 310280,wpa2,US,GA,Abercorn Street,Savannah,14030,31419
31.98075485,-81.17388916,LiveBetter,0,20240405-00000,2024-04-06T00:00:00.000Z,2024-04-05T20:00:00.000Z,2024-04-06T00:00:00.000Z,00:3E:73:C0:9B:E7,,infra,,2,0,?,?,?,False,108,310410 313100 310280,wpa2,US,GA,Abercorn Street,Savannah,14030,31419
31.98108292,-81.1734848,LiveBetter,1,20240405-00000,2024-04-06T00:00:00.000Z,2024-07-14T18:00:00.000Z,2024-07-14T18:00:00.000Z,00:3E:73:C0:9C:17,,infra,,2,0,?,?,?,False,161,310410 313100 310280,wpa2,US,GA,Abercorn Street,Savannah,14030,31419
31.98100281,-81.1736908,LiveBetter,1,20240405-00000,2024-04-06T00:00:00.000Z,2024-07-14T18:00:00.000Z,2024-07-14T18:00:00.000Z,00:3E:73:C0:9D:97,,infra,,2,0,?,?,?,False,157,310410 313100 310280,wpa2,US,GA,Abercorn Street,Savannah,14030,31419
31.98099136,-81.17371368,LiveBetter,0,20240405-00000,2024-04-06T00:00:00.000Z,2024-04-05T20:00:00.000Z,2024-04-06T00:00:00.000Z,00:3E:73:C0:9E:87,,infra,,2,0,?,?,?,False,153,310410 313100 310280,wpa2,US,GA,Abercorn Street,Savannah,14030,31419
31.98065567,-81.17353821,LiveBetter,0,20240405-00000,2024-04-06T00:00:00.000Z,2024-04-05T20:00:00.000Z,2024-04-06T00:00:00.000Z,00:3E:73:C0:A0:37,,infra,,2,0,?,?,?,False,104,310410 313100 310280,wpa2,US,GA,Abercorn Street,Savannah,14030,31419
31.98097038,-81.17353058,LiveBetter,0,20240405-00000,2024-04-06T00:00:00.000Z,2024-04-05T20:00:00.000Z,2024-04-06T00:00:00.000Z,00:3E:73:C0:A1:57,,infra,,2,0,?,?,?,False,64,310410 313100 310280,wpa2,US,GA,Abercorn Street,Savannah,14030,31419
31.98136711,-81.17269897,LiveBetter,1,20240701-00000,2024-07-01T22:00:00.000Z,2024-07-14T18:00:00.000Z,2024-07-14T18:00:00.000Z,00:3E:73:C0:A1:E7,,infra,,2,0,?,?,?,False,104,310410 313100 310280,wpa2,US,GA,Abercorn Street,Savannah,14030,31419
31.98104668,-81.17341614,LiveBetter,1,20240405-00000,2024-04-06T00:00:00.000Z,2024-07-14T18:00:00.000Z,2024-07-14T18:00:00.000Z,00:3E:73:C0:A2:A7,,infra,,2,0,?,?,?,False,60,310410 313100 310280,wpa2,US,GA,Abercorn Street,Savannah,14030,31419
25.78697586,-80.33482361,LiveBetter,0,20240720-00000,2024-07-20T20:00:00.000Z,2024-07-20T15:00:00.000Z,2024-07-21T01:00:00.000Z,00:3E:73:C3:62:27,,infra,,2,0,?,?,?,False,52,310410 313100 310280,wpa2,US,FL,Northwest 13th Terrace,,8651,33126
25.7868557,-80.33482361,LiveBetter,0,20240720-00000,2024-07-20T21:00:00.000Z,2024-07-20T15:00:00.000Z,2024-07-21T01:00:00.000Z,00:3E:73:C3:BB:37,,infra,,2,0,?,?,?,False,104,310410 313100 310280,wpa2,US,FL,Northwest 13th Terrace,,8651,33126
0.0,0.0,LiveBetter,0,20240720-00000,2001-01-01T00:00:00.000Z,2001-01-01T00:00:00.000Z,2024-07-21T01:00:00.000Z,00:3E:73:C3:C3:A7,,infra,,2,0,?,?,?,False,153,310410 313100 310280,wpa2,,,,,,
25.78686523,-80.33470917,LiveBetter,0,20240720-00000,2024-07-20T20:00:00.000Z,2024-07-20T15:00:00.000Z,2024-07-21T01:00:00.000Z,00:3E:73:C3:C8:27,,infra,,2,0,?,?,?,False,64,310410 313100 310280,wpa2,US,FL,Northwest 13th Terrace,,8651,33126
25.78650856,-80.33482361,LiveBetter,0,20240720-00000,2024-07-20T20:00:00.000Z,2024-07-20T15:00:00.000Z,2024-07-21T01:00:00.000Z,00:3E:73:C3:CB:E7,,infra,,2,0,?,?,?,False,140,310410 313100 310280,wpa2,US,FL,Northwest 13th Terrace,,8651,33126
25.7868557,-80.33483124,LiveBetter,0,20240720-00000,2024-07-20T20:00:00.000Z,2024-07-20T15:00:00.000Z,2024-07-21T01:00:00.000Z,00:3E:73:C3:D2:77,,infra,,2,0,?,?,?,False,157,310410 313100 310280,wpa2,US,FL,Northwest 13th Terrace,,8651,33126
25.78664398,-80.33482361,LiveBetter,0,20240720-00000,2024-07-20T20:00:00.000Z,2024-07-20T15:00:00.000Z,2024-07-21T01:00:00.000Z,00:3E:73:C3:D6:C7,,infra,,2,0,?,?,?,False,48,310410 313100 310280,wpa2,US,FL,Northwest 13th Terrace,,8651,33126
25.78667068,-80.3347168,LiveBetter,0,20240720-00000,2024-07-20T20:00:00.000Z,2024-07-20T15:00:00.000Z,2024-07-21T01:00:00.000Z,00:3E:73:C3:D6:F7,,infra,,2,0,?,?,?,False,165,310410 313100 310280,wpa2,US,FL,Northwest 13th Terrace,,8651,33126
25.78659248,-80.33474731,LiveBetter,0,20240720-00000,2024-07-20T20:00:00.000Z,2024-07-20T15:00:00.000Z,2024-07-21T01:00:00.000Z,00:3E:73:C3:D7:27,,infra,,2,0,?,?,?,False,153,310410 313100 310280,wpa2,US,FL,Northwest 13th Terrace,,8651,33126
25.78687286,-80.33480835,LiveBetter,0,20240720-00000,2024-07-20T20:00:00.000Z,2024-07-20T15:00:00.000Z,2024-07-21T01:00:00.000Z,00:3E:73:C3:D8:A7,,infra,,2,0,?,?,?,False,161,310410 313100 310280,wpa2,US,FL,Northwest 13th Terrace,,8651,33126
25.78666115,-80.33478546,LiveBetter,0,20240720-00000,2024-07-20T20:00:00.000Z,2024-07-20T15:00:00.000Z,2024-07-21T01:00:00.000Z,00:3E:73:C3:D9:F7,,infra,,2,0,?,?,?,False,56,310410 313100 310280,wpa2,US,FL,Northwest 13th Terrace,,8651,33126
25.78655434,-80.33477783,LiveBetter,0,20240720-00000,2024-07-20T20:00:00.000Z,2024-07-20T15:00:00.000Z,2024-07-21T01:00:00.000Z,00:3E:73:C3:DA:27,,infra,,2,0,?,?,?,False,108,310410 313100 310280,wpa2,US,FL,Northwest 13th Terrace,,8651,33126
25.7870369,-80.33476257,LiveBetter,0,20240720-00000,2024-07-20T20:00:00.000Z,2024-07-20T15:00:00.000Z,2024-07-21T01:00:00.000Z,00:3E:73:C3:DA:B7,,infra,,2,0,?,?,?,False,56,310410 313100 310280,wpa2,US,FL,Northwest 13th Terrace,,8651,33126
25.78699493,-80.33463287,LiveBetter,0,20240720-00000,2024-07-20T20:00:00.000Z,2024-07-20T15:00:00.000Z,2024-07-21T01:00:00.000Z,00:3E:73:C3:DA:E7,,infra,,2,0,?,?,?,False,64,310410 313100 310280,wpa2,US,FL,Northwest 13th Terrace,,8651,33126
25.78655052,-80.33477783,LiveBetter,0,20240720-00000,2024-07-20T20:00:00.000Z,2024-07-20T15:00:00.000Z,2024-07-21T01:00:00.000Z,00:3E:73:C3:DC:67,,infra,,2,0,?,?,?,False,60,310410 313100 310280,wpa2,US,FL,Northwest 13th Terrace,,8651,33126
25.78719711,-80.33473206,LiveBetter,0,20240720-00000,2024-07-20T20:00:00.000Z,2024-07-20T15:00:00.000Z,2024-07-21T01:00:00.000Z,00:3E:73:C3:DC:C7,,infra,,2,0,?,?,?,False,153,310410 313100 310280,wpa2,US,FL,Northwest 13th Terrace,,8651,33126
25.78688049,-80.33481598,LiveBetter,0,20240720-00000,2024-07-20T20:00:00.000Z,2024-07-20T15:00:00.000Z,2024-07-21T01:00:00.000Z,00:3E:73:C3:DD:27,,infra,,2,0,?,?,?,False,165,310410 313100 310280,wpa2,US,FL,Northwest 13th Terrace,,8651,33126
25.78668404,-80.33473206,LiveBetter,0,20240720-00000,2024-07-20T20:00:00.000Z,2024-07-20T15:00:00.000Z,2024-07-21T01:00:00.000Z,00:3E:73:C3:DE:47,,infra,,2,0,?,?,?,False,140,310410 313100 310280,wpa2,US,FL,Northwest 13th Terrace,,8651,33126
25.78646469,-80.33551025,LiveBetter,0,20240720-00000,2024-07-20T20:00:00.000Z,2024-07-20T15:00:00.000Z,2024-07-21T01:00:00.000Z,00:3E:73:C3:DE:77,,infra,,2,0,?,?,?,False,44,310410 313100 310280,wpa2,US,FL,Northwest 13th Terrace,,8651,33126
25.78649902,-80.33481598,LiveBetter,0,20240720-00000,2024-07-20T20:00:00.000Z,2024-07-20T15:00:00.000Z,2024-07-21T01:00:00.000Z,00:3E:73:C3:DE:D7,,infra,,2,0,?,?,?,False,108,310410 313100 310280,wpa2,US,FL,Northwest 13th Terrace,,8651,33126
25.78652382,-80.33480072,LiveBetter,0,20240720-00000,2024-07-20T20:00:00.000Z,2024-07-20T15:00:00.000Z,2024-07-21T01:00:00.000Z,00:3E:73:C3:E1:47,,infra,,2,0,?,?,?,False,161,310410 313100 310280,wpa2,US,FL,Northwest 13th Terrace,,8651,33126
25.78702164,-80.33462524,LiveBetter,0,20240720-00000,2024-07-20T20:00:00.000Z,2024-07-20T15:00:00.000Z,2024-07-21T01:00:00.000Z,00:3E:73:C3:E1:A7,,infra,,2,0,?,?,?,False,44,310410 313100 310280,wpa2,US,FL,Northwest 13th Terrace,,8651,33126
25.78650856,-80.33624268,LiveBetter,0,20240720-00000,2024-07-20T20:00:00.000Z,2024-07-20T15:00:00.000Z,2024-07-21T01:00:00.000Z,00:3E:73:C5:56:97,,infra,,2,0,?,?,?,False,40,310410 313100 310280,wpa2,US,FL,Northwest 13th Terrace,,8651,33126
31.98100471,-81.17436981,LiveBetter,2,20240318-00000,2024-03-11T17:00:00.000Z,2024-04-05T20:00:00.000Z,2024-04-06T00:00:00.000Z,00:3E:73:C5:59:C7,,infra,,2,0,?,?,?,False,56,310410 313100 310280,wpa2,US,GA,Abercorn Street,Savannah,14030,31419
25.78669167,-80.33482361,LiveBetter,0,20240720-00000,2024-07-20T20:00:00.000Z,2024-07-20T15:00:00.000Z,2024-07-21T01:00:00.000Z,00:3E:73:C5:5C:97,,infra,,2,0,?,?,?,False,100,310410 313100 310280,wpa2,US,FL,Northwest 13th Terrace,,8651,33126
25.7868824,-80.33457184,LiveBetter,0,20240720-00000,2024-07-20T20:00:00.000Z,2024-07-20T15:00:00.000Z,2024-07-21T01:00:00.000Z,00:3E:73:C5:5D:87,,infra,,2,0,?,?,?,False,104,310410 313100 310280,wpa2,US,FL,Northwest 13th Terrace,,8651,33126
25.78694534,-80.33461761,LiveBetter,0,20240720-00000,2024-07-20T20:00:00.000Z,2024-07-20T15:00:00.000Z,2024-07-21T01:00:00.000Z,00:3E:73:C5:5D:B7,,infra,,2,0,?,?,?,False,36,310410 313100 310280,wpa2,US,FL,Northwest 13th Terrace,,8651,33126
25.78664398,-80.33468628,LiveBetter,0,20240720-00000,2024-07-20T20:00:00.000Z,2024-07-20T15:00:00.000Z,2024-07-21T01:00:00.000Z,00:3E:73:C5:5F:67,,infra,,2,0,?,?,?,False,48,310410 313100 310280,wpa2,US,FL,Northwest 13th Terrace,,8651,33126
25.7865181,-80.33480835,LiveBetter,0,20240720-00000,2024-07-20T20:00:00.000Z,2024-07-20T15:00:00.000Z,2024-07-21T01:00:00.000Z,00:3E:73:C5:5F:97,,infra,,2,0,?,?,?,False,140,310410 313100 310280,wpa2,US,FL,Northwest 13th Terrace,,8651,33126
25.786726,-80.3346405,LiveBetter,0,20240720-00000,2024-07-20T20:00:00.000Z,2024-07-20T15:00:00.000Z,2024-07-21T01:00:00.000Z,00:3E:73:C5:5F:C7,,infra,,2,0,?,?,?,False,64,310410 313100 310280,wpa2,US,FL,Northwest 13th Terrace,,8651,33126
25.7870369,-80.33467865,LiveBetter,0,20240720-00000,2024-07-20T20:00:00.000Z,2024-07-20T15:00:00.000Z,2024-07-21T01:00:00.000Z,00:3E:73:C5:5F:F7,,infra,,2,0,?,?,?,False,100,310410 313100 310280,wpa2,US,FL,Northwest 13th Terrace,,8651,33126
25.78650856,-80.33482361,LiveBetter,0,20240720-00000,2024-07-20T20:00:00.000Z,2024-07-20T15:00:00.000Z,2024-07-21T01:00:00.000Z,00:3E:73:C5:60:57,,infra,,2,0,?,?,?,False,64,310410 313100 310280,wpa2,US,FL,Northwest 13th Terrace,,8651,33126
25.78644562,-80.33589935,LiveBetter,0,20240720-00000,2024-07-20T20:00:00.000Z,2024-07-20T15:00:00.000Z,2024-07-21T01:00:00.000Z,00:3E:73:C5:60:87,,infra,,2,0,?,?,?,False,136,310410 313100 310280,wpa2,US,FL,Northwest 13th Terrace,,8651,33126
25.78701782,-80.33464813,LiveBetter,0,20240720-00000,2024-07-20T20:00:00.000Z,2024-07-20T15:00:00.000Z,2024-07-21T01:00:00.000Z,00:3E:73:C5:60:E7,,infra,,2,0,?,?,?,False,140,310410 313100 310280,wpa2,US,FL,Northwest 13th Terrace,,8651,33126
25.78687859,-80.33457184,LiveBetter,0,20240720-00000,2024-07-20T20:00:00.000Z,2024-07-20T15:00:00.000Z,2024-07-21T01:00:00.000Z,00:3E:73:C5:61:17,,infra,,2,0,?,?,?,False,165,310410 313100 310280,wpa2,US,FL,Northwest 13th Terrace,,8651,33126
25.78645706,-80.33562469,LiveBetter,0,20240720-00000,2024-07-20T20:00:00.000Z,2024-07-20T15:00:00.000Z,2024-07-21T01:00:00.000Z,00:3E:73:C5:61:47,,infra,,2,0,?,?,?,False,56,310410 313100 310280,wpa2,US,FL,Northwest 13th Terrace,,8651,33126
25.78664398,-80.33470154,LiveBetter,0,20240720-00000,2024-07-20T20:00:00.000Z,2024-07-20T15:00:00.000Z,2024-07-21T01:00:00.000Z,00:3E:73:C5:62:37,,infra,,2,0,?,?,?,False,36,310410 313100 310280,wpa2,US,FL,Northwest 13th Terrace,,8651,33126
0.0,0.0,LiveBetter,0,20240720-00000,2001-01-01T00:00:00.000Z,2001-01-01T00:00:00.000Z,2024-07-21T01:00:00.000Z,00:3E:73:C5:62:67,,infra,,2,0,?,?,?,False,56,310410 313100 310280,wpa2,,,,,,
25.78665352,-80.3347702,LiveBetter,0,20240720-00000,2024-07-20T20:00:00.000Z,2024-07-20T15:00:00.000Z,2024-07-21T01:00:00.000Z,00:3E:73:C5:63:87,,infra,,2,0,?,?,?,False,100,310410 313100 310280,wpa2,US,FL,Northwest 13th Terrace,,8651,33126
25.78679848,-80.33482361,LiveBetter,0,20240720-00000,2024-07-20T20:00:00.000Z,2024-07-20T15:00:00.000Z,2024-07-21T01:00:00.000Z,00:3E:73:C5:63:E7,,infra,,2,0,?,?,?,False,36,310410 313100 310280,wpa2,US,FL,Northwest 13th Terrace,,8651,33126
25.78688812,-80.33473969,LiveBetter,0,20240720-00000,2024-07-20T20:00:00.000Z,2024-07-20T15:00:00.000Z,2024-07-21T01:00:00.000Z,00:3E:73:C5:64:D7,,infra,,2,0,?,?,?,False,100,310410 313100 310280,wpa2,US,FL,Northwest 13th Terrace,,8651,33126
25.78672028,-80.33472443,LiveBetter,0,20240720-00000,2024-07-20T20:00:00.000Z,2024-07-20T15:00:00.000Z,2024-07-21T01:00:00.000Z,00:3E:73:C5:65:67,,infra,,2,0,?,?,?,False,40,310410 313100 310280,wpa2,US,FL,Northwest 13th Terrace,,8651,33126
25.78664017,-80.33482361,LiveBetter,0,20240720-00000,2024-07-20T20:00:00.000Z,2024-07-20T15:00:00.000Z,2024-07-21T01:00:00.000Z,00:3E:73:C5:66:27,,infra,,2,0,?,?,?,False,157,310410 313100 310280,wpa2,US,FL,Northwest 13th Terrace,,8651,33126
31.98096848,-81.17397308,LiveBetter,0,20240405-00000,2024-04-06T00:00:00.000Z,2024-04-05T20:00:00.000Z,2024-04-06T00:00:00.000Z,00:3E:73:C5:7A:67,,infra,,2,0,?,?,?,False,157,310410 313100 310280,wpa2,US,GA,Abercorn Street,Savannah,14030,31419
31.98089218,-81.17391205,LiveBetter,0,20240405-00000,2024-04-06T00:00:00.000Z,2024-04-05T20:00:00.000Z,2024-04-06T00:00:00.000Z,00:3E:73:C5:7A:F7,,infra,,2,0,?,?,?,False,64,310410 313100 310280,wpa2,US,GA,Abercorn Street,Savannah,14030,31419
31.98118401,-81.17350006,LiveBetter,5,20240401-00000,2024-04-01T16:00:00.000Z,2024-07-14T18:00:00.000Z,2024-07-14T18:00:00.000Z,00:3E:73:C5:7C:17,,infra,,2,0,?,?,?,False,56,310410 313100 310280,wpa2,US,GA,Abercorn Street,Savannah,14030,31419
31.98089981,-81.17389679,LiveBetter,0,20240405-00000,2024-04-06T00:00:00.000Z,2024-04-05T20:00:00.000Z,2024-04-06T00:00:00.000Z,00:3E:73:C5:7D:67,,infra,,2,0,?,?,?,False,100,310410 313100 310280,wpa2,US,GA,Abercorn Street,Savannah,14030,31419
31.98087883,-81.17398071,LiveBetter,0,20240405-00000,2024-04-06T00:00:00.000Z,2024-04-05T20:00:00.000Z,2024-04-06T00:00:00.000Z,00:3E:73:C5:7F:47,,infra,,2,0,?,?,?,False,44,310410 313100 310280,wpa2,US,GA,Abercorn Street,Savannah,14030,31419
39.18075943,-76.66498566,Orion,4,20240322-00000,2024-03-23T04:00:00.000Z,2024-05-16T08:00:00.000Z,2024-05-16T09:00:00.000Z,00:3E:73:C7:DB:C4,,infra,,2,0,?,?,?,False,40,f4f5e8f5f4,wpa2,US,MD,D12,,,21090
39.18095398,-76.66447449,Orion,5,20240322-00000,2024-03-23T04:00:00.000Z,2024-05-16T08:00:00.000Z,2024-05-16T09:00:00.000Z,00:3E:73:C7:DB:E4,,infra,,2,0,?,?,?,False,6,f4f5e8f5f4,wpa2,US,MD,D12,,,21090
37.75600052,-77.45864105,LiveBetter,2,20240303-00000,2024-03-03T14:00:00.000Z,2024-03-16T15:00:00.000Z,2024-03-16T19:00:00.000Z,00:3E:73:CF:2E:07,,infra,,2,0,?,?,?,False,157,310410 313100 310280,wpa2,US,VA,I 95,,145,23005
33.39390564,-84.74342346,LiveBetter,0,20240415-00000,2024-03-25T21:00:00.000Z,2024-04-15T20:00:00.000Z,2024-04-15T20:00:00.000Z,00:3E:73:CF:5F:87,,infra,,2,0,?,?,?,False,161,310410 313100 310280,wpa2,US,GA,Newnan Crossing Boulevard,,1025,30265
33.39387512,-84.74344635,LiveBetter,0,20240415-00000,2024-03-25T21:00:00.000Z,2024-04-15T20:00:00.000Z,2024-04-15T20:00:00.000Z,00:3E:73:CF:63:17,,infra,,2,0,?,?,?,False,44,310410 313100 310280,wpa2,US,GA,Newnan Crossing Boulevard,,1025,30265
33.39403534,-84.74355316,LiveBetter,0,20240415-00000,2024-03-25T21:00:00.000Z,2024-04-15T20:00:00.000Z,2024-04-15T20:00:00.000Z,00:3E:73:CF:6D:F7,,infra,,2,0,?,?,?,False,36,310410 313100 310280,wpa2,US,GA,Newnan Crossing Boulevard,,1025,30265
33.39410782,-84.7436142,LiveBetter,0,20240415-00000,2024-03-25T21:00:00.000Z,2024-04-15T20:00:00.000Z,2024-04-15T20:00:00.000Z,00:3E:73:CF:75:D7,,infra,,2,0,?,?,?,False,100,310410 313100 310280,wpa2,US,GA,Newnan Crossing Boulevard,,1025,30265
33.39399338,-84.74354553,LiveBetter,0,20240415-00000,2024-03-25T21:00:00.000Z,2024-04-15T20:00:00.000Z,2024-04-15T20:00:00.000Z,00:3E:73:CF:77:27,,infra,,2,0,?,?,?,False,140,310410 313100 310280,wpa2,US,GA,Newnan Crossing Boulevard,,1025,30265
33.39389801,-84.74337006,LiveBetter,0,20240415-00000,2024-03-25T21:00:00.000Z,2024-04-15T20:00:00.000Z,2024-04-15T20:00:00.000Z,00:3E:73:CF:77:57,,infra,,2,0,?,?,?,False,153,310410 313100 310280,wpa2,US,GA,Newnan Crossing Boulevard,,1025,30265
33.3938942,-84.74351501,LiveBetter,0,20240415-00000,2024-03-25T21:00:00.000Z,2024-04-15T20:00:00.000Z,2024-04-15T20:00:00.000Z,00:3E:73:D1:45:57,,infra,,2,0,?,?,?,False,153,310410 313100 310280,wpa2,US,GA,Newnan Crossing Boulevard,,1025,30265
